MSR_Id;Lane;Direction;Latitude;Longitude;Name;Canton;Direction;Street 
CH:0026.01;lane1;;46.9988632;8.31111336;ENNETHORW (AB);LU;LUZERN;A 2
CH:0002.02;lane1;negative;46.5751495;6.7246213;CHALET-A-GOBET;VD;LAUSANNE            ;H 1
CH:0003.01;lane1;negative;46.1050797;8.69817543;BRISSAGO S;TI;LOCARNO             ;H 13
CH:0026.02;lane1;negative;46.9988785;8.31123352;ENNETHORW (AB);LU;LUZERN;A 2
CH:0393.04;lane2;positive;46.8433304;8.20024967;SACHSELN, ZOLLHAUS;OW;BRUENIG;A 8
CH:0005.02;lane1;negative;47.0001945;9.07607269;SCHWANDEN N;GL;LINTHAL             ;H 17
CH:0006.01;lane1;negative;47.5379257;7.62413597;MUTTENZ, A2/ZUBR. SCHAENZLI;BL;BASEL               ;H 18
CH:0006.02;lane2;negative;47.5379257;7.62419224;MUTTENZ, A2/ZUBR. SCHAENZLI;BL;BASEL               ;H 18
CH:0026.03;lane2;negative;46.9988747;8.31128216;ENNETHORW (AB);LU;LUZERN;A 2
CH:0026.04;lane2;positive;46.9989243;8.31138039;ENNETHORW (AB);LU;STANS;A 2
CH:0009.01;lane1;negative;46.770153;8.14407444;BRUENIG, LETZI;OW;LUZERN              ;A 8
CH:0020.01;emergencyLane;positive;47.4296455;8.51094341;UMF. ZUERICH N, AFFOLTERN (AB);ZH;GLATTBRUGG          ;A 1C
CH:0010.01;lane1;negative;46.6169052;8.56317139;HOSPENTAL S, ST. GOTTHARD;UR;GOESCHENEN;H 2
CH:0020.02;lane1;positive;47.4296761;8.51092434;UMF. ZUERICH N, AFFOLTERN (AB);ZH;GLATTBRUGG          ;A 1C
CH:0014.01;lane1;negative;46.4647026;9.79491425;JULIER, LA VEDUTA;GR;CHUR                ;H 3
CH:0020.03;lane2;positive;47.4297028;8.5109005;UMF. ZUERICH N, AFFOLTERN (AB);ZH;GLATTBRUGG          ;A 1C
CH:0393.05;lane1;positive;46.8433647;8.20007515;SACHSELN, ZOLLHAUS;OW;BRUENIG;A 8
CH:0016.02;lane1;negative;47.1020393;7.1759944;TWANN, WINGREIS (AR);BE;NEUCHATEL           ;A 5
CH:0020.04;lane3;positive;47.4297295;8.51087666;UMF. ZUERICH N, AFFOLTERN (AB);ZH;GLATTBRUGG          ;A 1C
CH:0026.05;lane1;positive;46.9989243;8.3114233;ENNETHORW (AB);LU;STANS;A 2
CH:0017.03;lane2;negative;47.3878708;8.1010952;BUCHS AG (AB);AG;AARAU               ;A 1R
CH:0017.04;lane1;negative;47.3879013;8.10109329;BUCHS AG (AB);AG;AARAU               ;A 1R
CH:0018.01;lane1;negative;46.7156982;8.20807362;MEIRINGEN E, LAMMI;BE;INTERLAKEN          ;H 6
CH:0694.03;lane2;positive;47.1189919;8.37459469;ROOT (AB);LU;LUZERN;A 14
CH:0263.01;lane1;positive;46.478157;8.38672447;NUFENENPASS;VS;AIROLO;H 413
CH:0694.04;lane1;positive;47.1189651;8.37459755;ROOT (AB);LU;LUZERN;A 14
CH:0833.01;lane1;positive;47.1495285;7.28867388;BUETTENBERGTUNNEL;BE;SOLOTHURN;A 5
CH:0833.02;lane2;positive;47.1495285;7.28862715;BUETTENBERGTUNNEL;BE;SOLOTHURN;A 5
CH:0020.05;lane3;negative;47.4297981;8.51082897;UMF. ZUERICH N, AFFOLTERN (AB);ZH;VERZW. A1C/A1;A 1C
CH:0020.06;lane2;negative;47.4298248;8.51080036;UMF. ZUERICH N, AFFOLTERN (AB);ZH;VERZW. A1C/A1;A 1C
CH:0020.07;lane1;negative;47.4298515;8.51077175;UMF. ZUERICH N, AFFOLTERN (AB);ZH;VERZW. A1C/A1;A 1C
CH:0020.08;emergencyLane;negative;47.429882;8.51074982;UMF. ZUERICH N, AFFOLTERN (AB);ZH;VERZW. A1C/A1;A 1C
CH:0022.01;lane1;negative;47.367485;9.62198257;KRIESSERN (AB);SG;ST. MARGRETHEN;A 13
CH:0022.02;lane2;negative;47.3674622;9.62201595;KRIESSERN (AB);SG;ST. MARGRETHEN;A 13
CH:0055.03;lane2;positive;47.2119446;8.67225552;RICHTERSWIL (AB);ZH;SARGANS             ;A 3
CH:0026.06;lane1;;46.9988518;8.31150723;ENNETHORW (AB);LU;LUZERN;A 2
CH:0055.02;lane1;positive;47.2119293;8.67221069;RICHTERSWIL (AB);ZH;SARGANS             ;A 3
CH:0298.01;lane1;positive;47.4025116;8.20724678;OTHMARSINGEN (AB);AG;ZUERICH;A 1
CH:0073.03;lane2;negative;47.31213;7.80757189;HAERKINGEN (AB);SO;BERN                ;A 1
CH:0073.04;lane1;negative;47.3121681;7.80757904;HAERKINGEN (AB);SO;BERN                ;A 1
CH:0033.01;emergencyLane;negative;47.3965607;7.81335735;EPTINGEN N (AB);BL;AUGST               ;A 2
CH:0368.02;lane1;negative;46.9628906;7.4369936;BERN, ZUBRINGER NEUFELD (TUNNEL);BE;VERZWEIGUNG NEUFELD;A 1
CH:0298.02;lane2;positive;47.4025307;8.207201;OTHMARSINGEN (AB);AG;ZUERICH;A 1
CH:0640.04;lane2;negative;47.530529;8.81430244;ANSCHLUSS ATTIKON (AB));ZH;ZUERICH;A 1
CH:0025.01;lane1;negative;47.0144196;9.50469589;BAD RAGAZ (AB);SG;SARGANS             ;A 13
CH:0025.02;lane2;negative;47.0144577;9.50470352;BAD RAGAZ (AB);SG;SARGANS             ;A 13
CH:0033.02;lane1;negative;47.3965836;7.81340265;EPTINGEN N (AB);BL;AUGST               ;A 2
CH:0033.03;lane2;negative;47.3966026;7.81345606;EPTINGEN N (AB);BL;AUGST               ;A 2
CH:0033.04;lane2;positive;47.3965454;7.81383181;EPTINGEN N (AB);BL;HAERKINGEN          ;A 2
CH:0033.05;lane1;positive;47.3965569;7.8138876;EPTINGEN N (AB);BL;HAERKINGEN          ;A 2
CH:0049.01;lane1;negative;46.9763145;8.33581638;STANSSTAD S (AB);NW;LUZERN              ;A 2
CH:0262.02;lane1;positive;46.7182541;8.57452583;SUSTENPASS, MEIEN;UR;WASSEN;H 11
CH:0112.01;lane1;positive;47.0209465;7.03112411;PONT DE THIELLE;NE;INS                 ;H 10
CH:0049.02;lane2;negative;46.9763336;8.33585072;STANSSTAD S (AB);NW;LUZERN              ;A 2
CH:0027.01;lane1;negative;46.7153511;8.88228989;DISENTIS E;GR;REICHENAU           ;H 19
CH:0112.02;lane2;positive;47.0209732;7.03112411;PONT DE THIELLE;NE;INS                 ;H 10
CH:0030.01;lane1;negative;47.3893509;7.37092876;SOYHIERES;JU;LAUFEN              ;H 18
CH:0640.05;lane1;negative;47.5305634;8.81431103;ANSCHLUSS ATTIKON (AB));ZH;ZUERICH;A 1
CH:0084.03;lane2;negative;47.4314003;9.37884235;ST. GALLEN, ROSENB'TUNNEL (AB);SG;ST. GALLEN WEST;A 1
CH:0084.04;lane1;negative;47.4314346;9.37882137;ST. GALLEN, ROSENB'TUNNEL (AB);SG;ST. GALLEN WEST;A 1
CH:0194.01;emergencyLane;positive;47.3889656;8.41390514;URDORF (AB);ZH;BIRMENSDORF         ;A 3
CH:0229.02;lane2;positive;47.3160477;7.94431257;OFTRINGEN E (AB);AG;ZUERICH;A 1
CH:0049.03;lane2;positive;46.976368;8.33591461;STANSSTAD S (AB);NW;ALTDORF             ;A 2
CH:0049.04;lane1;positive;46.9763908;8.33595657;STANSSTAD S (AB);NW;ALTDORF             ;A 2
CH:0070.01;lane1;negative;47.5569496;7.61455154;BASEL, SCHWARZWALDBR. (AB);BS;DEUTSCHLAND         ;A 2
CH:0378.05;lane1;positive;47.6732292;8.62308311;UHWIESEN ANSCHLUSS (AB);ZH;ZUERICH;A 4
CH:0194.02;lane1;positive;47.3889618;8.41394138;URDORF (AB);ZH;BIRMENSDORF         ;A 3
CH:0035.01;lane1;negative;47.0388069;9.46235752;TRUEBBACH S (AB);SG;ST. MARGRETHEN;A 13
CH:0035.02;lane1;negative;47.0388908;9.46272087;TRUEBBACH S (AB);SG;ST. MARGRETHEN;A 13
CH:0035.03;lane2;negative;47.0388794;9.46276188;TRUEBBACH S (AB);SG;ST. MARGRETHEN;A 13
CH:0194.03;lane2;positive;47.3889618;8.4139843;URDORF (AB);ZH;BIRMENSDORF         ;A 3
CH:0533.01;lane1;positive;47.5568123;8.68976212;HENGGART (AB) - ZH0497;ZH;WINTERTHUR;A 4
CH:0537.04;lane2;positive;46.4752617;6.86127377;VEVEY (AR);VD;MONTREUX;A 9
CH:0038.02;lane1;negative;47.3517838;7.92216635;STARRKIRCH;SO;OLTEN               ;H 5
CH:0040.01;lane1;negative;46.9527664;8.27782345;ALPNACHSTAD (AB);OW;LUZERN              ;A 8
CH:0537.03;lane1;positive;46.4752312;6.86124086;VEVEY (AR);VD;MONTREUX;A 9
CH:0041.01;lane1;negative;45.8981743;7.1943326;GRAND-ST-BERNARD (TUNNEL);VS;SCHWEIZ;H 21
CH:0765.01;lane1;positive;47.3979836;9.29671478;ST.GALLEN, WINKELN ALTER ZOLL - SG51;SG;VERZWEIGUNG A1;H 8
CH:0042.01;lane1;negative;46.9586525;7.47029781;UMF. BERN OST (AB);BE;WANKDORF;A 6
CH:0042.02;lane2;negative;46.9586258;7.47033167;UMF. BERN OST (AB);BE;WANKDORF;A 6
CH:0760.01;lane1;positive;47.3458557;8.74349403;USTER O;ZH;RUETI;A 15
CH:0070.02;lane2;negative;47.5569649;7.61459017;BASEL, SCHWARZWALDBR. (AB);BS;DEUTSCHLAND         ;A 2
CH:0229.01;lane1;positive;47.316021;7.94433308;OFTRINGEN E (AB);AG;ZUERICH;A 1
CH:0010.02;lane1;positive;46.6168976;8.56322289;HOSPENTAL S, ST. GOTTHARD;UR;BELLINZONA;H 2
CH:0211.01;lane1;positive;46.6518517;7.77477741;LEISSIGEN (TUNNEL) (AS);BE;INTERLAKEN;A 8
CH:0070.03;lane2;positive;47.5569763;7.61465931;BASEL, SCHWARZWALDBR. (AB);BS;AUGST               ;A 2
CH:0630.01;lane1;positive;46.8397141;9.58739281;CALFREISEN - GR211;GR;AROSA;H 566
CH:0601.04;lane2;negative;47.4276085;9.36228561;ST. GALLEN, SCHORENTUNNEL (AB);SG;A1 ZUERICH / ST.MARGRETHEN;A 1
CH:0044.01;lane1;negative;46.4645653;9.18580532;SAN BERNARDINO (TUNNEL);GR;CHUR                ;A 13
CH:0308.01;lane1;positive;47.1902924;8.83076477;LACHEN (AB);SZ;CHUR;A 3
CH:0070.04;lane1;positive;47.5569878;7.61470366;BASEL, SCHWARZWALDBR. (AB);BS;AUGST               ;A 2
CH:0076.01;lane1;negative;45.9648781;8.92612457;GRANCIA (AS);TI;LUGANO              ;A 2
CH:0270.02;lane2;positive;47.411602;8.57367039;ZUERICH - OERLIKON (AB) ZH 1301;ZH;WINTERTHUR;A 1L
CH:0308.02;lane2;positive;47.1903954;8.83080101;LACHEN (AB);SZ;CHUR;A 3
CH:0051.01;lane1;negative;45.8469658;8.93451118;STABIO;TI;MENDRISIO;H 394
CH:0813.03;lane1;positive;47.3997765;8.54818821;MILCHBUCK;ZH;ST. GALLEN;A 1L
CH:0188.02;lane1;positive;46.4645844;6.07313251;LA CURE;VD;SCHWEIZ;H 123
CH:0270.01;lane1;positive;47.4115105;8.57367325;ZUERICH - OERLIKON (AB) ZH 1301;ZH;WINTERTHUR;A 1L
CH:0053.03;lane2;negative;47.1270294;9.10202217;WEESEN, KERENZERBERG (AB);GL;ZUERICH;A 3
CH:0053.04;lane1;negative;47.1270599;9.10202408;WEESEN, KERENZERBERG (AB);GL;ZUERICH;A 3
CH:0547.03;lane1;positive;46.1619568;8.77346992;ASCONA GALLERIA;TI;BRISSAGO;A 13
CH:0844.03;lane3;positive;47.6910286;8.62188244;BAHNTAL GALGENBUCKTUNNEL;SH;SCHAFFHAUSEN;A 4
CH:0054.03;lane2;negative;47.3197746;8.5344677;ADLISWIL (AB);ZH;ZUERICH             ;A 3
CH:0054.04;lane1;negative;47.3197899;8.53450966;ADLISWIL (AB);ZH;ZUERICH             ;A 3
CH:0054.05;lane1;;47.3198128;8.53456116;ADLISWIL (AB);ZH;ZUERICH             ;A 3
CH:0055.01;lane1;;47.2122803;8.67181015;RICHTERSWIL (AB);ZH;ZUERICH             ;A 3
CH:0589.03;emergencyLane;positive;47.3484344;8.42644501;ANSCHLUSS BIRMENSDORF 1 (AB) - ZH1107;ZH;VERZW. ZUERICH WEST;A 3
CH:0589.01;lane2;positive;47.3484688;8.42651558;ANSCHLUSS BIRMENSDORF 1 (AB) - ZH1107;ZH;VERZW. ZUERICH WEST;A 3
CH:0055.04;lane2;negative;47.2119713;8.67235661;RICHTERSWIL (AB);ZH;ZUERICH             ;A 3
CH:0055.05;lane1;negative;47.2119865;8.67240238;RICHTERSWIL (AB);ZH;ZUERICH             ;A 3
CH:0601.03;lane1;negative;47.4275932;9.36221409;ST. GALLEN, SCHORENTUNNEL (AB);SG;A1 ZUERICH / ST.MARGRETHEN;A 1
CH:0281.03;lane1;positive;47.5230751;8.71537018;OHRINGEN ANSCHLUSS 1 (AB);ZH;ST. GALLEN          ;A 1
CH:0281.04;lane2;positive;47.5231094;8.71538353;OHRINGEN ANSCHLUSS 1 (AB);ZH;ST. GALLEN          ;A 1
CH:0589.02;lane1;positive;47.3484497;8.4264822;ANSCHLUSS BIRMENSDORF 1 (AB) - ZH1107;ZH;VERZW. ZUERICH WEST;A 3
CH:0844.02;lane2;positive;47.69104;8.62192631;BAHNTAL GALGENBUCKTUNNEL;SH;SCHAFFHAUSEN;A 4
CH:0516.01;lane1;positive;47.5301895;8.77277184;ANSCHLUSS OBERWINTERTHUR 1 (AB);ZH;ST.GALLEN;A 1
CH:0220.03;lane2;positive;47.4465523;8.24533749;MUELLIGEN, VERZW. A3/A1 (AB);AG;VERZW. A3/A1;A 3
CH:0220.02;lane1;positive;47.4465218;8.24532223;MUELLIGEN, VERZW. A3/A1 (AB);AG;VERZW. A3/A1;A 3
CH:0059.03;lane2;negative;46.9975243;6.95203161;TRAV. DE NEUCHATEL E (AR);NE;YVERDON             ;A 5
CH:0059.04;lane1;negative;46.9975586;6.95204258;TRAV. DE NEUCHATEL E (AR);NE;YVERDON             ;A 5
CH:0516.02;lane2;positive;47.5302162;8.77275181;ANSCHLUSS OBERWINTERTHUR 1 (AB);ZH;ST.GALLEN;A 1
CH:0285.05;lane2;negative;46.9557037;7.41752529;BERN, FORSTHAUS (AB);BE;VERWZ. A1/A12;A 1
CH:0285.06;lane1;negative;46.9557266;7.41748524;BERN, FORSTHAUS (AB);BE;VERWZ. A1/A12;A 1
CH:0285.07;lane2;negative;46.9557495;7.41744947;BERN, FORSTHAUS (AB);BE;VERWZ. A1/A12;A 1
CH:0285.08;lane1;negative;46.9557724;7.41741848;BERN, FORSTHAUS (AB);BE;VERWZ. A1/A12;A 1
CH:0511.02;lane2;positive;46.51577;6.50204992;MORGES CENTRE (AR);VD;LAUSANNE;A 1
CH:0511.01;lane1;positive;46.5157394;6.50207043;MORGES CENTRE (AR);VD;LAUSANNE;A 1
CH:0072.04;lane1;negative;47.3822136;8.11100578;HUNZENSCHWIL (AB);AG;BERN;A 1
CH:0076.02;lane2;negative;45.9648972;8.92616653;GRANCIA (AS);TI;LUGANO              ;A 2
CH:0064.04;lane3;negative;46.5458031;6.63147402;CONT. DE LAUSANNE (AR);VD;GENEVE;A 9
CH:0064.05;lane2;negative;46.5458183;6.63150501;CONT. DE LAUSANNE (AR);VD;GENEVE;A 9
CH:0064.06;lane1;negative;46.5458374;6.63154554;CONT. DE LAUSANNE (AR);VD;GENEVE;A 9
CH:0072.03;lane2;negative;47.382206;8.11104774;HUNZENSCHWIL (AB);AG;BERN;A 1
CH:0208.04;lane1;negative;47.4472237;8.24872875;BIRRHARD, VERZW. A1  (AB);AG;BERN;A 1
CH:0208.03;lane2;negative;47.4472008;8.24876213;BIRRHARD, VERZW. A1  (AB);AG;BERN;A 1
CH:0068.05;lane1;negative;46.2536125;6.13867188;COLOVREX-LAC (AR);GE;GENEVE              ;A 1
CH:0076.03;lane2;positive;45.9649773;8.9263258;GRANCIA (AS);TI;CHIASSO             ;A 2
CH:0619.04;lane1;positive;47.1989098;8.45948792;BLEGI S (AB);ZG;VERZW. A4/A14;A 4
CH:0066.06;lane2;negative;47.4056129;8.45954609;SCHLIEREN (AB);ZH;BERN                ;A 1
CH:0220.01;lane1;positive;47.4464188;8.24502659;MUELLIGEN, VERZW. A3/A1 (AB);AG;VERZW. A3/A1;A 3
CH:0067.02;lane1;negative;46.3392677;8.02156162;NATERS, BITSCH;VS;BRIG                ;H 19
CH:0068.06;lane2;negative;46.2536545;6.13869715;COLOVREX-LAC (AR);GE;GENEVE              ;A 1
CH:0066.05;lane3;negative;47.4055786;8.4595232;SCHLIEREN (AB);ZH;BERN                ;A 1
CH:0619.03;lane2;positive;47.1989326;8.45944786;BLEGI S (AB);ZG;VERZW. A4/A14;A 4
CH:0562.06;emergencyLane;positive;47.355175;8.42153168;BIRMENSDORF, HAFNERBERGTUNNEL (AB) - ZH1104;ZH;VERZW. ZUERICH WEST;A 4
CH:0562.05;lane1;positive;47.355175;8.4215889;BIRMENSDORF, HAFNERBERGTUNNEL (AB) - ZH1104;ZH;VERZW. ZUERICH WEST;A 4
CH:0587.02;lane1;positive;47.6557961;9.15947533;KREUZLINGEN, HAUPTZOLLAMT;TG;DEUTSCHLAND;A 7
CH:0587.03;lane2;positive;47.6558037;9.15943432;KREUZLINGEN, HAUPTZOLLAMT;TG;DEUTSCHLAND;A 7
CH:0066.07;lane1;negative;47.4056396;8.45957851;SCHLIEREN (AB);ZH;BERN                ;A 1
CH:0076.04;lane1;positive;45.9649887;8.92637253;GRANCIA (AS);TI;CHIASSO             ;A 2
CH:0077.03;lane1;negative;45.8399048;9.02125072;CHIASSO-BROGEDA (AS);TI;SCHWEIZ;A 2
CH:0562.04;lane2;positive;47.3551788;8.42164803;BIRMENSDORF, HAFNERBERGTUNNEL (AB) - ZH1104;ZH;VERZW. ZUERICH WEST;A 4
CH:0536.01;lane1;positive;46.5150642;6.69843864;LAUSANNE LA CROIX (AR);VD;VEVEY;A 9
CH:0068.07;lane1;negative;46.253788;6.13879681;COLOVREX-LAC (AR);GE;GENEVE              ;A 1
CH:0068.08;lane2;negative;46.2538071;6.13884163;COLOVREX-LAC (AR);GE;GENEVE              ;A 1
CH:0536.02;lane2;positive;46.5150909;6.6984601;LAUSANNE LA CROIX (AR);VD;VEVEY;A 9
CH:0337.01;lane1;positive;47.4266777;8.2351265;BIRRHARD (AB) - AG1406;AG;ZUERICH;A 1
CH:0337.02;lane2;positive;47.4266968;8.23507977;BIRRHARD (AB) - AG1406;AG;ZUERICH;A 1
CH:0502.01;lane1;positive;47.1273804;9.0692749;OBERURNEN, ZUBRINGER GLARNERLAND (AB);GL;A3 CHUR / RAPPERSWIL;A 17
CH:0189.03;lane1;positive;47.0680046;6.7674098;LE LOCLE E;NE;LA CHAUX-DE-FONDS;H 20
CH:0502.02;lane2;positive;47.1273651;9.06921577;OBERURNEN, ZUBRINGER GLARNERLAND (AB);GL;A3 CHUR / RAPPERSWIL;A 17
CH:0567.01;lane2;positive;47.3417435;8.45880699;DREIECK ZUERICH-WEST 2 (AB) - ZH1203;ZH;ZUERICH / CHUR;A 4
CH:0075.02;lane1;negative;46.9042397;7.70723486;BOWIL, BORI;BE;ZAEZIWIL            ;H 10
CH:0077.04;lane2;negative;45.8399315;9.0212841;CHIASSO-BROGEDA (AS);TI;SCHWEIZ;A 2
CH:0077.05;lane2;positive;45.8409767;9.01960754;CHIASSO-BROGEDA (AS);TI;ITALIEN;A 2
CH:0180.02;lane2;positive;47.7408752;8.71370602;THAYNGEN;SH;SCHAFFHAUSEN        ;H 15
CH:0180.03;lane1;positive;47.7408409;8.71369839;THAYNGEN;SH;SCHAFFHAUSEN        ;H 15
CH:0077.06;lane1;positive;45.840992;9.01964569;CHIASSO-BROGEDA (AS);TI;ITALIEN;A 2
CH:0081.01;emergencyLane;negative;47.5387268;7.64480352;MUTTENZ, HARD (AB);BL;BASEL;A 2
CH:0727.04;lane2;positive;47.1540413;8.43402863;VERZW. RUETIHOF (AB);ZG;KUESSNACHT;A 4
CH:0567.02;lane1;positive;47.3417397;8.45885944;DREIECK ZUERICH-WEST 2 (AB) - ZH1203;ZH;ZUERICH / CHUR;A 4
CH:0116.01;lane1;positive;46.5017548;6.71498966;GRANDVAUX N (AR);VD;VEVEY               ;A 9
CH:0078.02;lane2;negative;46.7795029;6.9204278;PAYERNE S;VD;LAUSANNE            ;H 1
CH:0078.03;lane1;negative;46.7795105;6.92038774;PAYERNE S;VD;LAUSANNE            ;H 1
CH:0189.02;lane2;positive;47.0680008;6.76747799;LE LOCLE E;NE;LA CHAUX-DE-FONDS;H 20
CH:0079.02;lane1;negative;47.1616783;7.66601801;SEEBERG N;BE;KIRCHBERG           ;H 1
CH:0081.02;lane1;negative;47.5387535;7.6448245;MUTTENZ, HARD (AB);BL;BASEL;A 2
CH:0081.03;lane2;negative;47.5387955;7.64484501;MUTTENZ, HARD (AB);BL;BASEL;A 2
CH:0081.04;lane3;negative;47.5388184;7.64486027;MUTTENZ, HARD (AB);BL;BASEL;A 2
CH:0081.05;lane3;positive;47.538868;7.64490128;MUTTENZ, HARD (AB);BL;AUGST;A 2
CH:0727.05;lane1;positive;47.1540527;8.43408203;VERZW. RUETIHOF (AB);ZG;KUESSNACHT;A 4
CH:0116.02;lane2;positive;46.5017776;6.7150197;GRANDVAUX N (AR);VD;VEVEY               ;A 9
CH:0374.02;lane1;positive;47.3299561;8.52897263;WOLLISHOFEN (AB) RI SARGANS - ZH1215;ZH;SARGANS;A 3
CH:0374.03;lane2;positive;47.329937;8.5289259;WOLLISHOFEN (AB) RI SARGANS - ZH1215;ZH;SARGANS;A 3
CH:0340.06;lane2;negative;47.4585762;8.28536415;BADEN-WEST (AB) - AG1441;AG;Bern;A 1
CH:0340.07;lane1;negative;47.4586067;8.28535461;BADEN-WEST (AB) - AG1441;AG;Bern;A 1
CH:0340.05;lane3;negative;47.4585419;8.28537464;BADEN-WEST (AB) - AG1441;AG;Bern;A 1
CH:0743.03;lane1;positive;46.5611305;6.56062508;CRISSIER (AR) RI NORD;VD;VEVEY/YVERDON;A 1
CH:0743.04;lane2;positive;46.5611229;6.56058788;CRISSIER (AR) RI NORD;VD;VEVEY/YVERDON;A 1
CH:0743.05;lane3;positive;46.5611115;6.56054783;CRISSIER (AR) RI NORD;VD;VEVEY/YVERDON;A 1
CH:0083.03;lane2;negative;46.3830872;6.92486286;VILLENEUVE (AR);VD;VEVEY               ;A 9
CH:0083.04;lane1;negative;46.3830719;6.92491293;VILLENEUVE (AR);VD;VEVEY               ;A 9
CH:0608.01;lane1;positive;46.3768272;7.08004856;COL DES MOSSES;VD;CHATEAU D'OEX;H 11
CH:0647.02;lane1;positive;46.7805443;7.09024715;ANSCHLUSS MATRAN S;FR;BERN;A 12
CH:0647.03;lane2;positive;46.7805252;7.09019327;ANSCHLUSS MATRAN S;FR;BERN;A 12
CH:0601.01;lane1;positive;47.4275017;9.36142254;ST. GALLEN, SCHORENTUNNEL (AB);SG;ST. GALLEN;A 1
CH:0087.01;lane1;negative;47.6018295;9.29336357;GUETTINGEN;TG;KREUZLINGEN         ;H 13
CH:0844.01;lane1;positive;47.6910324;8.62208366;BAHNTAL GALGENBUCKTUNNEL;SH;SCHAFFHAUSEN;A 4
CH:0601.02;lane2;positive;47.4275131;9.36149502;ST. GALLEN, SCHORENTUNNEL (AB);SG;ST. GALLEN;A 1
CH:0844.05;lane5;positive;47.6912422;8.62165165;BAHNTAL GALGENBUCKTUNNEL;SH;SCHAFFHAUSEN;A 4
CH:0397.01;lane1;positive;46.6173973;7.13849306;CHARMEY;FR;JAUN;H 189
CH:0844.04;lane4;positive;47.6912308;8.6217041;BAHNTAL GALGENBUCKTUNNEL;SH;SCHAFFHAUSEN;A 4
CH:0198.03;lane2;negative;47.4661369;9.48050117;GOLDACH S (AB);SG;ST. GALLEN;A 1
CH:0198.04;lane1;negative;47.4661674;9.4805212;GOLDACH S (AB);SG;ST. GALLEN;A 1
CH:0096.01;lane1;negative;46.8375549;9.45603275;DOMAT/EMS (AB);GR;CHUR                ;A 13
CH:0096.02;lane2;negative;46.8375168;9.45602131;DOMAT/EMS (AB);GR;CHUR                ;A 13
CH:0526.01;lane1;positive;46.1772423;8.70101738;INTRAGNA-CENTOVALLI;TI;LOCARNO;H 560
CH:0301.03;lane1;positive;47.3646889;8.42414284;BIRMENSDORF N (AB) - ZH1103;ZH;VERZW. ZUERICH WEST;A 4
CH:0274.06;lane1;negative;47.4441872;8.34282207;WUERENLOS (AB) - AG1401;AG;BERN;A 1
CH:0368.01;lane1;positive;46.9628067;7.43695593;BERN, ZUBRINGER NEUFELD (TUNNEL);BE;BERN, TIEFENAUSTRASSE;A 1
CH:0274.04;lane3;negative;47.4441528;8.34273815;WUERENLOS (AB) - AG1401;AG;BERN;A 1
CH:0274.05;lane2;negative;47.4441681;8.34278202;WUERENLOS (AB) - AG1401;AG;BERN;A 1
CH:0098.01;lane1;negative;46.3334999;9.53078747;CASTASEGNA;GR;ST. MORITZ          ;H 3
CH:0301.04;lane2;positive;47.3646889;8.42419243;BIRMENSDORF N (AB) - ZH1103;ZH;VERZW. ZUERICH WEST;A 4
CH:0379.03;lane2;positive;47.6009178;8.69159794;KLEINANDELFINGEN ANSCHLUSS 1 (AB);ZH;WINTERTHUR;A 4
CH:0099.02;lane1;negative;46.6145172;9.99196053;UMF. S-CHANF;GR;ST. MORITZ          ;H 27
CH:0081.06;lane2;positive;47.5388985;7.64491034;MUTTENZ, HARD (AB);BL;AUGST;A 2
CH:0081.07;lane1;positive;47.5389366;7.64492559;MUTTENZ, HARD (AB);BL;AUGST;A 2
CH:0081.08;emergencyLane;positive;47.5389557;7.64495897;MUTTENZ, HARD (AB);BL;AUGST;A 2
CH:0100.01;lane1;;46.2098274;9.02994061;CIRCONVAL. BELLINZONA (AS);TI;VERZW. A2/A13;A 2
CH:0301.02;emergencyLane;positive;47.3646927;8.42409134;BIRMENSDORF N (AB) - ZH1103;ZH;VERZW. ZUERICH WEST;A 4
CH:0379.02;lane1;positive;47.6009216;8.69164467;KLEINANDELFINGEN ANSCHLUSS 1 (AB);ZH;WINTERTHUR;A 4
CH:0543.03;lane1;positive;47.4300804;8.36463451;SPREITENBACH AUSFAHRT (AB) - AG1445;AG;ZUERICH;A 1
CH:0543.02;lane2;positive;47.4301186;8.36465073;SPREITENBACH AUSFAHRT (AB) - AG1445;AG;ZUERICH;A 1
CH:0283.02;lane1;positive;47.5706825;7.58273745;BASEL - ST. JOHANN, TUNNEL E (AB);BS;BASEL;A 3
CH:0102.03;lane2;negative;47.5447083;7.78231287;RHEINFELDEN (AB);AG;AUGST               ;A 3
CH:0102.04;lane1;negative;47.5447388;7.78230381;RHEINFELDEN (AB);AG;AUGST               ;A 3
CH:0104.01;lane1;negative;46.9208374;7.50699949;MURI BE S (AB);BE;BERN;A 6
CH:0104.02;lane2;negative;46.9208527;7.50703859;MURI BE S (AB);BE;BERN;A 6
CH:0283.03;lane2;positive;47.5707245;7.58273745;BASEL - ST. JOHANN, TUNNEL E (AB);BS;BASEL;A 3
CH:0566.05;lane2;positive;47.3421021;8.4575386;DREIECK ZUERICH-WEST 1 (AB) - ZH1202;ZH;BASEL;A 4
CH:0105.01;lane1;negative;47.2110023;8.5436821;BAAR N (AB);ZG;SIHLBRUGG           ;A 14
CH:0105.02;lane2;negative;47.2109718;8.54367638;BAAR N (AB);ZG;SIHLBRUGG           ;A 14
CH:0566.06;lane1;positive;47.3420601;8.45755482;DREIECK ZUERICH-WEST 1 (AB) - ZH1202;ZH;BASEL;A 4
CH:0100.02;lane1;negative;46.2095261;9.02930164;CIRCONVAL. BELLINZONA (AS);TI;VERZW. A2/A13;A 2
CH:0100.03;lane2;negative;46.2094994;9.02931595;CIRCONVAL. BELLINZONA (AS);TI;VERZW. A2/A13;A 2
CH:0083.02;lane2;positive;46.3831024;6.92475986;VILLENEUVE (AR);VD;MARTIGNY            ;A 9
CH:0107.03;lane2;negative;46.8759003;7.2757144;WUENNEWIL (AB);FR;DUEDINGEN           ;A 12
CH:0107.04;lane1;negative;46.8759384;7.27569199;WUENNEWIL (AB);FR;DUEDINGEN           ;A 12
CH:0083.01;lane1;positive;46.3831139;6.92471933;VILLENEUVE (AR);VD;MARTIGNY            ;A 9
CH:0110.02;lane1;negative;46.2515259;8.03923702;SIMPLON, JOSEFGALERIE S;VS;BRIG                ;A 9
CH:0111.01;lane1;negative;46.5427094;7.6662879;FRUTIGEN S, KANDERGRUND;BE;FRUTIGEN            ;H 223
CH:0110.01;lane1;positive;46.2515602;8.03921223;SIMPLON, JOSEFGALERIE S;VS;GONDO               ;A 9
CH:0348.03;lane1;positive;47.5451584;7.80114937;RHEINFELDEN (AB) - AG1427;AG;ZUERICH;A 3
CH:0348.04;lane2;positive;47.5451889;7.80114317;RHEINFELDEN (AB) - AG1427;AG;ZUERICH;A 3
CH:0112.03;lane2;negative;47.0210037;7.03112411;PONT DE THIELLE;NE;NEUCHATEL           ;H 10
CH:0112.04;lane1;negative;47.0210342;7.03112411;PONT DE THIELLE;NE;NEUCHATEL           ;H 10
CH:0543.01;lane3;positive;47.4301453;8.36466694;SPREITENBACH AUSFAHRT (AB) - AG1445;AG;ZUERICH;A 1
CH:0748.02;lane1;positive;46.6034775;7.37413931;WEISSENBACH;BE;ZWEISIMMEN;H 11
CH:0240.02;lane1;positive;47.4239693;8.57156849;UMF. ZUERICH N, SEEBACH (AB);ZH;VERZW. A20/A51;A 1C
CH:0214.04;lane1;negative;46.9514122;7.38426447;BERN, BRUENNENTUNNEL (AB);BE;KERZERS;A 1
CH:0214.03;lane2;negative;46.9514008;7.38430834;BERN, BRUENNENTUNNEL (AB);BE;KERZERS;A 1
CH:0335.02;lane1;positive;47.3049812;7.92485666;WIGGERTAL (AB) - AG1411;AG;ZUERICH;A 1
CH:0335.03;lane2;positive;47.3050117;7.92483521;WIGGERTAL (AB) - AG1411;AG;ZUERICH;A 1
CH:0342.03;lane1;positive;47.4226303;8.38873196;DIETIKON (AB) - AG1400;AG;ZUERICH;A 1
CH:0100.04;lane3;negative;46.209465;9.02933025;CIRCONVAL. BELLINZONA (AS);TI;VERZW. A2/A13;A 2
CH:0100.05;lane3;positive;46.2093925;9.02936745;CIRCONVAL. BELLINZONA (AS);TI;LUGANO              ;A 2
CH:0100.06;lane2;positive;46.2093658;9.0293808;CIRCONVAL. BELLINZONA (AS);TI;LUGANO              ;A 2
CH:0240.03;lane1;positive;47.4240379;8.57154465;UMF. ZUERICH N, SEEBACH (AB);ZH;VERZW. A20/A51;A 1C
CH:0240.04;lane2;positive;47.4240723;8.57156086;UMF. ZUERICH N, SEEBACH (AB);ZH;VERZW. A20/A51;A 1C
CH:0567.03;lane2;positive;47.3407059;8.45846558;DREIECK ZUERICH-WEST 2 (AB) - ZH1203;ZH;ZUERICH / CHUR;A 4
CH:0567.04;lane1;positive;47.3407249;8.4585104;DREIECK ZUERICH-WEST 2 (AB) - ZH1203;ZH;ZUERICH / CHUR;A 4
CH:0219.01;lane1;positive;47.4559479;8.14368248;SCHINZNACH DORF (AB);AG;VERZW. A3/A1;A 3
CH:0116.03;lane2;negative;46.5018997;6.71516895;GRANDVAUX N (AR);VD;LAUSANNE-VENNES     ;A 9
CH:0116.04;lane1;negative;46.5019226;6.71519852;GRANDVAUX N (AR);VD;LAUSANNE-VENNES     ;A 9
CH:0117.01;lane1;negative;47.1735229;8.43195343;HUENENBERG S (AB);ZG;CHAM                ;A 4
CH:0117.02;lane2;negative;47.1735191;8.43198204;HUENENBERG S (AB);ZG;CHAM                ;A 4
CH:0117.03;lane3;negative;47.1735077;8.43204308;HUENENBERG S (AB);ZG;CHAM                ;A 4
CH:0850.03;lane1;positive;47.691288;8.62623215;CHOLFIRST NORD;ZH;WINTERTHUR;A 4
CH:0219.02;lane2;positive;47.4559898;8.14368248;SCHINZNACH DORF (AB);AG;VERZW. A3/A1;A 3
CH:0342.01;lane3;positive;47.4226952;8.38875008;DIETIKON (AB) - AG1400;AG;ZUERICH;A 1
CH:0342.02;lane2;positive;47.4226646;8.38874149;DIETIKON (AB) - AG1400;AG;ZUERICH;A 1
CH:0093.05;lane1;negative;47.5178261;8.69492054;UMF. WINTERTHUR (AB);ZH;WUELFLINGEN;A 1
CH:0131.02;lane1;positive;46.8280792;9.4042263;TAMINS;GR;ILANZ;H 19
CH:0093.04;lane2;negative;47.517807;8.69496632;UMF. WINTERTHUR (AB);ZH;WUELFLINGEN;A 1
CH:0708.01;lane1;positive;46.9156113;9.76004219;KUEBLIS;GR;DAVOS;A 28
CH:0339.02;lane2;positive;47.4571037;8.27614212;BADEN-WEST (AB) - AG1573;AG;ZUERICH;A 1
CH:0339.03;lane1;positive;47.4571342;8.27612495;BADEN-WEST (AB) - AG1573;AG;ZUERICH;A 1
CH:0321.02;lane1;positive;47.5722198;7.5987587;BASEL, ANSCHLUSS WIESE, A3 (AB);BS;BASEL;A 3
CH:0119.01;lane1;negative;46.6612396;7.55763912;ERLENBACH I.S.;BE;SPIEZ               ;H 11
CH:0321.03;lane2;positive;47.5722122;7.59870434;BASEL, ANSCHLUSS WIESE, A3 (AB);BS;BASEL;A 3
CH:0120.01;lane1;negative;46.9451828;8.62071514;SISIKON S;UR;BRUNNEN             ;A 4
CH:0006.03;lane2;positive;47.5379066;7.62449598;MUTTENZ, A2/ZUBR. SCHAENZLI;BL;DELEMONT;H 18
CH:0006.04;lane1;positive;47.537899;7.62455034;MUTTENZ, A2/ZUBR. SCHAENZLI;BL;DELEMONT;H 18
CH:0100.07;lane1;positive;46.2093391;9.02939415;CIRCONVAL. BELLINZONA (AS);TI;LUGANO              ;A 2
CH:0121.03;lane2;negative;46.9632301;6.86738586;COLOMBIER, AREUSE (AR);NE;YVERDON;A 5
CH:0121.04;lane1;negative;46.963253;6.86735058;COLOMBIER, AREUSE (AR);NE;YVERDON;A 5
CH:0346.02;lane1;positive;47.5398712;7.75665522;RHEINFELDEN (AB) - AG1425;AG;VERZW. A3/A1;A 3
CH:0346.03;lane2;positive;47.5399017;7.75663328;RHEINFELDEN (AB) - AG1425;AG;VERZW. A3/A1;A 3
CH:0122.03;lane2;negative;47.5542107;8.83944035;FRAUENFELD W, KEFIKON (AB);TG;WINTERTHUR;A 7
CH:0122.04;lane1;negative;47.5542412;8.8394289;FRAUENFELD W, KEFIKON (AB);TG;WINTERTHUR;A 7
CH:0123.01;lane1;negative;47.7138481;8.64948368;SCHAFFHAUSEN N (AB);SH;DEUTSCHLAND         ;A 4
CH:0123.02;lane1;;47.713726;8.64976501;SCHAFFHAUSEN N (AB);SH;DEUTSCHLAND         ;A 4
CH:0123.04;lane1;;47.7138634;8.65017319;SCHAFFHAUSEN N (AB);SH;DEUTSCHLAND         ;A 4
CH:0115.01;lane1;negative;47.0602303;8.28798389;LUZERN, REUSSPORTTUNNEL (AB);LU;EMMENBRUECKE        ;A 2
CH:0125.01;lane1;negative;47.5368767;8.24529552;WUERENLINGEN;AG;KOBLENZ;H 5
CH:0571.04;lane1;positive;47.3339958;8.45918655;ISLISBERG, ISLISBERGTUNNEL N (AB) - ZH2101;ZH;LUZERN;A 4
CH:0115.02;lane2;negative;47.0602417;8.28802013;LUZERN, REUSSPORTTUNNEL (AB);LU;EMMENBRUECKE        ;A 2
CH:0115.03;lane3;negative;47.0602531;8.28805542;LUZERN, REUSSPORTTUNNEL (AB);LU;EMMENBRUECKE        ;A 2
CH:0571.03;lane2;positive;47.3340149;8.45912838;ISLISBERG, ISLISBERGTUNNEL N (AB) - ZH2101;ZH;LUZERN;A 4
CH:0059.02;lane2;positive;46.9974823;6.95201683;TRAV. DE NEUCHATEL E (AR);NE;ST-BLAISE           ;A 5
CH:0059.01;lane1;positive;46.9974365;6.95200205;TRAV. DE NEUCHATEL E (AR);NE;ST-BLAISE           ;A 5
CH:0127.02;lane2;negative;46.7430305;6.52358913;ORBE N (AR);VD;VALLORBE            ;A 9
CH:0127.03;lane1;negative;46.7430573;6.52357674;ORBE N (AR);VD;VALLORBE            ;A 9
CH:0131.01;lane1;negative;46.8281059;9.40422058;TAMINS;GR;REICHENAU;H 19
CH:0605.06;lane1;positive;47.408287;9.3079443;ST.GALLEN, ANSCHL. BREITFELD;SG;KANTONSSTR. GOSSAU ST.GALLEN;A1
CH:0212.02;lane1;positive;47.0637627;6.88605118;VUE-DES-ALPES (TUNNEL);NE;NEUCHATEL;H 20
CH:0132.02;lane1;negative;46.9727364;9.60481453;PARDISLA, CHLUSTUNNEL;GR;LANDQUART           ;A 28
CH:0115.04;lane3;positive;47.0602837;8.28816414;LUZERN, REUSSPORTTUNNEL (AB);LU;LUZERN              ;A 2
CH:0133.02;lane1;negative;46.7885818;10.2703562;SCHULS W;GR;ZERNEZ              ;H 27
CH:0135.01;lane1;negative;47.5081329;9.40539265;ARBON, A1/ZUBRINGER TG;TG;STEINELOO           ;A 23
CH:0115.05;lane2;positive;47.0603027;8.28820229;LUZERN, REUSSPORTTUNNEL (AB);LU;LUZERN              ;A 2
CH:0115.06;lane1;positive;47.0603104;8.28822994;LUZERN, REUSSPORTTUNNEL (AB);LU;LUZERN              ;A 2
CH:0126.01;lane1;negative;47.0397263;8.29346657;LUZERN, SONNENBERGTUNNEL (AB);LU;EMMEN               ;A 2
CH:0126.02;lane2;negative;47.0397339;8.29349709;LUZERN, SONNENBERGTUNNEL (AB);LU;EMMEN               ;A 2
CH:0139.02;lane1;positive;47.2101326;7.59657192;LUTERBACH (AB);SO;VERZW. A5/A1;A 5
CH:0339.01;lane3;positive;47.4570732;8.27615929;BADEN-WEST (AB) - AG1573;AG;ZUERICH;A 1
CH:0126.03;lane2;positive;47.0397491;8.29356194;LUZERN, SONNENBERGTUNNEL (AB);LU;KRIENS              ;A 2
CH:0138.01;lane1;negative;46.2632141;10.1176901;BRUSIO N;GR;POSCHIAVO           ;H 29
CH:0328.03;lane2;negative;46.8323364;6.86817598;ESTAVAYER-LE-LAC E (AR);FR;YVERDON;A 1
CH:0328.04;lane1;negative;46.8323708;6.86818743;ESTAVAYER-LE-LAC E (AR);FR;YVERDON;A 1
CH:0766.02;lane1;positive;47.2396049;8.86439419;JONA;SG;JONA;A 15
CH:0139.03;lane2;negative;47.2102242;7.5965085;LUTERBACH (AB);SO;SOLOTHURN;A 5
CH:0139.04;lane1;negative;47.2103004;7.59650707;LUTERBACH (AB);SO;SOLOTHURN;A 5
CH:0141.01;lane1;negative;47.545826;9.18854237;SULGEN E;TG;AMRISWIL            ;H 14
CH:0544.01;lane3;negative;47.4269638;8.37393093;SPREITENBACH EINFAHRT (AB) - AG1444;AG;BERN;A 1
CH:0126.04;lane1;positive;47.0397568;8.29359436;LUZERN, SONNENBERGTUNNEL (AB);LU;KRIENS              ;A 2
CH:0137.01;lane1;negative;46.144619;8.94665337;MONTE CENERI (AS);TI;BELLINZONA          ;A 2
CH:0137.02;lane2;negative;46.1445885;8.94664955;MONTE CENERI (AS);TI;BELLINZONA          ;A 2
CH:0139.01;lane1;positive;47.20998;7.59652567;LUTERBACH (AB);SO;VERZW. A5/A1;A 5
CH:0544.02;lane2;negative;47.4269943;8.37395;SPREITENBACH EINFAHRT (AB) - AG1444;AG;BERN;A 1
CH:0137.03;lane3;negative;46.1445541;8.94664669;MONTE CENERI (AS);TI;BELLINZONA          ;A 2
CH:0145.01;lane1;negative;47.3394661;7.9088912;AARBURG N;AG;OLTEN               ;H 2
CH:0137.04;lane2;positive;46.1445084;8.94662666;MONTE CENERI (AS);TI;LUGANO              ;A 2
CH:0729.02;lane1;positive;46.0278778;8.92665863;GALLERIA VEDEGGIO-CASSARATE;TI;LUGANO;H 399
CH:0544.03;lane1;negative;47.4270172;8.37396526;SPREITENBACH EINFAHRT (AB) - AG1444;AG;BERN;A 1
CH:0147.03;lane2;negative;46.6276245;7.0391221;CONT. DE BULLE (AR);FR;VEVEY               ;A 12
CH:0147.04;lane1;negative;46.6276474;7.03908873;CONT. DE BULLE (AR);FR;VEVEY               ;A 12
CH:0137.05;lane1;positive;46.144474;8.94662189;MONTE CENERI (AS);TI;LUGANO              ;A 2
CH:0628.01;lane1;positive;46.0913773;7.05486298;MARTIGNY-CROIX W, FORCLAZ - VS00134021;VS;MARTIGNY;H 203
CH:0282.04;lane3;negative;47.4207993;9.33613873;ST. JOSEFEN, SITTERVIADUKT (AB);SG;WINTERTHUR;A 1
CH:0282.05;lane2;negative;47.4208298;9.33612156;ST. JOSEFEN, SITTERVIADUKT (AB);SG;WINTERTHUR;A 1
CH:0282.06;lane1;negative;47.4208641;9.33610725;ST. JOSEFEN, SITTERVIADUKT (AB);SG;WINTERTHUR;A 1
CH:0032.01;lane1;positive;47.2244492;7.61196613;DEITINGEN (AB);SO;ZUERICH             ;A 1
CH:0137.06;lane1;;46.1443939;8.94676018;MONTE CENERI (AS);TI;BELLINZONA          ;A 2
CH:0032.02;lane2;positive;47.2244759;7.61192751;DEITINGEN (AB);SO;ZUERICH             ;A 1
CH:0155.01;lane1;negative;46.5621185;8.36059284;GLETSCH N, GRIMSEL;VS;INNERTKIRCHEN       ;H 6
CH:0580.03;lane2;positive;47.3469124;8.52002716;DREIECK ZUERICH-SUED N (AB) - ZH1210;ZH;SARGANS/BASEL;A 3
CH:0142.01;lane1;;47.3039055;7.91860723;ZOFINGEN (AB);AG;VERZW. A1/A2;A 2
CH:0142.02;lane1;negative;47.3039589;7.91863489;ZOFINGEN (AB);AG;VERZW. A1/A2;A 2
CH:0580.04;lane1;positive;47.3469315;8.51997471;DREIECK ZUERICH-SUED N (AB) - ZH1210;ZH;SARGANS/BASEL;A 3
CH:0580.01;lane2;positive;47.346981;8.51988602;DREIECK ZUERICH-SUED N (AB) - ZH1210;ZH;SARGANS/BASEL;A 3
CH:0580.02;lane1;positive;47.3469963;8.51984882;DREIECK ZUERICH-SUED N (AB) - ZH1210;ZH;SARGANS/BASEL;A 3
CH:0157.02;lane1;negative;46.6812897;9.5254221;ALVASCHEIN, SOLISTUNNEL;GR;THUSIS;H 417
CH:0142.03;lane2;negative;47.3039894;7.91865683;ZOFINGEN (AB);AG;VERZW. A1/A2;A 2
CH:0142.04;lane2;positive;47.3025589;7.92130136;ZOFINGEN (AB);AG;LUZERN              ;A 2
CH:0692.01;lane1;positive;47.0075569;9.07846355;GLARUS S, MITLOEDI;GL;GLARUS;H 17
CH:0167.03;lane2;positive;47.0767021;8.30864716;EBIKON, RATHAUSEN (AB);LU;LUZERN              ;A 14
CH:0160.01;lane1;negative;47.1875916;7.20984983;LA HEUTTE (AR);BE;SONCEBOZ            ;A 16
CH:0160.02;lane2;negative;47.1876221;7.20985365;LA HEUTTE (AR);BE;SONCEBOZ            ;A 16
CH:0167.04;lane1;positive;47.0766716;8.30867386;EBIKON, RATHAUSEN (AB);LU;LUZERN              ;A 14
CH:0157.01;lane1;positive;46.6812553;9.52541828;ALVASCHEIN, SOLISTUNNEL;GR;TIEFENCASTEL;H 417
CH:0602.03;lane2;negative;47.4353142;9.39606667;ST. GALLEN, HARZBUECHEL (AB);SG;WINTERTHUR;A 1
CH:0602.04;lane1;negative;47.4353333;9.39605331;ST. GALLEN, HARZBUECHEL (AB);SG;WINTERTHUR;A 1
CH:0674.01;lane1;positive;46.9466057;6.83700943;BOUDRY (AR);NE;NEUCHATEL;A 5
CH:0674.02;lane2;positive;46.9466362;6.83698082;BOUDRY (AR);NE;NEUCHATEL;A 5
CH:0163.01;lane1;negative;47.0282974;7.46901894;MUENCHENBUCHSEE N (AB);BE;LYSS;A 6
CH:0163.02;lane2;negative;47.0283279;7.46904087;MUENCHENBUCHSEE N (AB);BE;LYSS;A 6
CH:0686.02;lane1;positive;47.5789566;8.68300438;ADLIKON (AB) - ZH4889;ZH;WINTERTHUR;A 4
CH:0578.06;emergencyLane;positive;47.3439674;8.51409531;UETLIBERGTUNNEL E (AB) - ZH1208;ZH;VERZW. ZUERICH-SUED;A 3
CH:0578.05;lane1;positive;47.3439941;8.514081;UETLIBERGTUNNEL E (AB) - ZH1208;ZH;VERZW. ZUERICH-SUED;A 3
CH:0164.02;lane1;negative;46.2980766;7.85094547;VISP W;VS;SION                ;H 9
CH:0578.04;lane2;positive;47.3440361;8.51407337;UETLIBERGTUNNEL E (AB) - ZH1208;ZH;VERZW. ZUERICH-SUED;A 3
CH:0142.05;lane1;positive;47.302578;7.92134094;ZOFINGEN (AB);AG;LUZERN              ;A 2
CH:0165.03;lane2;negative;46.1189003;7.06951141;MARTIGNY N (AR);VS;LAUSANNE            ;A 9
CH:0165.04;lane1;negative;46.1189232;7.06954575;MARTIGNY N (AR);VS;LAUSANNE            ;A 9
CH:0142.06;lane1;positive;47.3025475;7.92157173;ZOFINGEN (AB);AG;LUZERN              ;A 2
CH:0150.01;lane1;negative;46.6675606;8.59175396;GOTTHARDTUNNEL (AB);UR;WASSEN              ;A 2
CH:0150.02;lane1;positive;46.667572;8.59187412;GOTTHARDTUNNEL (AB);UR;BELLINZONA          ;A 2
CH:0123.06;lane1;positive;47.7138405;8.65039444;SCHAFFHAUSEN N (AB);SH;SCHAFFHAUSEN        ;A 4
CH:0167.01;lane1;negative;47.0767746;8.30858707;EBIKON, RATHAUSEN (AB);LU;VERZW. A4/A14;A 14
CH:0167.02;lane2;negative;47.0767479;8.30860806;EBIKON, RATHAUSEN (AB);LU;VERZW. A4/A14;A 14
CH:0156.01;lane1;negative;46.8893661;8.59783649;SEELISBERGTUNNEL (AB);UR;LUZERN              ;A 2
CH:0104.03;lane2;positive;46.9208908;7.50712729;MURI BE S (AB);BE;THUN;A 6
CH:0104.04;lane1;positive;46.9209061;7.50716734;MURI BE S (AB);BE;THUN;A 6
CH:0169.02;lane1;negative;46.8001251;9.9004097;FLUELA, TSCHUGGEN;GR;DAVOS               ;H 28
CH:0156.02;lane2;negative;46.8893814;8.59786987;SEELISBERGTUNNEL (AB);UR;LUZERN              ;A 2
CH:0170.02;lane1;negative;46.7254333;7.99856997;GIESSBACHTUNNEL (AB);BE;INTERLAKEN          ;A 8
CH:0171.01;lane1;negative;47.0832863;8.63847733;SATTEL N;SZ;ROTHENTHURM         ;H 8
CH:0087.02;lane1;positive;47.6018639;9.29337502;GUETTINGEN;TG;ROMANSHORN          ;H 13
CH:0292.01;lane1;positive;47.1687012;7.7959094;MADISWIL N;BE;HUTTWIL;H 244
CH:0172.02;lane1;negative;46.3182831;6.97584009;AIGLE, PONT GRANDE EAU;VD;AIGLE               ;H 11
CH:0173.01;lane1;negative;46.9024391;6.46480846;LES VERRIERES;NE;FRANCE              ;H 10
CH:0384.06;lane1;positive;47.3540993;8.52466202;ZUERICH BRUNAU (AB) 2;ZH;SARGANS;A 3
CH:0174.01;lane1;negative;47.0511894;6.71952486;COL DES ROCHES;NE;FRANCE              ;H 20
CH:0384.05;lane2;positive;47.3540993;8.52471828;ZUERICH BRUNAU (AB) 2;ZH;SARGANS;A 3
CH:0542.04;lane3;negative;47.4355545;8.35300636;SPREITENBACH W (AB) - AG1446;AG;BERN;A 1
CH:0542.05;lane2;negative;47.4355812;8.35303688;SPREITENBACH W (AB) - AG1446;AG;BERN;A 1
CH:0175.03;lane2;negative;46.8207893;7.13878155;CONT. DE FRIBOURG (AR);FR;BULLE               ;A 12
CH:0175.04;lane1;negative;46.8208084;7.13874435;CONT. DE FRIBOURG (AR);FR;BULLE               ;A 12
CH:0111.02;lane1;positive;46.5427284;7.66632748;FRUTIGEN S, KANDERGRUND;BE;KANDERSTEG          ;H 223
CH:0179.02;lane1;negative;47.2529831;6.98860264;SAIGNELEGIER W;JU;LE NOIRMONT         ;H 18
CH:0180.01;lane1;negative;47.7409439;8.71371078;THAYNGEN;SH;DEUTSCHLAND         ;H 15
CH:0686.01;lane1;positive;47.5788116;8.68294525;ADLIKON (AB) - ZH4889;ZH;WINTERTHUR;A 4
CH:0542.06;lane1;negative;47.4356041;8.35306454;SPREITENBACH W (AB) - AG1446;AG;BERN;A 1
CH:0024.02;lane2;positive;46.4439507;6.29305458;ROLLE (AR);VD;LAUSANNE;A 1
CH:0024.01;lane1;positive;46.4439201;6.29307604;ROLLE (AR);VD;LAUSANNE;A 1
CH:0290.05;lane3;negative;47.310688;7.90090847;OFTRINGEN / ROTHRIST (AB) - AG1412;AG;BERN;A 1
CH:0290.06;lane2;negative;47.3107147;7.90093565;OFTRINGEN / ROTHRIST (AB) - AG1412;AG;BERN;A 1
CH:0156.03;lane2;positive;46.8894119;8.59791946;SEELISBERGTUNNEL (AB);UR;WASSEN              ;A 2
CH:0156.04;lane1;positive;46.8894348;8.59795666;SEELISBERGTUNNEL (AB);UR;WASSEN              ;A 2
CH:0184.03;lane2;negative;46.9354095;7.3967948;BERN, BUEMPLIZ (AB);BE;FLAMATT;A 12
CH:0184.04;lane1;negative;46.9354248;7.39674664;BERN, BUEMPLIZ (AB);BE;FLAMATT;A 12
CH:0186.01;lane1;negative;46.3895645;6.81614208;ST-GINGOLPH E;VS;ST-GINGOLPH         ;H 21
CH:0241.04;lane2;positive;47.4297562;8.57196522;OPFIKON (AB);ZH;VERZW. A11/A20;A 11
CH:0188.01;lane1;negative;46.4645729;6.07308006;LA CURE;VD;FRANCE              ;H 123
CH:0241.05;lane1;positive;47.42976;8.57201385;OPFIKON (AB);ZH;VERZW. A11/A20;A 11
CH:0189.01;lane1;negative;47.0679474;6.76749563;LE LOCLE E;NE;LE LOCLE            ;H 20
CH:0290.07;lane1;negative;47.3107414;7.90095472;OFTRINGEN / ROTHRIST (AB) - AG1412;AG;BERN;A 1
CH:0272.02;lane2;positive;46.1945877;6.07825279;GENEVE, PONT DU RHONE (AR);GE;LAUSANNE;A 1
CH:0272.01;lane1;positive;46.1945877;6.07830477;GENEVE, PONT DU RHONE (AR);GE;LAUSANNE;A 1
CH:0051.02;lane1;positive;45.84692;8.93453693;STABIO;TI;ITALIEN;H 394
CH:0190.03;lane1;negative;46.9586029;6.72601414;NOIRAIGUE, CLUSETTE;NE;LES VERRIERES       ;H 10
CH:0191.01;lane1;negative;47.0453453;8.55927944;GOLDAU S (AB);SZ;IMMENSEE            ;A 4
CH:0191.02;lane2;negative;47.0453682;8.55925465;GOLDAU S (AB);SZ;IMMENSEE            ;A 4
CH:0315.01;lane1;positive;47.1998749;7.56466579;ZUCHWIL (AB);SO;LUTERBACH;A 5
CH:0315.02;lane2;positive;47.1998978;7.56463528;ZUCHWIL (AB);SO;LUTERBACH;A 5
CH:0248.04;lane1;positive;47.5420876;7.76009703;RHEINFELDEN, AUTOBAHNZUBRINGER A3;AG;AUTOBAHN A3;A 3
CH:0209.03;lane1;positive;46.0787621;7.05332327;MARTIGNY, LE BROCARD;VS;GD. ST-BERNARD;H 21
CH:0579.02;lane2;positive;47.3410301;8.52190208;DREIECK ZUERICH-SUED S (AB) - ZH1209;ZH;SARGANS;A 3
CH:0194.04;lane2;negative;47.3889542;8.41407299;URDORF (AB);ZH;VERZW. A1/A1C;A 3
CH:0194.05;lane1;negative;47.3889503;8.41412544;URDORF (AB);ZH;VERZW. A1/A1C;A 3
CH:0194.06;emergencyLane;negative;47.3889503;8.41416645;URDORF (AB);ZH;VERZW. A1/A1C;A 3
CH:0194.07;lane1;;47.3918724;8.41514492;URDORF (AB);ZH;VERZW. A1/A1C;A 3
CH:0159.01;lane1;negative;47.0954018;8.24593163;EMMENBRUECKE, RIFFIG (AB);LU;VERZW. A1/A2;A 2
CH:0159.02;lane2;negative;47.0954056;8.24598694;EMMENBRUECKE, RIFFIG (AB);LU;VERZW. A1/A2;A 2
CH:0579.01;lane1;positive;47.3410263;8.52185059;DREIECK ZUERICH-SUED S (AB) - ZH1209;ZH;SARGANS;A 3
CH:0248.03;lane2;positive;47.5420341;7.75982332;RHEINFELDEN, AUTOBAHNZUBRINGER A3;AG;AUTOBAHN A3;A 3
CH:0159.03;lane2;positive;47.0954132;8.2460804;EMMENBRUECKE, RIFFIG (AB);LU;LUZERN              ;A 2
CH:0120.02;lane1;positive;46.945179;8.62076473;SISIKON S;UR;ALTDORF             ;A 4
CH:0197.01;lane1;negative;46.9321785;8.39249706;DALLENWIL;NW;STANS               ;H 374
CH:0114.01;emergencyLane;positive;47.4233131;8.64356518;BRUETTISELLEN N (AB);ZH;WINTERTHUR          ;A 1
CH:0114.04;lane3;positive;47.4234047;8.64352798;BRUETTISELLEN N (AB);ZH;WINTERTHUR          ;A 1
CH:0114.02;lane1;positive;47.4233513;8.64355373;BRUETTISELLEN N (AB);ZH;WINTERTHUR          ;A 1
CH:0114.03;lane2;positive;47.423378;8.64354038;BRUETTISELLEN N (AB);ZH;WINTERTHUR          ;A 1
CH:0182.04;lane1;negative;47.093586;7.57318163;KIRCHBERG N (AB);BE;BERN                ;A 1
CH:0159.04;lane1;positive;47.095417;8.24613285;EMMENBRUECKE, RIFFIG (AB);LU;LUZERN              ;A 2
CH:0166.01;lane1;negative;46.351078;8.96168327;BIASCA S (AS);TI;AIROLO              ;A 2
CH:0166.02;lane2;negative;46.3510933;8.9617281;BIASCA S (AS);TI;AIROLO              ;A 2
CH:0166.03;lane2;positive;46.3511276;8.96181393;BIASCA S (AS);TI;BELLINZONA          ;A 2
CH:0182.03;lane2;negative;47.093586;7.5732255;KIRCHBERG N (AB);BE;BERN                ;A 1
CH:0217.04;lane1;negative;47.4713898;9.00620461;MUENCHWILEN E (AB);TG;VERZW. A1/A7;A 1
CH:0217.03;lane2;negative;47.4713593;9.00620651;MUENCHWILEN E (AB);TG;VERZW. A1/A7;A 1
CH:0200.04;lane3;negative;46.1514206;6.09665489;GENEVE, BARDONNEX (AR);GE;FRANCE              ;A 1A
CH:0200.05;lane2;negative;46.151432;6.09661865;GENEVE, BARDONNEX (AR);GE;FRANCE              ;A 1A
CH:0200.06;lane1;negative;46.1514435;6.09657764;GENEVE, BARDONNEX (AR);GE;FRANCE              ;A 1A
CH:0214.01;lane1;positive;46.9513626;7.38445044;BERN, BRUENNENTUNNEL (AB);BE;WEYERMANNSHAUS;A 1
CH:0318.02;lane2;positive;47.0472679;9.43161488;MELS N (AB);SG;SARGANS;A 3
CH:0201.03;lane2;negative;46.2405548;7.39393187;SION E  (AR);VS;MARTIGNY            ;A 9
CH:0201.04;lane1;negative;46.2405853;7.39391422;SION E  (AR);VS;MARTIGNY            ;A 9
CH:0203.01;lane1;negative;46.2304535;9.11452007;ROVEREDO (AS);GR;SAN BERNARDINO      ;A 13
CH:0318.01;lane1;positive;47.0472565;9.43157101;MELS N (AB);SG;SARGANS;A 3
CH:0166.04;lane1;positive;46.3511429;8.96186447;BIASCA S (AS);TI;BELLINZONA          ;A 2
CH:0195.01;lane1;negative;46.7934952;8.66508389;ERSTFELD S (AB);UR;LUZERN              ;A 2
CH:0195.02;lane2;negative;46.793499;8.66514587;ERSTFELD S (AB);UR;LUZERN              ;A 2
CH:0195.03;lane2;positive;46.7934952;8.66521263;ERSTFELD S (AB);UR;GOESCHENEN          ;A 2
CH:0201.02;lane2;positive;46.2405014;7.3939662;SION E  (AR);VS;SIERRE              ;A 9
CH:0195.04;lane1;positive;46.793499;8.66526985;ERSTFELD S (AB);UR;GOESCHENEN          ;A 2
CH:0196.01;lane1;negative;46.6423035;8.59194183;ANDERMATT, SCHOELLENEN;UR;GOESCHENEN;A 2
CH:0196.02;lane1;positive;46.6423073;8.59199333;ANDERMATT, SCHOELLENEN;UR;ANDERMATT;A 2
CH:0199.01;lane1;negative;45.8644791;8.97045517;MENDRISIO S (AS);TI;MELIDE              ;A 2
CH:0199.02;lane2;negative;45.8644714;8.97051239;MENDRISIO S (AS);TI;MELIDE              ;A 2
CH:0201.01;lane1;positive;46.2404747;7.39398193;SION E  (AR);VS;SIERRE              ;A 9
CH:0179.01;lane1;positive;47.2529526;6.98863554;SAIGNELEGIER W;JU;SAIGNELEGIER        ;H 18
CH:0042.03;lane2;positive;46.9585876;7.47038126;UMF. BERN OST (AB);BE;FREUDENBERGERPL.;A 6
CH:0042.04;lane1;positive;46.9585648;7.47041368;UMF. BERN OST (AB);BE;FREUDENBERGERPL.;A 6
CH:0214.02;lane2;positive;46.9513741;7.38439846;BERN, BRUENNENTUNNEL (AB);BE;WEYERMANNSHAUS;A 1
CH:0207.01;lane1;negative;46.7876511;7.59924221;HEIMBERG (AB);BE;BERN                ;A 6
CH:0207.02;lane2;negative;46.7876587;7.59928894;HEIMBERG (AB);BE;BERN                ;A 6
CH:0851.02;lane2;positive;46.1136398;7.09023952;ECHANGEUR GD.ST.BERNARD OUEST (AR);VS;SION;A 9
CH:0785.02;lane2;positive;47.5822983;9.01878262;ESCHIKOFEN;TG;WEINFELDEN;A 23
CH:0335.05;lane1;negative;47.3051109;7.92477989;WIGGERTAL (AB) - AG1411;AG;BERN;A 1
CH:0335.04;lane2;negative;47.3050766;7.92480135;WIGGERTAL (AB) - AG1411;AG;BERN;A 1
CH:0328.01;lane1;positive;46.8321724;6.86844206;ESTAVAYER-LE-LAC E (AR);FR;MURTEN;A 1
CH:0328.02;lane2;positive;46.8322067;6.86845207;ESTAVAYER-LE-LAC E (AR);FR;MURTEN;A 1
CH:0209.01;lane1;negative;46.0787849;7.05324221;MARTIGNY, LE BROCARD;VS;MARTIGNY;H 21
CH:0209.02;lane2;negative;46.0787735;7.05328083;MARTIGNY, LE BROCARD;VS;MARTIGNY;H 21
CH:0851.01;lane1;positive;46.1135979;7.0902462;ECHANGEUR GD.ST.BERNARD OUEST (AR);VS;SION;A 9
CH:0199.03;lane2;positive;45.8644676;8.97063255;MENDRISIO S (AS);TI;CHIASSO             ;A 2
CH:0199.04;lane1;positive;45.8644676;8.97068596;MENDRISIO S (AS);TI;CHIASSO             ;A 2
CH:0204.01;lane1;negative;46.4275932;8.85454273;LAVORGO S (AS);TI;AIROLO              ;A 2
CH:0851.03;lane3;positive;46.1136742;7.09024286;ECHANGEUR GD.ST.BERNARD OUEST (AR);VS;SION;A 9
CH:0785.01;lane1;positive;47.5822716;9.01875782;ESCHIKOFEN;TG;WEINFELDEN;A 23
CH:0204.02;lane2;negative;46.4276314;8.85456085;LAVORGO S (AS);TI;AIROLO              ;A 2
CH:0521.02;lane1;positive;46.1073685;8.76378536;CAVIANO DOGANA DIRINELLA;TI;ITALIA;H 405
CH:0211.02;lane1;negative;46.6520004;7.77469158;LEISSIGEN (TUNNEL) (AS);BE;SPIEZ;A 8
CH:0212.01;lane1;negative;47.0637169;6.88588095;VUE-DES-ALPES (TUNNEL);NE;LA CHAUX-DE-FONDS;H 20
CH:0617.02;lane1;positive;46.6295357;7.04504108;CONT.BULLE;FR;GRUYÈRES;H 189
CH:0341.06;lane1;negative;47.454689;8.32581711;NEUENHOF (AB) - AG1402;AG;BERN;A 1
CH:0847.02;lane1;positive;47.691349;8.60871887;ENGI GALGENBUCKTUNNEL;SH;SCHAFFHAUSEN;H 13
CH:0341.05;lane2;negative;47.4546585;8.32582092;NEUENHOF (AB) - AG1402;AG;BERN;A 1
CH:0341.04;lane3;negative;47.454628;8.32582569;NEUENHOF (AB) - AG1402;AG;BERN;A 1
CH:0118.01;lane1;positive;46.9688911;7.46041775;BERN, FELSENAUVIADUKT (AB);BE;WANKDORF            ;A 1
CH:0118.02;lane2;positive;46.9689217;7.46041107;BERN, FELSENAUVIADUKT (AB);BE;WANKDORF            ;A 1
CH:0215.03;lane2;negative;47.5944977;9.00673962;MUELLHEIM (AB);TG;VERZW. A7/T14;A 7
CH:0215.04;lane1;negative;47.5945206;9.00670433;MUELLHEIM (AB);TG;VERZW. A7/T14;A 7
CH:0677.03;lane1;positive;47.0081673;6.90166855;VALANGIN;NE;NEUCHATEL;A 20
CH:0677.04;lane2;positive;47.0081596;6.90171814;VALANGIN;NE;NEUCHATEL;A 20
CH:0216.03;lane2;negative;47.1936111;8.89496136;WANGEN SZ (AB);SZ;LACHEN;A 3
CH:0216.04;lane1;negative;47.193634;8.89498997;WANGEN SZ (AB);SZ;LACHEN;A 3
CH:0118.03;lane3;positive;46.9689522;7.46040487;BERN, FELSENAUVIADUKT (AB);BE;WANKDORF            ;A 1
CH:0118.04;lane4;positive;46.9689827;7.4603982;BERN, FELSENAUVIADUKT (AB);BE;WANKDORF            ;A 1
CH:0291.04;lane3;negative;46.5462456;6.5687809;RENENS (AR);VD;LAUSANNE/GENEVE;A 1
CH:0291.05;lane2;negative;46.5462456;6.56873703;RENENS (AR);VD;LAUSANNE/GENEVE;A 1
CH:0570.03;lane2;positive;47.3933144;8.41654873;URDORF N (AB) - ZH1302;ZH;BIRMENSDORF;A 3
CH:0570.02;lane1;positive;47.3933296;8.41651249;URDORF N (AB) - ZH1302;ZH;BIRMENSDORF;A 3
CH:0218.03;lane2;negative;47.0413208;7.03047514;CRESSIER (AR);NE;NEUCHATEL;A 5
CH:0218.04;lane1;negative;47.0413399;7.03043795;CRESSIER (AR);NE;NEUCHATEL;A 5
CH:0570.01;emergencyLane;positive;47.3933525;8.41646767;URDORF N (AB) - ZH1302;ZH;BIRMENSDORF;A 3
CH:0291.06;lane1;negative;46.5462494;6.56869459;RENENS (AR);VD;LAUSANNE/GENEVE;A 1
CH:0219.03;lane2;negative;47.4560547;8.14367962;SCHINZNACH DORF (AB);AG;FRICK;A 3
CH:0219.04;lane1;negative;47.456089;8.14368057;SCHINZNACH DORF (AB);AG;FRICK;A 3
CH:0149.04;lane2;negative;46.5704956;6.55732727;MEX (AR);VD;LAUSANNE            ;A 1
CH:0634.02;lane1;positive;46.4143333;10.0373211;BERNINA, BARACON - GR0248;GR;TIRANO;H 29
CH:0149.05;lane1;negative;46.5704918;6.557271;MEX (AR);VD;LAUSANNE            ;A 1
CH:0220.04;lane2;negative;47.4469986;8.24522018;MUELLIGEN, VERZW. A3/A1 (AB);AG;FRICK;A 3
CH:0220.05;lane1;negative;47.4470291;8.24522781;MUELLIGEN, VERZW. A3/A1 (AB);AG;FRICK;A 3
CH:0220.06;lane1;negative;47.4470673;8.24526787;MUELLIGEN, VERZW. A3/A1 (AB);AG;FRICK;A 3
CH:0149.06;emergencyLane;negative;46.5704918;6.55722952;MEX (AR);VD;LAUSANNE            ;A 1
CH:0204.03;lane3;positive;46.427887;8.85449028;LAVORGO S (AS);TI;BELLINZONA          ;A 2
CH:0204.04;lane2;positive;46.427887;8.85454845;LAVORGO S (AS);TI;BELLINZONA          ;A 2
CH:0246.01;lane1;positive;47.6509171;9.15401936;KREUZLINGEN, GIRSBAERGTUNNEL N (AB);TG;DEUTSCHLAND;A 7
CH:0224.01;lane1;negative;46.1613503;6.11502457;GENEVE, PLAN-LES-OUAT. (AR);GE;GENEVE VILLE;A 1A
CH:0224.02;lane2;negative;46.1613235;6.11502934;GENEVE, PLAN-LES-OUAT. (AR);GE;GENEVE VILLE;A 1A
CH:0246.02;lane2;positive;47.6509323;9.1539793;KREUZLINGEN, GIRSBAERGTUNNEL N (AB);TG;DEUTSCHLAND;A 7
CH:0204.05;lane1;positive;46.4279175;8.85456181;LAVORGO S (AS);TI;BELLINZONA          ;A 2
CH:0205.01;lane1;negative;47.0747833;8.29381752;EMMENBRUECKE, GRUEBLISCH. (AB);LU;SEMPACH;A 2
CH:0205.02;lane2;negative;47.074791;8.29387283;EMMENBRUECKE, GRUEBLISCH. (AB);LU;SEMPACH;A 2
CH:0205.03;lane3;negative;47.0748062;8.29391861;EMMENBRUECKE, GRUEBLISCH. (AB);LU;SEMPACH;A 2
CH:0205.04;lane3;positive;47.0748177;8.29398441;EMMENBRUECKE, GRUEBLISCH. (AB);LU;VERZW. A2/A14;A 2
CH:0205.05;lane2;positive;47.0748367;8.29405022;EMMENBRUECKE, GRUEBLISCH. (AB);LU;VERZW. A2/A14;A 2
CH:0205.06;lane1;positive;47.0748444;8.29409122;EMMENBRUECKE, GRUEBLISCH. (AB);LU;VERZW. A2/A14;A 2
CH:0291.01;lane1;positive;46.5462418;6.56897831;RENENS (AR);VD;YVERDON/VEVEY;A 1
CH:0291.02;lane2;positive;46.5462379;6.56892681;RENENS (AR);VD;YVERDON/VEVEY;A 1
CH:0227.02;lane1;negative;46.6484146;10.2661953;OFENPASS, BUFFALORA;GR;ZERNEZ;H 28
CH:0228.01;lane1;negative;46.9269791;9.56188869;ZIZERS (AB);GR;SARGANS;A 13
CH:0228.02;lane2;negative;46.9269829;9.56194878;ZIZERS (AB);GR;SARGANS;A 13
CH:0291.03;lane3;positive;46.5462418;6.56887865;RENENS (AR);VD;YVERDON/VEVEY;A 1
CH:0280.03;lane2;negative;47.3909264;8.14182949;SCHAFISHEIM (AB) -  AG1410;AG;BERN;A 1
CH:0773.01;lane1;positive;47.5127983;7.72259283;FUELLINSDORF;BL;SISSACH;A 22
CH:0280.04;lane1;negative;47.3909645;8.14183235;SCHAFISHEIM (AB) -  AG1410;AG;BERN;A 1
CH:0243.04;lane1;negative;47.4463348;9.41948414;ST. GALLEN E, BERGBACHVIADUKT (AB);SG;GOSSAU;A 1
CH:0210.01;lane1;;47.5284805;7.73766994;AUGST S, VERZW. A2/A3 (AB);BL;VERZW. A2/A3;A 2
CH:0210.02;lane1;negative;47.52882;7.73723125;AUGST S, VERZW. A2/A3 (AB);BL;VERZW. A2/A3;A 2
CH:0210.03;lane2;negative;47.5288429;7.73725605;AUGST S, VERZW. A2/A3 (AB);BL;VERZW. A2/A3;A 2
CH:0232.03;lane2;negative;46.1483612;7.15333271;SAXON W (AR);VS;MARTIGNY;A 9
CH:0232.04;lane1;negative;46.1483841;7.15328741;SAXON W (AR);VS;MARTIGNY;A 9
CH:0210.04;lane2;positive;47.5288734;7.7374506;AUGST S, VERZW. A2/A3 (AB);BL;SISSACH;A 2
CH:0233.02;lane1;negative;47.3780632;7.16735315;ST-URSANNE, TUN. TERRI (AR);JU;PORRENTRUY;A 16
CH:0253.01;lane1;positive;46.3029709;7.95802593;GAMSEN (TUNNEL) (AB);VS;BRIG;A 9
CH:0253.02;lane2;positive;46.3030014;7.95801115;GAMSEN (TUNNEL) (AB);VS;BRIG;A 9
CH:0541.03;lane2;positive;47.149437;8.42784119;GISIKON (AB);ZG;LUZERN;A 14
CH:0541.04;lane1;positive;47.1493912;8.42791939;GISIKON (AB);ZG;LUZERN;A 14
CH:0830.01;lane1;positive;47.1285934;9.08475304;NIEDERURNEN (AB);GL;SARGANS;A 3
CH:0830.02;lane2;positive;47.1286316;9.08473206;NIEDERURNEN (AB);GL;SARGANS;A 3
CH:0235.03;lane2;negative;47.1615753;7.29621983;PIETERLEN W (AB);BE;BIEL;A 5
CH:0235.04;lane1;negative;47.1616058;7.29620266;PIETERLEN W (AB);BE;BIEL;A 5
CH:0038.01;lane1;positive;47.3523102;7.92339611;STARRKIRCH;SO;AARAU               ;H 5
CH:0041.02;lane1;positive;45.8981476;7.19434738;GRAND-ST-BERNARD (TUNNEL);VS;ITALIEN;H 21
CH:0237.03;lane2;negative;47.1763306;7.42516232;GRENCHEN (AB);SO;BIEL;A 5
CH:0237.04;lane1;negative;47.1763611;7.42515326;GRENCHEN (AB);SO;BIEL;A 5
CH:0238.01;lane1;negative;46.7590446;9.42446518;ROTHENBRUNNEN S (AB);GR;REICHENAU;A 13
CH:0238.02;lane2;negative;46.7590561;9.42450809;ROTHENBRUNNEN S (AB);GR;REICHENAU;A 13
CH:0527.02;lane1;positive;46.1961899;8.14208126;GONDO - VS40001;VS;ITALIEN;A 9
CH:0210.05;lane1;positive;47.5289574;7.73736811;AUGST S, VERZW. A2/A3 (AB);BL;SISSACH;A 2
CH:0210.06;lane1;;47.5287437;7.73787498;AUGST S, VERZW. A2/A3 (AB);BL;VERZW. A2/A3;A 2
CH:0225.01;lane1;negative;47.3153648;7.80585003;EGERKINGEN, VERZWEIGUNG A2 (AB);SO;AUGST;A 2
CH:0225.02;lane2;negative;47.3153687;7.80590057;EGERKINGEN, VERZWEIGUNG A2 (AB);SO;AUGST;A 2
CH:0225.03;lane1;negative;47.3157387;7.80596495;EGERKINGEN, VERZWEIGUNG A2 (AB);SO;AUGST;A 2
CH:0240.01;lane1;;47.4241486;8.56929398;UMF. ZUERICH N, SEEBACH (AB);ZH;ZUERICH-AFFOLTERN;A 1C
CH:0225.04;lane2;negative;47.3157387;7.8060174;EGERKINGEN, VERZWEIGUNG A2 (AB);SO;AUGST;A 2
CH:0238.03;lane2;positive;46.7590675;9.42455101;ROTHENBRUNNEN S (AB);GR;THUSIS;A 13
CH:0238.04;lane1;positive;46.759079;9.42459583;ROTHENBRUNNEN S (AB);GR;THUSIS;A 13
CH:0240.05;lane2;negative;47.4244385;8.56947613;UMF. ZUERICH N, SEEBACH (AB);ZH;ZUERICH-AFFOLTERN;A 1C
CH:0240.06;lane1;negative;47.4244728;8.56948471;UMF. ZUERICH N, SEEBACH (AB);ZH;ZUERICH-AFFOLTERN;A 1C
CH:0240.07;lane1;;47.4245567;8.56949902;UMF. ZUERICH N, SEEBACH (AB);ZH;ZUERICH-AFFOLTERN;A 1C
CH:0240.08;emergencyLane;negative;47.4245949;8.56949043;UMF. ZUERICH N, SEEBACH (AB);ZH;ZUERICH-AFFOLTERN;A 1C
CH:0241.01;lane1;;47.4290352;8.57185555;OPFIKON (AB);ZH;KLOTEN;A 11
CH:0241.02;lane1;negative;47.4287796;8.57203484;OPFIKON (AB);ZH;KLOTEN;A 11
CH:0241.03;lane2;negative;47.4287834;8.57207966;OPFIKON (AB);ZH;KLOTEN;A 11
CH:0799.01;lane1;positive;46.9787064;6.89061356;SERRIERES, TUNNEL (AR);NE;BIENNE;A 5
CH:0799.02;lane2;positive;46.9787369;6.89059782;SERRIERES, TUNNEL (AR);NE;BIENNE;A 5
CH:0241.06;lane1;;47.4298706;8.5721035;OPFIKON (AB);ZH;KLOTEN;A 11
CH:0127.01;lane1;positive;46.7429924;6.52360582;ORBE N (AR);VD;VERZW. A9/A1;A 9
CH:0518.02;lane1;positive;47.3933868;8.49397659;ZUERICH HARDTURM (AB);ZH;ZUERICH;A 1H
CH:0518.03;lane2;positive;47.3934212;8.49397469;ZUERICH HARDTURM (AB);ZH;ZUERICH;A 1H
CH:0243.03;lane2;negative;47.4463196;9.41953945;ST. GALLEN E, BERGBACHVIADUKT (AB);SG;GOSSAU;A 1
CH:0244.01;lane1;negative;47.4982338;7.60268688;REINACH BL (AB);BL;BASEL;A 18
CH:0244.02;lane2;negative;47.4982262;7.60272312;REINACH BL (AB);BL;BASEL;A 18
CH:0671.01;lane1;positive;46.8792343;6.75988245;VAUMARCUS (AR);NE;NEUCHATEL;A 5
CH:0671.02;lane2;positive;46.8792343;6.75984383;VAUMARCUS (AR);NE;NEUCHATEL;A 5
CH:0164.01;lane1;positive;46.2980309;7.85094213;VISP W;VS;BRIG                ;H 9
CH:0383.04;lane2;positive;47.3494949;8.52352524;ZUERICH BRUNAU (AB) 1;ZH;SARGANS;A 3
CH:0245.03;lane2;negative;47.0404778;9.43997288;SARGANS A3 (AB);SG;WEESEN;A 3
CH:0245.04;lane1;negative;47.0405083;9.4400053;SARGANS A3 (AB);SG;WEESEN;A 3
CH:0268.01;lane1;positive;46.2201004;7.00703096;ST. MAURICE (AR);VS;SION;A 9
CH:0268.02;lane2;positive;46.220108;7.00706291;ST. MAURICE (AR);VS;SION;A 9
CH:0246.03;lane2;negative;47.6509666;9.15389442;KREUZLINGEN, GIRSBAERGTUNNEL N (AB);TG;FRAUENFELD;A 7
CH:0246.04;lane1;negative;47.6509819;9.15385151;KREUZLINGEN, GIRSBAERGTUNNEL N (AB);TG;FRAUENFELD;A 7
CH:0383.03;lane1;positive;47.3495178;8.52349091;ZUERICH BRUNAU (AB) 1;ZH;SARGANS;A 3
CH:0097.04;lane3;positive;47.4566994;8.30743122;BADEN, BAREGGTUNNEL (AB);AG;ZUERICH             ;A 1
CH:0247.03;lane2;negative;46.8446617;6.68669415;ONNENS VD (AR);VD;YVERDON;A 5
CH:0247.04;lane1;negative;46.8446846;6.68665504;ONNENS VD (AR);VD;YVERDON;A 5
CH:0248.01;lane1;negative;47.541893;7.75949287;RHEINFELDEN, AUTOBAHNZUBRINGER A3;AG;KANTONSSTR. K292;A 3
CH:0248.02;lane2;negative;47.5418854;7.75970888;RHEINFELDEN, AUTOBAHNZUBRINGER A3;AG;KANTONSSTR. K292;A 3
CH:0097.03;lane2;positive;47.4566917;8.30738258;BADEN, BAREGGTUNNEL (AB);AG;ZUERICH             ;A 1
CH:0097.02;lane1;positive;47.4566841;8.30732536;BADEN, BAREGGTUNNEL (AB);AG;ZUERICH             ;A 1
CH:0602.01;lane1;positive;47.435257;9.3961134;ST. GALLEN, HARZBUECHEL (AB);SG;ST. MARGRETHEN;A 1
CH:0602.02;lane2;positive;47.435276;9.39610004;ST. GALLEN, HARZBUECHEL (AB);SG;ST. MARGRETHEN;A 1
CH:0287.02;lane2;positive;47.4243469;8.4840107;WEININGEN, GUBRIST (AB);ZH;GLATTBRUGG;A 1C
CH:0174.02;lane1;positive;47.0512161;6.71954155;COL DES ROCHES;NE;LE LOCLE            ;H 20
CH:0287.01;lane1;positive;47.4242859;8.48394871;WEININGEN, GUBRIST (AB);ZH;GLATTBRUGG;A 1C
CH:0225.05;lane3;positive;47.3160782;7.8061657;EGERKINGEN, VERZWEIGUNG A2 (AB);SO;HAERKINGEN;A 2
CH:0250.03;lane2;negative;46.3121529;6.946908;AIGLE E (AR);VD;LAUSANNE;A 9
CH:0250.04;lane1;negative;46.3121719;6.94695234;AIGLE E (AR);VD;LAUSANNE;A 9
CH:0225.06;lane2;positive;47.316082;7.8062191;EGERKINGEN, VERZWEIGUNG A2 (AB);SO;HAERKINGEN;A 2
CH:0225.07;lane1;positive;47.3161011;7.80630732;EGERKINGEN, VERZWEIGUNG A2 (AB);SO;HAERKINGEN;A 2
CH:0239.01;lane1;negative;47.2385635;7.96073437;REIDEN S (AB);LU;VERZW. A1/A2;A 2
CH:0312.02;lane2;positive;47.4489746;8.23756599;MUELLIGEN OST (AB) - AG1422;AG;VERZW. A3/A1;A 3
CH:0239.02;lane2;negative;47.2385826;7.96077299;REIDEN S (AB);LU;VERZW. A1/A2;A 2
CH:0239.03;lane2;positive;47.2386284;7.96084929;REIDEN S (AB);LU;LUZERN;A 2
CH:0239.04;lane1;positive;47.2386551;7.96088791;REIDEN S (AB);LU;LUZERN;A 2
CH:0252.01;lane1;;46.8895264;8.61860752;VERZWEIGUNG ALTDORFA2/A4 (AB);UR;LUZERN / FLUELEN;A 2
CH:0312.01;lane1;positive;47.4489441;8.23754787;MUELLIGEN OST (AB) - AG1422;AG;VERZW. A3/A1;A 3
CH:0253.03;lane2;negative;46.3031731;7.95821667;GAMSEN (TUNNEL) (AB);VS;SION;A 9
CH:0253.04;lane1;negative;46.3031921;7.9582057;GAMSEN (TUNNEL) (AB);VS;SION;A 9
CH:0252.02;lane1;negative;46.8896599;8.61875057;VERZWEIGUNG ALTDORFA2/A4 (AB);UR;LUZERN / FLUELEN;A 2
CH:0252.03;lane2;negative;46.8896828;8.6187849;VERZWEIGUNG ALTDORFA2/A4 (AB);UR;LUZERN / FLUELEN;A 2
CH:0252.04;lane2;positive;46.8897591;8.61877155;VERZWEIGUNG ALTDORFA2/A4 (AB);UR;GOTTHARD;A 2
CH:0649.01;lane1;positive;46.6697121;7.0752511;SORENS (AR);FR;BERN;A 12
CH:0649.02;lane2;positive;46.6697159;7.07521105;SORENS (AR);FR;BERN;A 12
CH:0252.05;lane1;positive;46.889782;8.61880398;VERZWEIGUNG ALTDORFA2/A4 (AB);UR;GOTTHARD;A 2
CH:0252.06;lane2;;46.8896027;8.6193161;VERZWEIGUNG ALTDORFA2/A4 (AB);UR;LUZERN / FLUELEN;A 2
CH:0258.01;lane1;negative;46.4699211;9.71702957;JULIER, LA VEDUTA;GR;CHUR;H 3
CH:0685.01;lane1;positive;46.8747787;8.65287018;ALTDORF, KLAUSENSTRASSE - UR6017;UR;GLARUS;H 17
CH:0329.04;lane1;negative;46.942585;7.15328026;MURTEN, LOEWENBERG (AB);FR;PAYERNE;A 1
CH:0260.02;lane1;negative;46.5931969;8.46074677;FURKAPASS, TIEFENBACH;UR;GLETSCH;H 19
CH:0261.01;lane1;negative;46.6419487;8.61380577;OBERALPPASS W;UR;SEDRUN;H 19
CH:0329.03;lane2;negative;46.9425583;7.15331221;MURTEN, LOEWENBERG (AB);FR;PAYERNE;A 1
CH:0262.01;lane1;negative;46.7182312;8.57451153;SUSTENPASS, MEIEN;UR;INNERTKIRCHEN;H 11
CH:0340.03;lane3;positive;47.4584427;8.28535938;BADEN-WEST (AB) - AG1441;AG;ZUERICH;A 1
CH:0147.01;lane1;positive;46.6275635;7.03920031;CONT. DE BULLE (AR);FR;FRIBOURG            ;A 12
CH:0263.02;lane1;negative;46.478157;8.38676071;NUFENENPASS;VS;ULRICHEN;H 413
CH:0147.02;lane2;positive;46.6275902;7.03916645;CONT. DE BULLE (AR);FR;FRIBOURG            ;A 12
CH:0264.02;lane1;negative;46.8711205;8.78112793;KLAUSENPASS W;UR;ALTDORF;H 17
CH:0252.07;lane1;;46.8896217;8.61937141;VERZWEIGUNG ALTDORFA2/A4 (AB);UR;LUZERN / FLUELEN;A 2
CH:0257.01;lane1;;47.5769157;7.59880686;BASEL, ANSCHLUSS WIESE, KLEINHAENINGEN (AB);BS;DEUTSCHLAND;A 2
CH:0539.02;lane1;positive;46.5383987;9.23320198;HINTERRHEIN (AB) TUNNEL CASSANAWALD;GR;SAN BERNARDINO;A 13
CH:0224.03;lane2;positive;46.1612625;6.11503792;GENEVE, PLAN-LES-OUAT. (AR);GE;LAUSANNE/FRANCE;A 1A
CH:0224.04;lane1;positive;46.161232;6.11504221;GENEVE, PLAN-LES-OUAT. (AR);GE;LAUSANNE/FRANCE;A 1A
CH:0581.03;lane3;positive;47.3349304;8.52419186;WOLLISHOFEN, ENTLISBERG (AB ) - ZH1213;ZH;SARGANS;A 3
CH:0268.03;lane2;negative;46.2194977;7.00752831;ST. MAURICE (AR);VS;LAUSANNE;A 9
CH:0268.04;lane1;negative;46.2195053;7.00756168;ST. MAURICE (AR);VS;LAUSANNE;A 9
CH:0581.01;lane1;positive;47.3349152;8.52409649;WOLLISHOFEN, ENTLISBERG (AB ) - ZH1213;ZH;SARGANS;A 3
CH:0581.02;lane2;positive;47.3349266;8.52414608;WOLLISHOFEN, ENTLISBERG (AB ) - ZH1213;ZH;SARGANS;A 3
CH:0269.03;lane2;negative;46.28088;7.51751423;SIERRE W (AB);VS;SION;A 9
CH:0269.04;lane1;negative;46.2809029;7.51749802;SIERRE W (AB);VS;SION;A 9
CH:0533.02;lane1;positive;47.5567932;8.68980026;HENGGART (AB) - ZH0497;ZH;WINTERTHUR;A 4
CH:0257.02;lane1;negative;47.5792274;7.59948206;BASEL, ANSCHLUSS WIESE, KLEINHAENINGEN (AB);BS;DEUTSCHLAND;A 2
CH:0270.03;lane2;negative;47.4116516;8.5732317;ZUERICH - OERLIKON (AB) ZH 1301;ZH;ZUERICH CITY;A 1L
CH:0270.04;lane1;negative;47.4116821;8.57322788;ZUERICH - OERLIKON (AB) ZH 1301;ZH;ZUERICH CITY;A 1L
CH:0270.05;lane1;;47.4120216;8.57288742;ZUERICH - OERLIKON (AB) ZH 1301;ZH;ZUERICH CITY;A 1L
CH:0271.01;lane1;negative;46.936451;7.49125051;MURI BE N (AB);BE;BERN;A 6
CH:0271.02;lane2;negative;46.9364853;7.49126005;MURI BE N (AB);BE;BERN;A 6
CH:0257.03;lane2;negative;47.579216;7.59952497;BASEL, ANSCHLUSS WIESE, KLEINHAENINGEN (AB);BS;DEUTSCHLAND;A 2
CH:0165.01;lane1;positive;46.1188354;7.06939268;MARTIGNY N (AR);VS;SION                ;A 9
CH:0165.02;lane2;positive;46.1188583;7.06942511;MARTIGNY N (AR);VS;SION                ;A 9
CH:0340.04;lane2;positive;47.4584122;8.28536701;BADEN-WEST (AB) - AG1441;AG;ZUERICH;A 1
CH:0093.01;lane1;positive;47.5177383;8.69512463;UMF. WINTERTHUR (AB);ZH;OHRINGEN;A 1
CH:0093.02;lane2;positive;47.5177536;8.69508362;UMF. WINTERTHUR (AB);ZH;OHRINGEN;A 1
CH:0257.04;lane2;positive;47.5764732;7.59913635;BASEL, ANSCHLUSS WIESE, KLEINHAENINGEN (AB);BS;BASEL;A 2
CH:0257.05;lane1;positive;47.5764771;7.59918356;BASEL, ANSCHLUSS WIESE, KLEINHAENINGEN (AB);BS;BASEL;A 2
CH:0257.06;lane1;;47.5764923;7.59926987;BASEL, ANSCHLUSS WIESE, KLEINHAENINGEN (AB);BS;DEUTSCHLAND;A 2
CH:0093.03;lane3;positive;47.5177689;8.69505119;UMF. WINTERTHUR (AB);ZH;OHRINGEN;A 1
CH:0084.01;lane1;positive;47.4311333;9.37897015;ST. GALLEN, ROSENB'TUNNEL (AB);SG;ST. GALLEN OST;A 1
CH:0257.07;lane1;;47.5791473;7.59969234;BASEL, ANSCHLUSS WIESE, KLEINHAENINGEN (AB);BS;DEUTSCHLAND;A 2
CH:0265.01;lane1;negative;46.2841415;8.99295139;MOLENO N (AS);TI;BIASCA;A 2
CH:0084.02;lane2;positive;47.4311676;9.37895203;ST. GALLEN, ROSENB'TUNNEL (AB);SG;ST. GALLEN OST;A 1
CH:0265.02;lane2;negative;46.2841492;8.99300194;MOLENO N (AS);TI;BIASCA;A 2
CH:0396.02;lane1;positive;46.6195145;7.68501997;REICHENBACH S;BE;FRUTIGEN;H 223
CH:0373.01;lane1;positive;46.8934174;9.84452629;KLOSTERS, MEZZASELVA - GR241;GR;DAVOS;A 28
CH:0546.04;lane3;negative;47.4251442;8.37913609;SPREITENBACH O (AB);AG;BERN;A 1
CH:0546.05;lane2;negative;47.4251709;8.37914848;SPREITENBACH O (AB);AG;BERN;A 1
CH:0693.01;lane1;positive;47.1074867;9.06410789;NAEFELS N;GL;NIEDERURNEN;H 17
CH:0305.02;lane1;positive;47.1203461;7.27693939;BRUEGG;BE;LYSS;A 6
CH:0275.03;lane2;negative;47.5809174;8.92752838;FRAUENFELD OST  (AB);TG;FRAUENFELD;A 7
CH:0275.04;lane1;negative;47.5809441;8.92749119;FRAUENFELD OST  (AB);TG;FRAUENFELD;A 7
CH:0279.01;lane1;negative;46.5806732;7.09053516;ENNEY N, SAUSSIVUE;FR;BULLE;H 190
CH:0658.02;lane2;positive;46.2189636;7.33913708;CONTHEY (AR);VS;SION;A 9
CH:0658.01;lane1;positive;46.2189407;7.33913565;CONTHEY (AR);VS;SION;A 9
CH:0025.04;lane1;positive;47.0145607;9.5047226;BAD RAGAZ (AB);SG;CHUR                ;A 13
CH:0546.06;lane1;negative;47.4252014;8.37917042;SPREITENBACH O (AB);AG;BERN;A 1
CH:0056.03;lane3;positive;47.0047722;7.49374151;SCHOENBUEHL, GRAUHOLZ (AB);BE;ZUERICH;A 1
CH:0056.01;lane1;positive;47.0047302;7.49382353;SCHOENBUEHL, GRAUHOLZ (AB);BE;ZUERICH;A 1
CH:0025.03;lane2;positive;47.0145302;9.50471783;BAD RAGAZ (AB);SG;CHUR                ;A 13
CH:0175.01;lane1;positive;46.8207397;7.13889837;CONT. DE FRIBOURG (AR);FR;FLAMATT             ;A 12
CH:0056.02;lane2;positive;47.0047531;7.49378109;SCHOENBUEHL, GRAUHOLZ (AB);BE;ZUERICH;A 1
CH:0340.01;lane1;positive;47.4582138;8.28517914;BADEN-WEST (AB) - AG1441;AG;ZUERICH;A 1
CH:0509.03;lane2;negative;46.4683304;6.34408712;ROLLE N (AR);VD;GENF;A 1
CH:0509.04;lane1;negative;46.4683609;6.344069;ROLLE N (AR);VD;GENF;A 1
CH:0300.03;lane2;negative;46.4772415;6.41129398;ETOY (AR);VD;GENEVE;A 1
CH:0300.04;lane1;negative;46.4772758;6.411304;ETOY (AR);VD;GENEVE;A 1
CH:0060.01;lane1;positive;47.3116798;7.81934834;GUNZGEN (AB);SO;ZUERICH             ;A 1
CH:0060.02;lane2;positive;47.3117104;7.81935787;GUNZGEN (AB);SO;ZUERICH             ;A 1
CH:0175.02;lane2;positive;46.8207588;7.13885498;CONT. DE FRIBOURG (AR);FR;FLAMATT             ;A 12
CH:0775.02;lane2;positive;47.4744835;7.75896883;LAUSEN;BL;SISSACH;A 22
CH:0283.01;lane1;;47.5706253;7.58274269;BASEL - ST. JOHANN, TUNNEL E (AB);BS;FRANKREICH;A 3
CH:0775.01;lane1;positive;47.4744606;7.75894499;LAUSEN;BL;SISSACH;A 22
CH:0265.03;lane2;positive;46.2841682;8.99310017;MOLENO N (AS);TI;BELLINZONA;A 2
CH:0283.04;lane2;negative;47.5707626;7.58273649;BASEL - ST. JOHANN, TUNNEL E (AB);BS;FRANKREICH;A 3
CH:0283.05;lane1;negative;47.5708008;7.58273363;BASEL - ST. JOHANN, TUNNEL E (AB);BS;FRANKREICH;A 3
CH:0283.06;lane1;;47.5708733;7.58273554;BASEL - ST. JOHANN, TUNNEL E (AB);BS;FRANKREICH;A 3
CH:0265.04;lane1;positive;46.2841721;8.99314499;MOLENO N (AS);TI;BELLINZONA;A 2
CH:0060.03;lane3;positive;47.3117371;7.81936598;GUNZGEN (AB);SO;ZUERICH             ;A 1
CH:0105.03;lane2;positive;47.2109261;8.54366684;BAAR N (AB);ZG;VERZW. A14/A4;A 14
CH:0272.03;lane2;negative;46.1946259;6.07815313;GENEVE, PONT DU RHONE (AR);GE;GENEVE VILLE / FRANCE;A 1
CH:0132.01;lane1;positive;46.9727058;9.60482693;PARDISLA, CHLUSTUNNEL;GR;KLOSTERS            ;A 28
CH:0272.04;lane1;negative;46.1946259;6.07810354;GENEVE, PONT DU RHONE (AR);GE;GENEVE VILLE / FRANCE;A 1
CH:0023.01;lane1;positive;47.0526123;7.53781891;MATTSTETTEN (AB);BE;ZUERICH;A 1
CH:0023.02;lane2;positive;47.052639;7.53777504;MATTSTETTEN (AB);BE;ZUERICH;A 1
CH:0060.04;lane3;negative;47.3116188;7.82072592;GUNZGEN (AB);SO;BERN                ;A 1
CH:0060.05;lane2;negative;47.3116417;7.82073593;GUNZGEN (AB);SO;BERN                ;A 1
CH:0105.04;lane1;positive;47.2108917;8.54365826;BAAR N (AB);ZG;VERZW. A14/A4;A 14
CH:0598.06;lane1;positive;47.4712982;9.4431963;MEGGENHUS, VERZWEIGUNG (AB);SG;VERZWEIGUNG A1;A 23
CH:0598.05;lane2;positive;47.4712753;9.44316101;MEGGENHUS, VERZWEIGUNG (AB);SG;VERZWEIGUNG A1;A 23
CH:0060.06;lane1;negative;47.3116646;7.82073593;GUNZGEN (AB);SO;BERN                ;A 1
CH:0504.01;lane1;positive;46.3865166;6.20430088;NYON, CRASSIER (AR);VD;LAUSANNE;A 1
CH:0504.02;lane2;positive;46.3865242;6.20425034;NYON, CRASSIER (AR);VD;LAUSANNE;A 1
CH:0338.04;lane3;negative;47.4506645;8.25934601;BADEN-WEST (AB) - AG1442;AG;Bern;A 1
CH:0849.04;lane1;positive;47.6932373;8.62523651;FAESENSTAUB SUED;SH;WINTERTHUR;A 4
CH:0338.05;lane2;negative;47.450695;8.25932789;BADEN-WEST (AB) - AG1442;AG;Bern;A 1
CH:0338.06;lane1;negative;47.4507256;8.25931358;BADEN-WEST (AB) - AG1442;AG;Bern;A 1
CH:0744.04;lane2;negative;46.5612755;6.56034946;CRISSIER (AR) RI SUED;VD;GENEVE;A 1
CH:0744.03;lane1;negative;46.5612717;6.5603056;CRISSIER (AR) RI SUED;VD;GENEVE;A 1
CH:0286.06;lane2;negative;47.4104996;8.61683178;WALLISELLEN (AB);ZH;ZUERICH;A 1
CH:0286.07;lane1;negative;47.4105301;8.6168108;WALLISELLEN (AB);ZH;ZUERICH;A 1
CH:0287.03;lane2;negative;47.4244041;8.48388958;WEININGEN, GUBRIST (AB);ZH;VERZW. A1C/A1;A 1C
CH:0287.04;lane1;negative;47.4244537;8.4839077;WEININGEN, GUBRIST (AB);ZH;VERZW. A1C/A1;A 1C
CH:0286.08;emergencyLane;negative;47.4105606;8.61678696;WALLISELLEN (AB);ZH;ZUERICH;A 1
CH:0121.02;lane2;positive;46.9631805;6.86743116;COLOMBIER, AREUSE (AR);NE;NEUCHATEL;A 5
CH:0121.01;lane1;positive;46.9631577;6.86745024;COLOMBIER, AREUSE (AR);NE;NEUCHATEL;A 5
CH:0191.04;lane1;positive;47.045433;8.55916309;GOLDAU S (AB);SZ;BRUNNEN             ;A 4
CH:0273.01;lane1;;47.5725327;7.60233402;BASEL, ANSCHLUSS WIESE, A2 (AB);BS;DEUTSCHLAND;A 2
CH:0273.02;lane1;negative;47.5742798;7.60065413;BASEL, ANSCHLUSS WIESE, A2 (AB);BS;DEUTSCHLAND;A 2
CH:0546.01;lane1;positive;47.4250107;8.37906933;SPREITENBACH O (AB);AG;ZUERICH;A 1
CH:0546.02;lane2;positive;47.4250488;8.3790884;SPREITENBACH O (AB);AG;ZUERICH;A 1
CH:0546.03;lane3;positive;47.4250679;8.37909985;SPREITENBACH O (AB);AG;ZUERICH;A 1
CH:0837.05;lane4;negative;47.4087906;8.58653164;SCHWAMENDINGEN (AB);ZH;ZUERICH;A 1
CH:0191.03;lane2;positive;47.0454178;8.55920887;GOLDAU S (AB);SZ;BRUNNEN             ;A 4
CH:0279.02;lane1;positive;46.5806541;7.0905838;ENNEY N, SAUSSIVUE;FR;CHATEAU D'OEX;H 190
CH:0837.06;lane3;negative;47.4088211;8.58654785;SCHWAMENDINGEN (AB);ZH;ZUERICH;A 1
CH:0333.01;lane1;positive;46.6649323;6.57141018;BAVOIS (AR);VD;YVERDON;A 1
CH:0837.07;lane2;negative;47.4088554;8.58656025;SCHWAMENDINGEN (AB);ZH;ZUERICH;A 1
CH:0309.01;lane1;positive;46.6897202;7.65987539;SPIEZ (AB);BE;INTERLAKEN;A 6
CH:0309.02;lane2;positive;46.6897469;7.65990067;SPIEZ (AB);BE;INTERLAKEN;A 6
CH:0739.01;lane1;positive;46.3063278;7.68527079;TURTMANN (AB);VS;BRIG;A 9
CH:0837.08;lane1;negative;47.4088936;8.5865736;SCHWAMENDINGEN (AB);ZH;ZUERICH;A 1
CH:0739.02;lane2;positive;46.306366;7.68524742;TURTMANN (AB);VS;BRIG;A 9
CH:0186.02;lane1;positive;46.3895836;6.81619549;ST-GINGOLPH E;VS;VIONNAZ             ;H 21
CH:0200.01;lane1;positive;46.151371;6.09684467;GENEVE, BARDONNEX (AR);GE;GENEVE              ;A 1A
CH:0292.02;lane1;negative;47.168705;7.79594803;MADISWIL N;BE;LANGENTHAL;H 244
CH:0273.03;lane2;negative;47.5742989;7.60069036;BASEL, ANSCHLUSS WIESE, A2 (AB);BS;DEUTSCHLAND;A 2
CH:0273.04;lane2;positive;47.5725861;7.60256672;BASEL, ANSCHLUSS WIESE, A2 (AB);BS;BASEL;A 2
CH:0200.02;lane2;positive;46.1513824;6.09680176;GENEVE, BARDONNEX (AR);GE;GENEVE              ;A 1A
CH:0200.03;lane3;positive;46.1513901;6.09675741;GENEVE, BARDONNEX (AR);GE;GENEVE              ;A 1A
CH:0294.01;lane1;negative;47.4242172;8.05474377;KUETTIGEN N;AG;FRICK;H 24
CH:0565.04;lane2;positive;47.3403091;8.44347286;AESCHERTUNNEL (AB) - ZH1201;ZH;VERZW. ZUERICH WEST;A 3
CH:0853.04;lane1;positive;47.1577911;7.27066898;BIENNE NORD (AB);BE;BIENNE;A 16
CH:0565.05;lane1;positive;47.3402405;8.44348049;AESCHERTUNNEL (AB) - ZH1201;ZH;VERZW. ZUERICH WEST;A 3
CH:0295.03;lane2;negative;47.5186005;8.01332283;OESCHGEN (AB);AG;AUGST;A 3
CH:0295.04;lane1;negative;47.5186234;8.01336098;OESCHGEN (AB);AG;AUGST;A 3
CH:0273.05;lane1;positive;47.5725975;7.60261059;BASEL, ANSCHLUSS WIESE, A2 (AB);BS;BASEL;A 2
CH:0273.06;lane2;;47.5727158;7.60275078;BASEL, ANSCHLUSS WIESE, A2 (AB);BS;DEUTSCHLAND;A 2
CH:0273.07;lane1;;47.5727234;7.60278893;BASEL, ANSCHLUSS WIESE, A2 (AB);BS;DEUTSCHLAND;A 2
CH:0565.06;emergencyLane;positive;47.3401566;8.4434948;AESCHERTUNNEL (AB) - ZH1201;ZH;VERZW. ZUERICH WEST;A 3
CH:0853.03;lane2;positive;47.157753;7.27067518;BIENNE NORD (AB);BE;BIENNE;A 16
CH:0289.01;lane1;negative;46.0971413;8.92819786;CAMIGNOLO (AS);TI;BELLINZONA;A 2
CH:0289.02;lane2;negative;46.0971298;8.92823982;CAMIGNOLO (AS);TI;BELLINZONA;A 2
CH:0289.03;lane2;positive;46.0971031;8.92832947;CAMIGNOLO (AS);TI;LUGANO;A 2
CH:0668.02;lane1;positive;46.2469635;6.93687296;MONTHEY - VS164002;VS;TROISTORRENTS;H 201
CH:0588.03;lane2;positive;47.2184906;8.96246529;SCHMERIKON (AB);SG;REICHENBURG;A 15
CH:0588.04;lane1;positive;47.2184906;8.96252441;SCHMERIKON (AB);SG;REICHENBURG;A 15
CH:0299.01;lane1;positive;47.1968269;8.70271206;WOLLERAU, BLATTTUNNEL (AB);SZ;SARGANS;A 3
CH:0333.02;lane2;positive;46.6649284;6.5713625;BAVOIS (AR);VD;YVERDON;A 1
CH:0284.06;lane1;negative;47.4618225;8.70883656;WINTERTHUR, KEMPTTHAL (AB);ZH;ZUERICH;A 1
CH:0299.02;lane2;positive;47.1968689;8.70273685;WOLLERAU, BLATTTUNNEL (AB);SZ;SARGANS;A 3
CH:0523.03;lane2;positive;46.8701363;7.54665709;MUENSINGEN (AB);BE;THUN;A 6
CH:0299.03;lane2;negative;47.1969414;8.70276833;WOLLERAU, BLATTTUNNEL (AB);SZ;ZUERICH;A 3
CH:0299.04;lane1;negative;47.1969681;8.70278645;WOLLERAU, BLATTTUNNEL (AB);SZ;ZUERICH;A 3
CH:0284.04;lane3;negative;47.4618301;8.70892715;WINTERTHUR, KEMPTTHAL (AB);ZH;ZUERICH;A 1
CH:0284.05;lane2;negative;47.4618263;8.70888424;WINTERTHUR, KEMPTTHAL (AB);ZH;ZUERICH;A 1
CH:0341.03;lane1;positive;47.4545097;8.32589245;NEUENHOF (AB) - AG1402;AG;ZUERICH;A 1
CH:0341.02;lane2;positive;47.4545364;8.32589054;NEUENHOF (AB) - AG1402;AG;ZUERICH;A 1
CH:0301.01;lane1;;47.3634987;8.42322636;BIRMENSDORF N (AB) - ZH1103;ZH;URDORF;A 4
CH:0523.04;lane1;positive;46.8701515;7.54670382;MUENSINGEN (AB);BE;THUN;A 6
CH:0540.01;lane1;positive;47.2758331;7.51819706;WELSCHENROHR W;SO;HERBETSWIL;H 30
CH:0184.01;lane1;positive;46.9353867;7.39692593;BERN, BUEMPLIZ (AB);BE;BERN;A 12
CH:0301.05;lane2;negative;47.3656082;8.42435551;BIRMENSDORF N (AB) - ZH1103;ZH;URDORF;A 4
CH:0301.06;lane1;negative;47.3656158;8.42440128;BIRMENSDORF N (AB) - ZH1103;ZH;URDORF;A 4
CH:0301.07;emergencyLane;negative;47.3656197;8.42444611;BIRMENSDORF N (AB) - ZH1103;ZH;URDORF;A 4
CH:0301.08;lane1;;47.3630791;8.42530632;BIRMENSDORF N (AB) - ZH1103;ZH;URDORF;A 4
CH:0302.01;lane1;negative;47.4842186;9.44186306;ARBON, A1/ZUBRINGER SG;SG;ARBON;A 23
CH:0302.02;lane2;negative;47.4842339;9.44190311;ARBON, A1/ZUBRINGER SG;SG;ARBON;A 23
CH:0184.02;lane2;positive;46.9354019;7.3968811;BERN, BUEMPLIZ (AB);BE;BERN;A 12
CH:0203.02;lane1;positive;46.2303619;9.11446953;ROVEREDO (AS);GR;CASTIONE            ;A 13
CH:0341.01;lane3;positive;47.4545708;8.32588673;NEUENHOF (AB) - AG1402;AG;ZUERICH;A 1
CH:0281.05;lane2;negative;47.523159;8.71540928;OHRINGEN ANSCHLUSS 1 (AB);ZH;ZUERICH;A 1
CH:0538.01;lane1;positive;46.4575233;6.88343573;MONTREUX (AR);VD;MARTIGNY;A 9
CH:0538.02;lane2;positive;46.4575539;6.88345242;MONTREUX (AR);VD;MARTIGNY;A 9
CH:0289.04;lane1;positive;46.0970917;8.92837524;CAMIGNOLO (AS);TI;LUGANO;A 2
CH:0293.01;lane1;negative;46.511261;8.70472145;QUINTO (AS);TI;AIROLO;A 2
CH:0763.03;lane2;positive;47.2812805;8.82395744;HINWIL S;ZH;RUETI;A 15
CH:0763.04;lane1;positive;47.2813034;8.82399368;HINWIL S;ZH;RUETI;A 15
CH:0305.01;lane1;negative;47.120327;7.27691364;BRUEGG;BE;BIEL/BIENNE;A 6
CH:0322.02;lane1;positive;46.6532135;9.45163155;ZILLIS (AS);GR;SAN BERNARDINO;A 13
CH:0307.01;lane1;negative;47.4163246;9.64714527;OBERFAHR (AB);SG;ST. MARGRETHEN;A 13
CH:0307.02;lane2;negative;47.4163246;9.64720249;OBERFAHR (AB);SG;ST. MARGRETHEN;A 13
CH:0399.01;lane1;positive;46.7829361;7.06363297;ROSE;FR;FRIBOURG;H 181
CH:0611.02;lane1;positive;46.7833862;9.41544628;ROTHENBRUNNEN, TUNNEL ISLA BELLA (AB) - GR305;GR;BELLINZONA;A 13
CH:0281.06;lane1;negative;47.5231934;8.715415;OHRINGEN ANSCHLUSS 1 (AB);ZH;ZUERICH;A 1
CH:0023.03;lane2;negative;47.052681;7.53770494;MATTSTETTEN (AB);BE;BERN;A 1
CH:0308.03;lane2;negative;47.1904373;8.83082867;LACHEN (AB);SZ;ZUERICH;A 3
CH:0308.04;lane1;negative;47.1905174;8.8308506;LACHEN (AB);SZ;ZUERICH;A 3
CH:0524.02;lane1;positive;46.5272026;8.9237051;OLIVONE - LUCOMAGNO;TI;BIASCA;H 416
CH:0625.04;lane1;positive;47.1895409;8.49860287;STEINHAUSEN E (AB);ZG;VERZW. A14/A4;A 14
CH:0309.03;lane2;negative;46.6898193;7.6599555;SPIEZ (AB);BE;THUN;A 6
CH:0309.04;lane1;negative;46.689846;7.65997982;SPIEZ (AB);BE;THUN;A 6
CH:0310.01;lane1;negative;47.2611465;9.52758503;SENNWALD (AB);SG;ST. MARGRETHEN;A 13
CH:0310.02;lane2;negative;47.2611427;9.52763748;SENNWALD (AB);SG;ST. MARGRETHEN;A 13
CH:0625.03;lane2;positive;47.1895676;8.49857044;STEINHAUSEN E (AB);ZG;VERZW. A14/A4;A 14
CH:0632.01;lane1;positive;46.840435;9.86384869;DAVOS N, LARET - GR0237;GR;DAVOS;H 28
CH:0244.03;lane2;positive;47.4981117;7.60274601;REINACH BL (AB);BL;DELEMONT;A 18
CH:0244.04;lane1;positive;47.4981003;7.60279083;REINACH BL (AB);BL;DELEMONT;A 18
CH:0312.03;lane2;negative;47.4490395;8.23760033;MUELLIGEN OST (AB) - AG1422;AG;FRICK;A 3
CH:0312.04;lane1;negative;47.4490738;8.23762131;MUELLIGEN OST (AB) - AG1422;AG;FRICK;A 3
CH:0696.01;lane1;positive;47.2102165;7.73711157;BUETZBERG;BE;OFTRINGEN;H 1
CH:0365.02;lane1;positive;47.1918678;7.13134956;CORGEMONT W;BE;LA CHAUX-DE-FONDS;H 30
CH:0313.03;lane2;negative;46.2077446;7.27196455;ARDON (AR);VS;VEVEY;A 9
CH:0313.04;lane1;negative;46.2077713;7.27194023;ARDON (AR);VS;VEVEY;A 9
CH:0391.02;lane1;positive;46.6516914;6.78874731;MOUDON S;VD;BERN;H 1
CH:0160.03;lane2;positive;47.1876793;7.20986176;LA HEUTTE (AR);BE;BIENNE              ;A 16
CH:0314.03;lane2;negative;47.1812668;8.99006176;REICHENBURG (AB);SG;ZUERICH;A 3
CH:0314.04;lane1;negative;47.1812935;8.99008465;REICHENBURG (AB);SG;ZUERICH;A 3
CH:0160.04;lane1;positive;47.1877136;7.20986366;LA HEUTTE (AR);BE;BIENNE              ;A 16
CH:0798.01;lane1;positive;47.4661331;7.00248051;NEU-BOIS, TUNNEL S (AR);JU;0;A 16
CH:0315.03;lane2;negative;47.2010422;7.56639242;ZUCHWIL (AB);SO;BIEL/BIENNE;A 5
CH:0315.04;lane1;negative;47.2010651;7.56636286;ZUCHWIL (AB);SO;BIEL/BIENNE;A 5
CH:0317.01;lane1;;47.6458931;8.6502409;BENKEN ANSCHLUSS (AB);ZH;Schaffhausen;A 4
CH:0317.02;lane1;negative;47.6460037;8.65049458;BENKEN ANSCHLUSS (AB);ZH;Schaffhausen;A 4
CH:0317.03;lane2;negative;47.6460114;8.65053177;BENKEN ANSCHLUSS (AB);ZH;Schaffhausen;A 4
CH:0317.04;lane1;;47.6446991;8.65095901;BENKEN ANSCHLUSS (AB);ZH;Schaffhausen;A 4
CH:0798.02;lane2;positive;47.4661217;7.00240278;NEU-BOIS, TUNNEL S (AR);JU;0;A 16
CH:0294.02;lane1;positive;47.4242249;8.0548048;KUETTIGEN N;AG;AARAU;H 24
CH:0317.07;lane1;;47.6458855;8.65113068;BENKEN ANSCHLUSS (AB);ZH;Schaffhausen;A 4
CH:0317.08;lane1;;47.6470909;8.65016651;BENKEN ANSCHLUSS (AB);ZH;Schaffhausen;A 4
CH:0525.03;lane1;positive;46.178215;8.84347343;TENERO;TI;MINUSIO;A 13
CH:0293.02;lane2;negative;46.5112915;8.70474529;QUINTO (AS);TI;AIROLO;A 2
CH:0318.03;lane2;negative;47.0473022;9.43170834;MELS N (AB);SG;ZUERICH;A 3
CH:0318.04;lane1;negative;47.0473175;9.43175125;MELS N (AB);SG;ZUERICH;A 3
CH:0319.01;lane1;negative;47.1410065;8.44586849;BUONAS (AB);ZG;ROTKREUZ;A 4
CH:0319.02;lane2;negative;47.1410217;8.4459095;BUONAS (AB);ZG;ROTKREUZ;A 4
CH:0293.03;lane2;positive;46.5113564;8.70478916;QUINTO (AS);TI;BELLINZONA;A 2
CH:0293.04;lane1;positive;46.5113869;8.7048111;QUINTO (AS);TI;BELLINZONA;A 2
CH:0320.01;lane1;negative;46.8844337;9.5363493;CHUR NORD (AB);GR;SARGANS;A 13
CH:0320.02;lane2;negative;46.8844185;9.53639317;CHUR NORD (AB);GR;SARGANS;A 13
CH:0296.01;lane1;;47.0187111;8.2962532;HORW, SCHLUNDTUNNEL (AB);LU;LUZERN;A 2
CH:0296.02;lane1;negative;47.0194168;8.2959137;HORW, SCHLUNDTUNNEL (AB);LU;LUZERN;A 2
CH:0321.01;lane1;;47.5721931;7.59889078;BASEL, ANSCHLUSS WIESE, A3 (AB);BS;FRANKREICH;A 3
CH:0319.03;lane2;positive;47.1410408;8.44598007;BUONAS (AB);ZG;KUESSNACHT;A 4
CH:0319.04;lane1;positive;47.1410522;8.44602394;BUONAS (AB);ZG;KUESSNACHT;A 4
CH:0321.04;lane2;negative;47.5715446;7.59839869;BASEL, ANSCHLUSS WIESE, A3 (AB);BS;FRANKREICH;A 3
CH:0321.05;lane1;negative;47.5715561;7.59835577;BASEL, ANSCHLUSS WIESE, A3 (AB);BS;FRANKREICH;A 3
CH:0321.06;lane1;;47.5714684;7.59812546;BASEL, ANSCHLUSS WIESE, A3 (AB);BS;FRANKREICH;A 3
CH:0322.01;lane1;negative;46.6532211;9.45159245;ZILLIS (AS);GR;CHUR;A 13
CH:0005.01;lane1;positive;47.0001717;9.07611847;SCHWANDEN N;GL;GLARUS              ;H 17
CH:0023.04;lane1;negative;47.0527039;7.53766823;MATTSTETTEN (AB);BE;BERN;A 1
CH:0513.02;lane2;positive;47.2564278;7.68702459;WANGEN A. A. (AB);BE;ZUERICH;A 1
CH:0513.01;lane1;positive;47.2563972;7.68702841;WANGEN A. A. (AB);BE;ZUERICH;A 1
CH:0542.01;lane1;positive;47.4354401;8.35290051;SPREITENBACH W (AB) - AG1446;AG;ZUERICH;A 1
CH:0353.01;lane1;positive;46.9264336;7.54858017;WORB W;BE;GROSSHOECHSTETTEN;H 10
CH:0542.02;lane2;positive;47.4354706;8.35293293;SPREITENBACH W (AB) - AG1446;AG;ZUERICH;A 1
CH:0324.03;lane2;negative;46.5485382;6.91512203;CHATEL-ST-DENIS N (AR);FR;VEVEY;A 12
CH:0324.04;lane1;negative;46.5485382;6.91507149;CHATEL-ST-DENIS N (AR);FR;VEVEY;A 12
CH:0542.03;lane3;positive;47.4354973;8.35296917;SPREITENBACH W (AB) - AG1446;AG;ZUERICH;A 1
CH:0286.01;emergencyLane;positive;47.4103279;8.61696148;WALLISELLEN (AB);ZH;WINTERTHUR;A 1
CH:0325.03;lane2;negative;46.8493614;7.17649031;DUEDINGEN S (AB);FR;FRIBOURG;A 12
CH:0325.04;lane1;negative;46.8493881;7.17646456;DUEDINGEN S (AB);FR;FRIBOURG;A 12
CH:0395.01;lane1;positive;46.45998;7.28191614;GSTAAD S;BE;GSTAAD;H 142
CH:0759.02;lane2;positive;47.3739166;8.69839096;NAENIKON;ZH;RUETI;A 15
CH:0326.03;lane2;negative;46.8891792;7.34094954;FLAMATT E (AB);FR;FRIBOURG;A 12
CH:0326.04;lane1;negative;46.8892059;7.34093571;FLAMATT E (AB);FR;FRIBOURG;A 12
CH:0759.01;lane1;positive;47.3738899;8.69837284;NAENIKON;ZH;RUETI;A 15
CH:0286.04;lane3;positive;47.4104195;8.61689472;WALLISELLEN (AB);ZH;WINTERTHUR;A 1
CH:0286.02;lane1;positive;47.4103584;8.61693382;WALLISELLEN (AB);ZH;WINTERTHUR;A 1
CH:0675.01;lane1;positive;46.9834938;6.90996122;NEUCHATEL-OUEST TUNNEL (AR);NE;BIENNE;A 5
CH:0675.02;lane2;positive;46.9835205;6.90990543;NEUCHATEL-OUEST TUNNEL (AR);NE;BIENNE;A 5
CH:0286.03;lane2;positive;47.4103889;8.61691093;WALLISELLEN (AB);ZH;WINTERTHUR;A 1
CH:0640.03;lane2;positive;47.530468;8.8142767;ANSCHLUSS ATTIKON (AB));ZH;ST.GALLEN;A 1
CH:0640.02;lane1;positive;47.5304413;8.81426239;ANSCHLUSS ATTIKON (AB));ZH;ST.GALLEN;A 1
CH:0330.01;lane1;;47.1928711;8.72137928;WOLLERAU ANSCHLUSS (AB);SZ;ZUERICH;A 3
CH:0330.02;lane1;;47.1923599;8.72179031;WOLLERAU ANSCHLUSS (AB);SZ;ZUERICH;A 3
CH:0330.03;lane1;;47.1927528;8.72262859;WOLLERAU ANSCHLUSS (AB);SZ;ZUERICH;A 3
CH:0330.04;lane1;;47.193119;8.72140217;WOLLERAU ANSCHLUSS (AB);SZ;ZUERICH;A 3
CH:0285.02;lane1;positive;46.9559479;7.41808462;BERN, FORSTHAUS (AB);BE;WANKDORF;A 1
CH:0285.03;lane2;positive;46.9559669;7.41805124;BERN, FORSTHAUS (AB);BE;WANKDORF;A 1
CH:0285.04;lane3;positive;46.9559898;7.41801786;BERN, FORSTHAUS (AB);BE;WANKDORF;A 1
CH:0331.04;lane2;negative;46.5019493;6.89692259;CHATEL ST. DENIS (AR);VD;VEVEY;A 12
CH:0331.05;lane1;negative;46.5019684;6.89688873;CHATEL ST. DENIS (AR);VD;VEVEY;A 12
CH:0332.01;lane1;;47.3282204;8.5311203;WOLLISHOFEN (AB) RI ZUERICH - ZH1214;ZH;ZUERICH;A 3
CH:0332.02;lane1;negative;47.327877;8.53050327;WOLLISHOFEN (AB) RI ZUERICH - ZH1214;ZH;ZUERICH;A 3
CH:0332.03;lane2;negative;47.3278656;8.53045559;WOLLISHOFEN (AB) RI ZUERICH - ZH1214;ZH;ZUERICH;A 3
CH:0332.04;lane1;;47.3291512;8.53142071;WOLLISHOFEN (AB) RI ZUERICH - ZH1214;ZH;ZUERICH;A 3
CH:0290.04;lane3;positive;47.3106728;7.90074921;OFTRINGEN / ROTHRIST (AB) - AG1412;AG;ZUERICH;A 1
CH:0290.02;lane1;positive;47.3106194;7.9006958;OFTRINGEN / ROTHRIST (AB) - AG1412;AG;ZUERICH;A 1
CH:0290.03;lane2;positive;47.3106537;7.90072346;OFTRINGEN / ROTHRIST (AB) - AG1412;AG;ZUERICH;A 1
CH:0288.01;lane1;positive;47.2717819;7.71597958;NIEDERBIPP (AB);BE;ZUERICH;A 1
CH:0288.02;lane2;positive;47.2717896;7.71592474;NIEDERBIPP (AB);BE;ZUERICH;A 1
CH:0286.05;lane3;negative;47.4104729;8.6168499;WALLISELLEN (AB);ZH;ZUERICH;A 1
CH:0325.01;lane1;positive;46.8492851;7.17656088;DUEDINGEN S (AB);FR;FLAMATT;A 12
CH:0325.02;lane2;positive;46.8493156;7.17653227;DUEDINGEN S (AB);FR;FLAMATT;A 12
CH:0027.02;lane1;positive;46.7153206;8.88231087;DISENTIS E;GR;DISENTIS            ;H 19
CH:0280.02;lane2;positive;47.3908806;8.14155006;SCHAFISHEIM (AB) -  AG1410;AG;ZUERICH;A 1
CH:0280.01;lane1;positive;47.3908424;8.14154625;SCHAFISHEIM (AB) -  AG1410;AG;ZUERICH;A 1
CH:0009.02;lane1;positive;46.770153;8.14411545;BRUENIG, LETZI;OW;INTERLAKEN          ;A 8
CH:0834.01;lane1;positive;47.1255722;7.26380825;LAENGHOLZTUNNEL;BE;SOLOTHURN;A 5
CH:0834.02;lane2;positive;47.1255989;7.26373196;LAENGHOLZTUNNEL;BE;SOLOTHURN;A 5
CH:0082.02;lane2;positive;47.4270706;9.21692944;GOSSAU (AB);SG;ST. GALLEN          ;A 1
CH:0082.01;lane1;positive;47.4270401;9.21689701;GOSSAU (AB);SG;ST. GALLEN          ;A 1
CH:0517.03;lane2;negative;47.4150848;9.27780247;GOSSAU, OBERBERG (AB);SG;GOSSAU;A 1
CH:0517.04;lane1;negative;47.4151077;9.27783871;GOSSAU, OBERBERG (AB);SG;GOSSAU;A 1
CH:0691.03;lane2;positive;47.0704079;7.2868185;LYSS;BE;SCHOENBUEHL;A 6
CH:0691.04;lane1;positive;47.0704041;7.28686571;LYSS;BE;SCHOENBUEHL;A 6
CH:0771.02;lane1;positive;47.4513512;7.59661961;TUNNEL EGGFLUE;BL;DELEMONT;A 18
CH:0145.02;lane1;positive;47.3394661;7.90893269;AARBURG N;AG;AARBURG             ;H 2
CH:0298.04;lane1;negative;47.4026527;8.2071352;OTHMARSINGEN (AB);AG;BERN;A 1
CH:0298.03;lane2;negative;47.4026337;8.20717907;OTHMARSINGEN (AB);AG;BERN;A 1
CH:0357.01;lane1;positive;46.8197823;7.3652873;SCHWARZENBURG E;BE;RIGGISBERG;H 183
CH:0503.02;lane1;positive;46.1495476;8.874897;MAGADINO;TI;DIRINELLA;H 405
CH:0303.03;lane2;negative;47.4570122;9.07380581;THURAU (AB);SG;WINTERTHUR;A 1
CH:0303.04;lane1;negative;47.4570465;9.07379246;THURAU (AB);SG;WINTERTHUR;A 1
CH:0837.03;lane3;positive;47.4086304;8.58644485;SCHWAMENDINGEN (AB);ZH;WINTERTHUR;A 1
CH:0837.04;lane4;positive;47.4086685;8.58646584;SCHWAMENDINGEN (AB);ZH;WINTERTHUR;A 1
CH:0837.01;lane1;positive;47.4085617;8.58642006;SCHWAMENDINGEN (AB);ZH;WINTERTHUR;A 1
CH:0837.02;lane2;positive;47.4085922;8.58643055;SCHWAMENDINGEN (AB);ZH;WINTERTHUR;A 1
CH:0229.03;lane2;negative;47.3161163;7.94427252;OFTRINGEN E (AB);AG;BERN;A 1
CH:0229.04;lane1;negative;47.3161469;7.94424963;OFTRINGEN E (AB);AG;BERN;A 1
CH:0288.03;lane2;negative;47.2718086;7.71584129;NIEDERBIPP (AB);BE;BERN;A 1
CH:0288.04;lane1;negative;47.2718201;7.71579266;NIEDERBIPP (AB);BE;BERN;A 1
CH:0066.02;lane1;positive;47.4054718;8.45944881;SCHLIEREN (AB);ZH;ZUERICH             ;A 1
CH:0066.03;lane2;positive;47.4054985;8.45946407;SCHLIEREN (AB);ZH;ZUERICH             ;A 1
CH:0066.04;lane3;positive;47.4055367;8.45948982;SCHLIEREN (AB);ZH;ZUERICH             ;A 1
CH:0303.01;lane1;positive;47.4569016;9.07379341;THURAU (AB);SG;ST.GALLEN;A 1
CH:0303.02;lane2;positive;47.4569321;9.07377911;THURAU (AB);SG;ST.GALLEN;A 1
CH:0114.05;lane3;negative;47.4234047;8.64305305;BRUETTISELLEN N (AB);ZH;ZUERICH             ;A 1
CH:0296.03;lane2;negative;47.0194283;8.29596424;HORW, SCHLUNDTUNNEL (AB);LU;LUZERN;A 2
CH:0114.06;lane2;negative;47.4234314;8.64304352;BRUETTISELLEN N (AB);ZH;ZUERICH             ;A 1
CH:0114.07;lane1;negative;47.4234619;8.64303207;BRUETTISELLEN N (AB);ZH;ZUERICH             ;A 1
CH:0296.04;lane2;positive;47.0186234;8.29667759;HORW, SCHLUNDTUNNEL (AB);LU;STANS;A 2
CH:0114.08;emergencyLane;negative;47.4234924;8.64302444;BRUETTISELLEN N (AB);ZH;ZUERICH             ;A 1
CH:0511.03;lane2;negative;46.5158424;6.50201178;MORGES CENTRE (AR);VD;GENF;A 1
CH:0511.04;lane1;negative;46.515873;6.50198889;MORGES CENTRE (AR);VD;GENF;A 1
CH:0342.06;lane1;negative;47.4228249;8.38879204;DIETIKON (AB) - AG1400;AG;Bern;A 1
CH:0342.04;lane3;negative;47.4227638;8.38877296;DIETIKON (AB) - AG1400;AG;Bern;A 1
CH:0342.05;lane2;negative;47.4227943;8.38878345;DIETIKON (AB) - AG1400;AG;Bern;A 1
CH:0284.01;lane1;positive;47.4618797;8.70912075;WINTERTHUR, KEMPTTHAL (AB);ZH;WINTERTHUR;A 1
CH:0284.02;lane2;positive;47.4618721;8.70907497;WINTERTHUR, KEMPTTHAL (AB);ZH;WINTERTHUR;A 1
CH:0284.03;lane3;positive;47.4618683;8.7090292;WINTERTHUR, KEMPTTHAL (AB);ZH;WINTERTHUR;A 1
CH:0513.03;lane2;negative;47.2564697;7.68671656;WANGEN A. A. (AB);BE;BERN;A 1
CH:0513.04;lane1;negative;47.2565041;7.68671083;WANGEN A. A. (AB);BE;BERN;A 1
CH:0344.01;lane1;;47.5325012;7.73656273;RHEINFELDEN (AB) - AG1423;AG;Basel;A 3
CH:0274.03;lane3;positive;47.4441223;8.34264469;WUERENLOS (AB) - AG1401;AG;ZUERICH;A 1
CH:0274.02;lane2;positive;47.4441109;8.34260082;WUERENLOS (AB) - AG1401;AG;ZUERICH;A 1
CH:0344.04;lane2;negative;47.5324669;7.73584414;RHEINFELDEN (AB) - AG1423;AG;Basel;A 3
CH:0344.05;lane1;negative;47.5324936;7.7358222;RHEINFELDEN (AB) - AG1423;AG;Basel;A 3
CH:0344.06;lane1;;47.532753;7.7363205;RHEINFELDEN (AB) - AG1423;AG;Basel;A 3
CH:0345.01;lane1;negative;47.5345573;7.74136591;RHEINFELDEN (AB) - AG1424;AG;VERZW A3/A1;A 3
CH:0345.02;lane2;negative;47.5345306;7.74139071;RHEINFELDEN (AB) - AG1424;AG;VERZW A3/A1;A 3
CH:0274.01;lane1;positive;47.4440956;8.34255695;WUERENLOS (AB) - AG1401;AG;ZUERICH;A 1
CH:0234.04;lane1;negative;46.760128;6.68530416;YVERDON, TUN. DE POMY (AR);VD;YVERDON;A 1
CH:0346.01;lane1;;47.5391884;7.75458145;RHEINFELDEN (AB) - AG1425;AG;BASEL;A 3
CH:0234.03;lane2;negative;46.7601013;6.68534136;YVERDON, TUN. DE POMY (AR);VD;YVERDON;A 1
CH:0577.04;lane2;positive;47.3497925;8.47028542;UETLIBERGTUNNEL MITTE (AB) - ZH1207;ZH;VERZW. ZUERICH SUED;A 3
CH:0346.04;lane2;negative;47.5399704;7.75662708;RHEINFELDEN (AB) - AG1425;AG;BASEL;A 3
CH:0346.05;lane1;negative;47.5400047;7.7566061;RHEINFELDEN (AB) - AG1425;AG;BASEL;A 3
CH:0346.06;lane1;;47.5400352;7.7565856;RHEINFELDEN (AB) - AG1425;AG;BASEL;A 3
CH:0347.01;lane1;;47.5412407;7.76310396;RHEINFELDEN (AB) - AG1426;AG;Basel;A 3
CH:0032.03;lane2;negative;47.2245293;7.61187029;DEITINGEN (AB);SO;BERN;A 1
CH:0577.05;lane1;positive;47.3497467;8.47028446;UETLIBERGTUNNEL MITTE (AB) - ZH1207;ZH;VERZW. ZUERICH SUED;A 3
CH:0347.04;lane2;negative;47.5416908;7.7641716;RHEINFELDEN (AB) - AG1426;AG;Basel;A 3
CH:0347.05;lane1;negative;47.5417213;7.7641592;RHEINFELDEN (AB) - AG1426;AG;Basel;A 3
CH:0347.06;lane1;;47.5417557;7.76413965;RHEINFELDEN (AB) - AG1426;AG;Basel;A 3
CH:0348.01;lane1;;47.5447845;7.80132627;RHEINFELDEN (AB) - AG1427;AG;BASEL;A 3
CH:0348.02;lane1;;47.5451584;7.80140686;RHEINFELDEN (AB) - AG1427;AG;BASEL;A 3
CH:0577.06;emergencyLane;positive;47.3497047;8.47028828;UETLIBERGTUNNEL MITTE (AB) - ZH1207;ZH;VERZW. ZUERICH SUED;A 3
CH:0032.04;lane1;negative;47.2245598;7.61184072;DEITINGEN (AB);SO;BERN;A 1
CH:0348.05;lane2;negative;47.5452576;7.80112123;RHEINFELDEN (AB) - AG1427;AG;BASEL;A 3
CH:0348.06;lane1;negative;47.5452919;7.80111504;RHEINFELDEN (AB) - AG1427;AG;BASEL;A 3
CH:0348.07;lane1;;47.5454712;7.80121374;RHEINFELDEN (AB) - AG1427;AG;BASEL;A 3
CH:0348.08;lane1;;47.5452309;7.80021238;RHEINFELDEN (AB) - AG1427;AG;BASEL;A 3
CH:0300.02;lane2;positive;46.477169;6.41126871;ETOY (AR);VD;LAUSANNE;A 1
CH:0300.01;lane1;positive;46.4771347;6.4112587;ETOY (AR);VD;LAUSANNE;A 1
CH:0349.03;lane2;negative;47.5462914;7.82531929;RHEINFELDEN (AB) - AG1420;AG;AUGST;A 3
CH:0349.04;lane1;negative;47.5463295;7.82530785;RHEINFELDEN (AB) - AG1420;AG;AUGST;A 3
CH:0073.01;lane1;positive;47.3120308;7.80759573;HAERKINGEN (AB);SO;ZUERICH             ;A 1
CH:0353.02;lane1;negative;46.9264526;7.54854822;WORB W;BE;GUEMLIGEN;H 10
CH:0354.01;lane1;negative;46.518856;7.31044197;SAANENMOESER;BE;ZWEISIMMEN;H 11
CH:0802.01;lane2;positive;47.0133553;7.0083847;MARIN OUEST (AB);NE;BIENNE;A 5
CH:0802.02;lane1;positive;47.0133286;7.00838423;MARIN OUEST (AB);NE;BIENNE;A 5
CH:0357.02;lane1;negative;46.8197899;7.36532497;SCHWARZENBURG E;BE;SCHWARZENBURG;H 183
CH:0359.01;lane1;negative;47.1235313;6.88628292;LA CIBOURG;BE;SONCEBOZ;H 18
CH:0829.01;lane1;positive;47.1485672;9.03923607;BILTEN (AB);GL;SARGANS;A 3
CH:0361.01;lane1;negative;47.0750732;7.58650017;KIRCHBERG S;BE;BURGDORF;H 23
CH:0829.02;lane2;positive;47.1485825;9.03926754;BILTEN (AB);GL;SARGANS;A 3
CH:0363.01;lane1;negative;47.2471008;7.7576685;AARWANGEN, SCHUERHOF;BE;NIEDERBIPP;H 244
CH:0269.01;lane1;positive;46.2808266;7.51766157;SIERRE W (AB);VS;BRIG;A 9
CH:0269.02;lane2;positive;46.2808495;7.51764202;SIERRE W (AB);VS;BRIG;A 9
CH:0364.02;lane1;negative;47.0379486;7.73880672;SUMISWALD, GAMMENTHAL;BE;RAMSEI;H 23
CH:0365.01;lane1;negative;47.1919136;7.13133955;CORGEMONT W;BE;SONCEBOZ;H 30
CH:0764.02;lane1;positive;47.2163277;8.61103725;HIRZEL;ZH;BAAR;H 338
CH:0073.02;lane2;positive;47.3120613;7.80758905;HAERKINGEN (AB);SO;ZUERICH             ;A 1
CH:0672.01;lane1;positive;46.9119492;6.79874706;GORGIER (AR);NE;NEUCHATEL;A 5
CH:0672.02;lane2;positive;46.9119492;6.79872417;GORGIER (AR);NE;NEUCHATEL;A 5
CH:0535.01;lane1;positive;46.5349884;6.67241859;LAUSANNE BELMONT (AR);VD;VEVEY;A 9
CH:0535.02;lane2;positive;46.5350189;6.67243671;LAUSANNE BELMONT (AR);VD;VEVEY;A 9
CH:0337.03;lane2;negative;47.4267273;8.23500824;BIRRHARD (AB) - AG1406;AG;BERN;A 1
CH:0337.04;lane1;negative;47.4267464;8.23496914;BIRRHARD (AB) - AG1406;AG;BERN;A 1
CH:0072.01;lane1;positive;47.3821526;8.11117363;HUNZENSCHWIL (AB);AG;ZUERICH;A 1
CH:0072.02;lane2;positive;47.382164;8.11114407;HUNZENSCHWIL (AB);AG;ZUERICH;A 1
CH:0639.01;lane1;positive;47.497921;8.69404984;WINTERTHUR TOESS (AB) - ZH105;ZH;ST.GALLEN;A 1
CH:0639.02;lane2;positive;47.4979057;8.69400692;WINTERTHUR TOESS (AB) - ZH105;ZH;ST.GALLEN;A 1
CH:0370.03;lane2;negative;46.4752083;6.81361437;CHEXBRES E (AR);VD;LAUSANNE;A 9
CH:0370.04;lane1;negative;46.4752388;6.81361437;CHEXBRES E (AR);VD;LAUSANNE;A 9
CH:0338.01;lane3;positive;47.4505386;8.25941563;BADEN-WEST (AB) - AG1442;AG;ZUERICH;A 1
CH:0373.02;lane1;negative;46.8934364;9.84456158;KLOSTERS, MEZZASELVA - GR241;GR;LANDQUART;A 28
CH:0374.01;lane1;;47.3286629;8.5282402;WOLLISHOFEN (AB) RI SARGANS - ZH1215;ZH;NOT USED;A 3
CH:0018.02;lane1;positive;46.7157288;8.20808792;MEIRINGEN E, LAMMI;BE;INNERTKIRCHEN       ;H 6
CH:0345.03;lane2;positive;47.5344543;7.74140644;RHEINFELDEN (AB) - AG1424;AG;BASEL;A 3
CH:0374.04;lane1;;47.3286476;8.5283308;WOLLISHOFEN (AB) RI SARGANS - ZH1215;ZH;NOT USED;A 3
CH:0376.01;lane1;;47.6159897;8.68516731;TRUELLIKON ANSCHLUSS S (AB);ZH;Schaffhausen;A 4
CH:0345.04;lane1;positive;47.5344238;7.74143267;RHEINFELDEN (AB) - AG1424;AG;BASEL;A 3
CH:0173.02;lane1;positive;46.9024696;6.46478558;LES VERRIERES;NE;NEUCHATEL           ;H 10
CH:0376.04;lane1;;47.6171417;8.68480968;TRUELLIKON ANSCHLUSS S (AB);ZH;Schaffhausen;A 4
CH:0377.01;lane1;;47.6199265;8.68297291;TRUELLIKON ANSCHLUSS N (AB);ZH;Schaffhausen;A 4
CH:0377.02;lane1;negative;47.619339;8.68333817;TRUELLIKON ANSCHLUSS N (AB);ZH;Schaffhausen;A 4
CH:0377.03;lane2;negative;47.6193504;8.68338871;TRUELLIKON ANSCHLUSS N (AB);ZH;Schaffhausen;A 4
CH:0377.04;lane1;;47.6190796;8.68341923;TRUELLIKON ANSCHLUSS N (AB);ZH;Schaffhausen;A 4
CH:0378.01;lane1;;47.6745644;8.6239996;UHWIESEN ANSCHLUSS (AB);ZH;Schaffhausen;A 4
CH:0378.02;lane1;negative;47.6732674;8.62296104;UHWIESEN ANSCHLUSS (AB);ZH;Schaffhausen;A 4
CH:0378.03;lane2;negative;47.6732559;8.62300873;UHWIESEN ANSCHLUSS (AB);ZH;Schaffhausen;A 4
CH:0378.04;lane1;;47.672657;8.62260151;UHWIESEN ANSCHLUSS (AB);ZH;Schaffhausen;A 4
CH:0170.01;lane1;positive;46.7253723;7.99854517;GIESSBACHTUNNEL (AB);BE;BRIENZ              ;A 8
CH:0378.06;lane1;;47.6719437;8.62265968;UHWIESEN ANSCHLUSS (AB);ZH;Schaffhausen;A 4
CH:0378.07;lane1;;47.6736412;8.62343121;UHWIESEN ANSCHLUSS (AB);ZH;Schaffhausen;A 4
CH:0379.01;lane1;;47.6008835;8.6917944;KLEINANDELFINGEN ANSCHLUSS 1 (AB);ZH;SCHAFFHAUSEN;A 4
CH:0549.02;lane1;positive;47.7933884;8.60306931;BARGEN N, ZOLL (AB);SH;SCHAFFHAUSEN;A 4
CH:0338.02;lane2;positive;47.4505692;8.25940037;BADEN-WEST (AB) - AG1442;AG;ZUERICH;A 1
CH:0380.01;lane1;;47.6045837;8.68873215;KLEINANDELFINGEN ANSCHLUSS 2 (AB);ZH;SCHAFFHAUSEN;A 4
CH:0380.02;lane1;negative;47.6040154;8.68930054;KLEINANDELFINGEN ANSCHLUSS 2 (AB);ZH;SCHAFFHAUSEN;A 4
CH:0380.03;lane2;negative;47.6040306;8.6893425;KLEINANDELFINGEN ANSCHLUSS 2 (AB);ZH;SCHAFFHAUSEN;A 4
CH:0380.04;lane1;;47.6028252;8.69031525;KLEINANDELFINGEN ANSCHLUSS 2 (AB);ZH;SCHAFFHAUSEN;A 4
CH:0380.05;lane1;;47.6044807;8.6892252;KLEINANDELFINGEN ANSCHLUSS 2 (AB);ZH;SCHAFFHAUSEN;A 4
CH:0383.01;lane1;;47.3496017;8.52334309;ZUERICH BRUNAU (AB) 1;ZH;ZUERICH;A 3
CH:0383.02;lane2;;47.3495483;8.52344418;ZUERICH BRUNAU (AB) 1;ZH;ZUERICH;A 3
CH:0338.03;lane1;positive;47.4505997;8.25938416;BADEN-WEST (AB) - AG1442;AG;ZUERICH;A 1
CH:0222.04;lane1;negative;46.8402748;6.92628002;PAYERNE N (AR);FR;YVERDON;A 1
CH:0383.05;lane2;negative;47.349453;8.52359676;ZUERICH BRUNAU (AB) 1;ZH;ZUERICH;A 3
CH:0383.06;lane1;negative;47.3494301;8.52362823;ZUERICH BRUNAU (AB) 1;ZH;ZUERICH;A 3
CH:0383.07;lane2;;47.3494034;8.52366638;ZUERICH BRUNAU (AB) 1;ZH;ZUERICH;A 3
CH:0383.08;lane1;;47.3493843;8.52370453;ZUERICH BRUNAU (AB) 1;ZH;ZUERICH;A 3
CH:0384.01;lane1;;47.3540955;8.52461052;ZUERICH BRUNAU (AB) 2;ZH;ZUERICH;A 3
CH:0307.04;lane1;positive;47.4163322;9.6473732;OBERFAHR (AB);SG;SARGANS;A 13
CH:0307.03;lane2;positive;47.4162903;9.64732933;OBERFAHR (AB);SG;SARGANS;A 13
CH:0391.01;lane1;negative;46.6516762;6.78880167;MOUDON S;VD;LAUSANNE;H 1
CH:0656.01;lane1;positive;46.8772392;8.70808601;SPIRINGEN - UR6301;UR;GLARUS;H 17
CH:0391.03;lane1;;46.6517067;6.7887001;MOUDON S;VD;LAUSANNE;H 1
CH:0392.01;lane1;negative;46.4181938;9.72605038;PLAUN DA  LEJ;GR;ST. MORITZ;H 3B
CH:0102.01;lane1;positive;47.5446053;7.78234196;RHEINFELDEN (AB);AG;RHEINFELDEN         ;A 3
CH:0393.01;lane1;negative;46.843544;8.20008469;SACHSELN, ZOLLHAUS;OW;LUZERN;A 8
CH:0393.02;lane2;negative;46.8438225;8.20078754;SACHSELN, ZOLLHAUS;OW;LUZERN;A 8
CH:0393.03;lane1;;46.843853;8.2007618;SACHSELN, ZOLLHAUS;OW;LUZERN;A 8
CH:0102.02;lane2;positive;47.5446396;7.78233099;RHEINFELDEN (AB);AG;RHEINFELDEN         ;A 3
CH:0271.04;lane1;positive;46.9365654;7.49132204;MURI BE N (AB);BE;THUN;A 6
CH:0393.06;lane1;;46.8433418;8.2001009;SACHSELN, ZOLLHAUS;OW;LUZERN;A 8
CH:0271.03;lane2;positive;46.9365311;7.4913125;MURI BE N (AB);BE;THUN;A 6
CH:0394.02;lane1;negative;47.0481606;9.06077671;GLARUS N;GL;GLARUS;H 17
CH:0222.03;lane2;negative;46.8402519;6.92631626;PAYERNE N (AR);FR;YVERDON;A 1
CH:0395.02;lane1;negative;46.4599876;7.28188372;GSTAAD S;BE;AIGLE;H 142
CH:0396.01;lane1;negative;46.6195374;7.68498898;REICHENBACH S;BE;SPIEZ;H 223
CH:0162.03;lane2;negative;46.9613037;7.25312328;MUEHLEBERG, SAANEVIAD. (AB);BE;KERZERS;A 1
CH:0673.02;lane2;positive;46.9287376;6.81976891;BEVAIX (AR);NE;NEUCHATEL;A 5
CH:0397.02;lane1;negative;46.6174355;7.13850069;CHARMEY;FR;BULLE;H 189
CH:0398.01;lane1;negative;46.4866943;7.20251274;ROUGEMONT W;VD;SAANEN;H 11
CH:0673.01;lane1;positive;46.9287186;6.81980753;BEVAIX (AR);NE;NEUCHATEL;A 5
CH:0002.01;lane1;positive;46.5750885;6.72462416;CHALET-A-GOBET;VD;BERN                ;H 1
CH:0399.02;lane1;negative;46.7829628;7.06362867;ROSE;FR;PAYERNE;H 181
CH:0501.01;lane1;negative;46.9688225;7.1230216;SUGIEZ, LE PEAGE N;FR;INS;H 10
CH:0016.01;lane1;positive;47.1020088;7.1760478;TWANN, WINGREIS (AR);BE;BIEL                ;A 5
CH:0190.01;lane1;positive;46.9585457;6.7260251;NOIRAIGUE, CLUSETTE;NE;NEUCHATEL           ;H 10
CH:0138.02;lane1;positive;46.2632256;10.1177244;BRUSIO N;GR;CAMPOCOLOGNO        ;H 29
CH:0502.03;lane2;negative;47.1273499;9.06914997;OBERURNEN, ZUBRINGER GLARNERLAND (AB);GL;NIEDERURNEN;A 17
CH:0502.04;lane1;negative;47.1273308;9.06907654;OBERURNEN, ZUBRINGER GLARNERLAND (AB);GL;NIEDERURNEN;A 17
CH:0503.01;lane1;negative;46.1495781;8.87488365;MAGADINO;TI;QUARTINO;H 405
CH:0190.02;lane2;positive;46.9585724;6.72601986;NOIRAIGUE, CLUSETTE;NE;NEUCHATEL           ;H 10
CH:0135.02;lane1;positive;47.5081444;9.40544128;ARBON, A1/ZUBRINGER TG;TG;MEGGENHUS           ;A 23
CH:0245.02;lane2;positive;47.0404053;9.43991661;SARGANS A3 (AB);SG;VERZW. A3/A13;A 3
CH:0245.01;lane1;positive;47.0403786;9.43988991;SARGANS A3 (AB);SG;VERZW. A3/A13;A 3
CH:0548.04;lane1;positive;47.3463249;7.28316021;DEVELIER (AR);JU;DELEMONT;A 16
CH:0162.04;lane1;negative;46.9613342;7.25313759;MUEHLEBERG, SAANEVIAD. (AB);BE;KERZERS;A 1
CH:0056.04;lane3;negative;47.0048065;7.49365807;SCHOENBUEHL, GRAUHOLZ (AB);BE;BERN;A 1
CH:0548.03;lane2;positive;47.3462982;7.28319502;DEVELIER (AR);JU;DELEMONT;A 16
CH:0056.05;lane2;negative;47.0048256;7.49362183;SCHOENBUEHL, GRAUHOLZ (AB);BE;BERN;A 1
CH:0056.06;lane1;negative;47.0048485;7.49358559;SCHOENBUEHL, GRAUHOLZ (AB);BE;BERN;A 1
CH:0506.02;lane1;negative;46.1714745;8.77140617;SOLDUNO N;TI;PONTE BROLLA;H 407
CH:0296.05;lane1;positive;47.0186348;8.29671764;HORW, SCHLUNDTUNNEL (AB);LU;STANS;A 2
CH:0296.06;lane1;;47.0190964;8.29653549;HORW, SCHLUNDTUNNEL (AB);LU;LUZERN;A 2
CH:0297.01;lane1;negative;47.5432281;7.6313529;BIRSFELDEN ZUBRINGER A2 - BL1101;BL;BIRSFELDEN;A 2
CH:0282.02;lane2;positive;47.4207153;9.33620358;ST. JOSEFEN, SITTERVIADUKT (AB);SG;ST. MARGRETHEN;A 1
CH:0394.01;lane1;positive;47.048172;9.06083107;GLARUS N;GL;NAEFELS;H 17
CH:0297.02;lane2;negative;47.5432205;7.63139439;BIRSFELDEN ZUBRINGER A2 - BL1101;BL;BIRSFELDEN;A 2
CH:0297.03;lane2;positive;47.5432091;7.63146114;BIRSFELDEN ZUBRINGER A2 - BL1101;BL;AUTOBAHN A2;A 2
CH:0297.04;lane1;positive;47.5432014;7.63150787;BIRSFELDEN ZUBRINGER A2 - BL1101;BL;AUTOBAHN A2;A 2
CH:0233.01;lane1;positive;47.378109;7.16749573;ST-URSANNE, TUN. TERRI (AR);JU;DELEMONT;A 16
CH:0282.03;lane3;positive;47.4207458;9.33618927;ST. JOSEFEN, SITTERVIADUKT (AB);SG;ST. MARGRETHEN;A 1
CH:0304.01;lane1;negative;47.1481094;8.17440319;EICH (AB);LU;SURSEE;A 2
CH:0282.01;lane1;positive;47.420681;9.33621693;ST. JOSEFEN, SITTERVIADUKT (AB);SG;ST. MARGRETHEN;A 1
CH:0505.02;lane2;positive;46.4140701;6.23372269;GLAND, DUILLIER (AR);VD;LAUSANNE;A 1
CH:0313.01;lane1;positive;46.2076645;7.27202749;ARDON (AR);VS;BRIG;A 9
CH:0313.02;lane2;positive;46.2076912;7.2720046;ARDON (AR);VS;BRIG;A 9
CH:0505.01;lane1;positive;46.4140396;6.23374653;GLAND, DUILLIER (AR);VD;LAUSANNE;A 1
CH:0333.04;lane1;negative;46.6648903;6.57122564;BAVOIS (AR);VD;LAUSANNE;A 1
CH:0333.03;lane2;negative;46.6648979;6.5712738;BAVOIS (AR);VD;LAUSANNE;A 1
CH:0206.02;lane2;positive;46.7493515;6.61035919;YVERDON, EPENDES (AR);VD;YVERDON             ;A 1
CH:0155.02;lane1;positive;46.5615578;8.35938358;GLETSCH N, GRIMSEL;VS;GLETSCH             ;H 6
CH:0064.03;lane3;positive;46.5456352;6.63155174;CONT. DE LAUSANNE (AR);VD;VEVEY;A 9
CH:0064.02;lane2;positive;46.54562;6.63151979;CONT. DE LAUSANNE (AR);VD;VEVEY;A 9
CH:0064.01;lane1;positive;46.5455971;6.63148642;CONT. DE LAUSANNE (AR);VD;VEVEY;A 9
CH:0206.01;lane1;positive;46.749321;6.61037588;YVERDON, EPENDES (AR);VD;YVERDON             ;A 1
CH:0118.05;lane4;negative;46.9690361;7.46038628;BERN, FELSENAUVIADUKT (AB);BE;WEYERMANNSHAUS;A 1
CH:0118.06;lane3;negative;46.9690628;7.4603796;BERN, FELSENAUVIADUKT (AB);BE;WEYERMANNSHAUS;A 1
CH:0118.07;lane2;negative;46.969101;7.46037102;BERN, FELSENAUVIADUKT (AB);BE;WEYERMANNSHAUS;A 1
CH:0118.08;lane1;negative;46.9691277;7.46036434;BERN, FELSENAUVIADUKT (AB);BE;WEYERMANNSHAUS;A 1
CH:0599.02;lane2;positive;47.4731598;9.58762264;BURIET, RUDERBACH (AB);SG;ST.MARGRETHEN;A1
CH:0599.01;lane1;positive;47.4731522;9.58756065;BURIET, RUDERBACH (AB);SG;ST.MARGRETHEN;A1
CH:0043.01;emergencyLane;positive;46.5295982;6.5413146;PREVERENGES (AR);VD;LAUSANNE            ;A 1
CH:0043.02;lane1;positive;46.5296211;6.54129362;PREVERENGES (AR);VD;LAUSANNE            ;A 1
CH:0043.03;lane2;positive;46.5296478;6.54127455;PREVERENGES (AR);VD;LAUSANNE            ;A 1
CH:0504.03;lane2;negative;46.3865433;6.20414209;NYON, CRASSIER (AR);VD;GENEVE;A 1
CH:0504.04;lane1;negative;46.3865509;6.20409536;NYON, CRASSIER (AR);VD;GENEVE;A 1
CH:0518.01;lane1;;47.3933449;8.49398518;ZUERICH HARDTURM (AB);ZH;LIMMATTALER KREUZ;A 1H
CH:0003.02;lane1;positive;46.1050606;8.69822979;BRISSAGO S;TI;ITALIEN             ;H 13
CH:0639.04;lane1;negative;47.49786;8.69385242;WINTERTHUR TOESS (AB) - ZH105;ZH;ZUERICH;A 1
CH:0518.04;lane2;negative;47.3936157;8.49396038;ZUERICH HARDTURM (AB);ZH;LIMMATTALER KREUZ;A 1H
CH:0518.05;lane1;negative;47.3936844;8.49397182;ZUERICH HARDTURM (AB);ZH;LIMMATTALER KREUZ;A 1H
CH:0518.06;lane1;;47.3937531;8.49398613;ZUERICH HARDTURM (AB);ZH;LIMMATTALER KREUZ;A 1H
CH:0521.01;lane1;negative;46.1073837;8.76375389;CAVIANO DOGANA DIRINELLA;TI;SVIZZERA;H 405
CH:0304.02;lane2;negative;47.14814;8.17442703;EICH (AB);LU;SURSEE;A 2
CH:0304.03;lane2;positive;47.1481895;8.17448044;EICH (AB);LU;SEMPACH;A 2
CH:0304.04;lane1;positive;47.1482162;8.17451;EICH (AB);LU;SEMPACH;A 2
CH:0507.01;lane1;;45.9881248;8.93075752;CIRCONVALLAZIONE DI LUGANO (AB);TI;BELLINZONA;A 2
CH:0761.01;lane1;positive;47.3101234;8.81027412;HINWIL N;ZH;RUETI;H 340
CH:0639.03;lane2;negative;47.4978752;8.69390392;WINTERTHUR TOESS (AB) - ZH105;ZH;ZUERICH;A 1
CH:0523.01;lane1;negative;46.8701019;7.54653311;MUENSINGEN (AB);BE;BERN;A 6
CH:0523.02;lane2;negative;46.8701172;7.54657698;MUENSINGEN (AB);BE;BERN;A 6
CH:0507.02;lane1;negative;45.9881516;8.93079281;CIRCONVALLAZIONE DI LUGANO (AB);TI;BELLINZONA;A 2
CH:0517.02;lane2;positive;47.4150429;9.27772427;GOSSAU, OBERBERG (AB);SG;ST. GALLEN;A 1
CH:0524.01;lane1;negative;46.5271873;8.92372704;OLIVONE - LUCOMAGNO;TI;DISENTIS;H 416
CH:0507.03;lane2;negative;45.9881706;8.93083286;CIRCONVALLAZIONE DI LUGANO (AB);TI;BELLINZONA;A 2
CH:0525.01;lane1;negative;46.1782532;8.84350491;TENERO;TI;BELLINZONA;A 13
CH:0525.02;lane1;;46.1782722;8.8437748;TENERO;TI;BELLINZONA;A 13
CH:0720.03;lane2;positive;47.0130615;8.62541771;SCHWYZ (AB);SZ;ALTDORF;A 4
CH:0525.04;lane1;;46.1781158;8.84345055;TENERO;TI;BELLINZONA;A 13
CH:0720.04;lane1;positive;47.0130577;8.62546635;SCHWYZ (AB);SZ;ALTDORF;A 4
CH:0526.02;lane1;negative;46.1772385;8.70099926;INTRAGNA-CENTOVALLI;TI;DOMODOSSOLA;H 560
CH:0527.01;lane1;negative;46.1962242;8.14206982;GONDO - VS40001;VS;SCHWEIZ;A 9
CH:0507.04;lane2;positive;45.987175;8.93205452;CIRCONVALLAZIONE DI LUGANO (AB);TI;GRANCIA;A 2
CH:0507.05;lane1;positive;45.9871902;8.93209457;CIRCONVALLAZIONE DI LUGANO (AB);TI;GRANCIA;A 2
CH:0507.06;lane1;;45.9872093;8.93214321;CIRCONVALLAZIONE DI LUGANO (AB);TI;BELLINZONA;A 2
CH:0323.02;lane2;positive;46.9034462;7.08941936;MURTEN (AB);FR;KERZERS;A 1
CH:0517.01;lane1;positive;47.4150162;9.27768326;GOSSAU, OBERBERG (AB);SG;ST. GALLEN;A 1
CH:0508.01;lane1;negative;45.8931046;8.97589874;MENDRISIO N (AS);TI;AIROLO;A 2
CH:0508.02;lane2;negative;45.8931084;8.97594738;MENDRISIO N (AS);TI;AIROLO;A 2
CH:0508.03;lane2;positive;45.8931084;8.97605324;MENDRISIO N (AS);TI;CHIASSO;A 2
CH:0323.01;lane1;positive;46.9033966;7.08939838;MURTEN (AB);FR;KERZERS;A 1
CH:0339.04;lane3;negative;47.4571991;8.27608776;BADEN-WEST (AB) - AG1573;AG;Bern;A 1
CH:0530.01;lane1;negative;46.894062;8.62063599;VERZWEIGUNG ALTDORF (AB);UR;FLUEELEN;A 4
CH:0530.02;lane1;negative;46.8940392;8.62065601;VERZWEIGUNG ALTDORF (AB);UR;FLUEELEN;A 4
CH:0339.05;lane2;negative;47.4572296;8.27606773;BADEN-WEST (AB) - AG1573;AG;Bern;A 1
CH:0600.05;lane1;positive;47.4352951;9.6423769;AU, LEHNENVIADUKT (AB);SG;SARGANS;A 13
CH:0600.04;lane2;positive;47.4353027;9.64230919;AU, LEHNENVIADUKT (AB);SG;SARGANS;A 13
CH:0237.01;lane1;positive;47.1762352;7.42506742;GRENCHEN (AB);SO;SOLOTHURN;A 5
CH:0237.02;lane2;positive;47.1762657;7.42505884;GRENCHEN (AB);SO;SOLOTHURN;A 5
CH:0534.04;lane3;negative;46.5631065;6.57731962;LAUSANNE BLECHERETTE (AR);VD;VERZW. A1/A9;A 9
CH:0534.05;lane2;negative;46.5631332;6.5773344;LAUSANNE BLECHERETTE (AR);VD;VERZW. A1/A9;A 9
CH:0534.06;lane1;negative;46.5631599;6.57734823;LAUSANNE BLECHERETTE (AR);VD;VERZW. A1/A9;A 9
CH:0852.01;lane1;positive;46.1151695;7.09865665;ECHANGEUR GD.ST.BERNARD EST (AR);VS;SION;A 9
CH:0852.02;lane2;positive;46.1151962;7.09862518;ECHANGEUR GD.ST.BERNARD EST (AR);VS;SION;A 9
CH:0535.03;lane2;negative;46.53508;6.67250013;LAUSANNE BELMONT (AR);VD;GENEVE;A 9
CH:0535.04;lane1;negative;46.5351067;6.67251825;LAUSANNE BELMONT (AR);VD;GENEVE;A 9
CH:0852.03;lane3;positive;46.1152306;7.09860849;ECHANGEUR GD.ST.BERNARD EST (AR);VS;SION;A 9
CH:0858.01;lane2;positive;46.7631836;7.5937748;THUN, ALLMENDTUNNEL N (AB);BE;0;A 6
CH:0536.03;lane2;negative;46.515152;6.69851685;LAUSANNE LA CROIX (AR);VD;GENF;A 9
CH:0536.04;lane1;negative;46.5151787;6.69855022;LAUSANNE LA CROIX (AR);VD;GENF;A 9
CH:0537.01;lane1;;46.4757195;6.86152029;VEVEY (AR);VD;LAUSANNE / BERN;A 9
CH:0537.02;lane2;;46.4751205;6.86125851;VEVEY (AR);VD;LAUSANNE / BERN;A 9
CH:0858.02;lane1;positive;46.7631798;7.59386301;THUN, ALLMENDTUNNEL N (AB);BE;0;A 6
CH:0053.01;lane1;positive;47.1268883;9.10201359;WEESEN, KERENZERBERG (AB);GL;SARGANS;A 3
CH:0537.05;lane3;negative;46.4753151;6.86133242;VEVEY (AR);VD;LAUSANNE / BERN;A 9
CH:0537.06;lane2;negative;46.4753418;6.86136007;VEVEY (AR);VD;LAUSANNE / BERN;A 9
CH:0537.07;lane1;negative;46.4754105;6.86142635;VEVEY (AR);VD;LAUSANNE / BERN;A 9
CH:0537.08;lane1;;46.4744644;6.86332417;VEVEY (AR);VD;LAUSANNE / BERN;A 9
CH:0053.02;lane2;positive;47.1269188;9.10201454;WEESEN, KERENZERBERG (AB);GL;SARGANS;A 3
CH:0141.02;lane1;positive;47.5457878;9.18854618;SULGEN E;TG;WEINFELDEN          ;H 14
CH:0538.03;lane2;negative;46.4574051;6.88471556;MONTREUX (AR);VD;LAUSANNE;A 9
CH:0538.04;lane1;negative;46.4574394;6.88472128;MONTREUX (AR);VD;LAUSANNE;A 9
CH:0539.01;lane1;negative;46.5384293;9.23321438;HINTERRHEIN (AB) TUNNEL CASSANAWALD;GR;CHUR;A 13
CH:0331.01;lane1;positive;46.5018883;6.89707088;CHATEL ST. DENIS (AR);VD;FRIBOURG;A 12
CH:0331.02;lane2;positive;46.5019035;6.89704704;CHATEL ST. DENIS (AR);VD;FRIBOURG;A 12
CH:0540.02;lane1;negative;47.2758598;7.51817131;WELSCHENROHR W;SO;GAENSBRUNNEN;H 30
CH:0541.01;lane1;negative;47.1495132;8.42770767;GISIKON (AB);ZG;VERZW. A4/A14;A 14
CH:0541.02;lane2;negative;47.1494865;8.42776108;GISIKON (AB);ZG;VERZW. A4/A14;A 14
CH:0331.03;lane3;positive;46.5019188;6.89702368;CHATEL ST. DENIS (AR);VD;FRIBOURG;A 12
CH:0218.01;lane1;positive;47.0412788;7.03057528;CRESSIER (AR);NE;BIENNE;A 5
CH:0218.02;lane2;positive;47.0412941;7.03053188;CRESSIER (AR);NE;BIENNE;A 5
CH:0576.06;lane1;positive;47.3468246;8.46308517;UETLIBERG, UETLIBERGTUNNEL W (AB) - ZH1206;ZH;VERZW. ZUERICH SUED;A 3
CH:0576.05;lane2;positive;47.3468437;8.46300888;UETLIBERG, UETLIBERGTUNNEL W (AB) - ZH1206;ZH;VERZW. ZUERICH SUED;A 3
CH:0344.02;lane1;positive;47.5323143;7.73584032;RHEINFELDEN (AB) - AG1423;AG;Verzw. A3/A1;A 3
CH:0344.03;lane2;positive;47.5323448;7.73581696;RHEINFELDEN (AB) - AG1423;AG;Verzw. A3/A1;A 3
CH:0339.06;lane1;negative;47.4572639;8.27604675;BADEN-WEST (AB) - AG1573;AG;Bern;A 1
CH:0182.01;lane1;positive;47.0935745;7.5733757;KIRCHBERG N (AB);BE;ZUERICH             ;A 1
CH:0182.02;lane2;positive;47.0935783;7.57332611;KIRCHBERG N (AB);BE;ZUERICH             ;A 1
CH:0149.01;emergencyLane;positive;46.5705109;6.5575099;MEX (AR);VD;YVERDON             ;A 1
CH:0576.04;lane3;positive;47.3468704;8.46294308;UETLIBERG, UETLIBERGTUNNEL W (AB) - ZH1206;ZH;VERZW. ZUERICH SUED;A 3
CH:0098.02;lane1;positive;46.3334732;9.53079796;CASTASEGNA;GR;CHIAVENNA           ;H 3
CH:0169.01;lane1;positive;46.800106;9.90037727;FLUELA, TSCHUGGEN;GR;SUSCH               ;H 28
CH:0591.02;lane1;positive;46.8808556;8.64368248;ALTDORF, SCHMIEDGASSE - UR6018;UR;SCHATTDORF;H 2
CH:0149.02;lane1;positive;46.570507;6.55747223;MEX (AR);VD;YVERDON             ;A 1
CH:0149.03;lane2;positive;46.5705032;6.55742979;MEX (AR);VD;YVERDON             ;A 1
CH:0505.03;lane2;negative;46.4141388;6.23366928;GLAND, DUILLIER (AR);VD;GENF;A 1
CH:0505.04;lane1;negative;46.4141655;6.23364592;GLAND, DUILLIER (AR);VD;GENF;A 1
CH:0208.01;lane1;positive;47.4471245;8.24886227;BIRRHARD, VERZW. A1  (AB);AG;ZUERICH;A 1
CH:0208.02;lane2;positive;47.4471512;8.24882698;BIRRHARD, VERZW. A1  (AB);AG;ZUERICH;A 1
CH:0249.02;lane2;positive;46.317215;6.145751;COPPET W (AR);VD;LAUSANNE;A 1
CH:0547.01;lane1;;46.1620941;8.77353668;ASCONA GALLERIA;TI;ASCONA/LOCARNO;A 13
CH:0547.02;lane1;negative;46.1620064;8.77349186;ASCONA GALLERIA;TI;ASCONA/LOCARNO;A 13
CH:0249.01;lane1;positive;46.3171997;6.14579296;COPPET W (AR);VD;LAUSANNE;A 1
CH:0547.04;lane1;;46.1618767;8.77343178;ASCONA GALLERIA;TI;ASCONA/LOCARNO;A 13
CH:0548.01;lane1;negative;47.3462219;7.28327799;DEVELIER (AR);JU;PORRENTRUY;A 16
CH:0548.02;lane2;negative;47.3462486;7.28324604;DEVELIER (AR);JU;PORRENTRUY;A 16
CH:0506.01;lane1;positive;46.1714516;8.77139473;SOLDUNO N;TI;LOCARNO;H 407
CH:0508.04;lane1;positive;45.8931084;8.97610378;MENDRISIO N (AS);TI;CHIASSO;A 2
CH:0549.01;lane1;negative;47.793293;8.60273075;BARGEN N, ZOLL (AB);SH;DEUTSCHLAND;A 4
CH:0508.05;lane1;;45.8929939;8.97627163;MENDRISIO N (AS);TI;AIROLO;A 2
CH:0550.01;lane1;negative;47.4908485;7.77210045;#N/A;#N/A;#N/A;#N/A
CH:0550.02;lane2;negative;47.4908638;7.77214098;#N/A;#N/A;#N/A;#N/A
CH:0550.03;lane3;negative;47.4908791;7.77218103;#N/A;#N/A;#N/A;#N/A
CH:0551.01;lane1;negative;47.4897079;7.77317429;#N/A;#N/A;#N/A;#N/A
CH:0551.02;lane2;negative;47.4897232;7.77321196;#N/A;#N/A;#N/A;#N/A
CH:0552.01;lane1;negative;47.4887009;7.77439451;#N/A;#N/A;#N/A;#N/A
CH:0552.02;lane2;negative;47.4887199;7.77443695;#N/A;#N/A;#N/A;#N/A
CH:0554.01;lane1;negative;47.4849243;7.77732944;#N/A;#N/A;#N/A;#N/A
CH:0554.02;lane2;negative;47.4849434;7.77745056;#N/A;#N/A;#N/A;#N/A
CH:0555.01;lane1;negative;47.4835739;7.77760124;#N/A;#N/A;#N/A;#N/A
CH:0555.02;lane2;negative;47.4835739;7.77771616;#N/A;#N/A;#N/A;#N/A
CH:0556.01;lane1;negative;47.4819756;7.77763557;#N/A;#N/A;#N/A;#N/A
CH:0556.02;lane2;negative;47.4819832;7.77775669;#N/A;#N/A;#N/A;#N/A
CH:0558.01;lane1;negative;47.4750862;7.78141737;#N/A;#N/A;#N/A;#N/A
CH:0558.02;lane2;negative;47.4751091;7.78145742;#N/A;#N/A;#N/A;#N/A
CH:0559.01;lane1;negative;47.474411;7.78265572;#N/A;#N/A;#N/A;#N/A
CH:0559.02;lane2;negative;47.4744415;7.78268576;#N/A;#N/A;#N/A;#N/A
CH:0560.01;lane1;;47.3733559;8.42062092;ANSCHLUSS URDORF S 2 - ZH1101;ZH;VERZW A1/A1C;A 4
CH:0560.02;lane1;;47.3733177;8.42096233;ANSCHLUSS URDORF S 2 - ZH1101;ZH;VERZW A1/A1C;A 4
CH:0561.01;lane1;;47.3715897;8.42026043;ANSCHLUSS URDORF S 1 - ZH1102;ZH;0;A 4
CH:0561.02;lane1;;47.3723679;8.41979027;ANSCHLUSS URDORF S 1 - ZH1102;ZH;0;A 4
CH:0562.01;emergencyLane;negative;47.3551903;8.42203045;BIRMENSDORF, HAFNERBERGTUNNEL (AB) - ZH1104;ZH;URDORF;A 4
CH:0562.02;lane1;negative;47.3551903;8.42198753;BIRMENSDORF, HAFNERBERGTUNNEL (AB) - ZH1104;ZH;URDORF;A 4
CH:0562.03;lane2;negative;47.3551865;8.42194176;BIRMENSDORF, HAFNERBERGTUNNEL (AB) - ZH1104;ZH;URDORF;A 4
CH:0198.02;lane2;positive;47.4660721;9.4804678;GOLDACH S (AB);SG;ST. MARGRETHEN;A 1
CH:0198.01;lane1;positive;47.4660378;9.48044109;GOLDACH S (AB);SG;ST. MARGRETHEN;A 1
CH:0117.06;lane1;positive;47.1735077;8.43221283;HUENENBERG S (AB);ZG;HOLZHAEUSERN / LUZERN;A 4
CH:0563.01;lane1;;47.3478317;8.42538357;ANSCHLUSS BIRMENSDORF 1 EIN-AUSFAHRT (AB) -ZH1105;ZH;VERZW. A1/A3;A 4
CH:0563.02;lane2;;47.348156;8.42526817;ANSCHLUSS BIRMENSDORF 1 EIN-AUSFAHRT (AB) -ZH1105;ZH;VERZW. A1/A3;A 4
CH:0563.03;lane1;;47.3481598;8.42521954;ANSCHLUSS BIRMENSDORF 1 EIN-AUSFAHRT (AB) -ZH1105;ZH;VERZW. A1/A3;A 4
CH:0564.01;lane1;;47.3477287;8.42822075;ANSCHLUSS BIRMENSDORF 2 EIN-AUSFAHRT (AB) - ZH1106;ZH;URDORF;A 4
CH:0564.02;lane2;;47.3474159;8.42931557;ANSCHLUSS BIRMENSDORF 2 EIN-AUSFAHRT (AB) - ZH1106;ZH;URDORF;A 4
CH:0564.03;lane1;;47.3474159;8.42935467;ANSCHLUSS BIRMENSDORF 2 EIN-AUSFAHRT (AB) - ZH1106;ZH;URDORF;A 4
CH:0565.01;emergencyLane;negative;47.3406143;8.44342995;AESCHERTUNNEL (AB) - ZH1201;ZH;BIRMENSDORF;A 3
CH:0565.02;lane1;negative;47.3405418;8.44342899;AESCHERTUNNEL (AB) - ZH1201;ZH;BIRMENSDORF;A 3
CH:0565.03;lane2;negative;47.3404617;8.4434433;AESCHERTUNNEL (AB) - ZH1201;ZH;BIRMENSDORF;A 3
CH:0117.05;lane2;positive;47.1735115;8.43217468;HUENENBERG S (AB);ZG;HOLZHAEUSERN / LUZERN;A 4
CH:0117.04;lane3;positive;47.1735115;8.43213081;HUENENBERG S (AB);ZG;HOLZHAEUSERN / LUZERN;A 4
CH:0676.01;lane1;positive;47.0044327;6.96377087;HAUTERIVE (AR);NE;BIENNE;A 5
CH:0566.01;lane2;negative;47.3426781;8.45784092;DREIECK ZUERICH-WEST 1 (AB) - ZH1202;ZH;LUZERN/CHUR;A 4
CH:0566.02;lane1;negative;47.3427086;8.45782185;DREIECK ZUERICH-WEST 1 (AB) - ZH1202;ZH;LUZERN/CHUR;A 4
CH:0566.03;lane2;negative;47.3427238;8.45872879;DREIECK ZUERICH-WEST 1 (AB) - ZH1202;ZH;LUZERN/CHUR;A 4
CH:0566.04;lane1;negative;47.3427429;8.45868397;DREIECK ZUERICH-WEST 1 (AB) - ZH1202;ZH;LUZERN/CHUR;A 4
CH:0676.02;lane2;positive;47.0044861;6.96373463;HAUTERIVE (AR);NE;BIENNE;A 5
CH:0227.01;lane1;positive;46.6483917;10.2661772;OFENPASS, BUFFALORA;GR;STA. MARIA;H 28
CH:0566.07;emergencyLane;negative;47.341156;8.45750427;DREIECK ZUERICH-WEST 1 (AB) - ZH1202;ZH;LUZERN/CHUR;A 4
CH:0566.08;lane1;negative;47.3411331;8.45746517;DREIECK ZUERICH-WEST 1 (AB) - ZH1202;ZH;LUZERN/CHUR;A 4
CH:0572.04;lane1;positive;47.3191872;8.44591808;ISLISBERGTUNNEL MITTE (AB) - ZH2102;ZH;LUZERN / SCHWYZ;A 4
CH:0572.03;lane2;positive;47.3192368;8.4457798;ISLISBERGTUNNEL MITTE (AB) - ZH2102;ZH;LUZERN / SCHWYZ;A 4
CH:0197.02;lane1;positive;46.9321785;8.39255524;DALLENWIL;NW;ENGELBERG           ;H 374
CH:0516.04;lane1;negative;47.5303116;8.77272511;ANSCHLUSS OBERWINTERTHUR 1 (AB);ZH;ZUERICH;A 1
CH:0567.05;lane1;;47.340744;8.45855713;DREIECK ZUERICH-WEST 2 (AB) - ZH1203;ZH;LUZERN / BASEL;A 4
CH:0567.06;lane1;;47.3427925;8.45760918;DREIECK ZUERICH-WEST 2 (AB) - ZH1203;ZH;LUZERN / BASEL;A 4
CH:0568.01;lane1;;47.3390999;8.45884418;DREIECK ZUERICH WEST 3 (AB) - ZH1204;ZH;KNONAU;A 4
CH:0568.02;lane1;;47.3379593;8.4586525;DREIECK ZUERICH WEST 3 (AB) - ZH1204;ZH;KNONAU;A 4
CH:0569.01;lane1;;47.3355179;8.4603014;DREIECK ZUERICH-WEST 4 (AB) - ZH1205;ZH;0;A 4
CH:0569.02;lane2;;47.3355484;8.46105862;DREIECK ZUERICH-WEST 4 (AB) - ZH1205;ZH;0;A 4
CH:0569.03;lane1;;47.3355675;8.46110153;DREIECK ZUERICH-WEST 4 (AB) - ZH1205;ZH;0;A 4
CH:0516.03;lane2;negative;47.5302811;8.77274513;ANSCHLUSS OBERWINTERTHUR 1 (AB);ZH;ZUERICH;A 1
CH:0522.01;lane1;negative;47.3409233;7.83337688;BELCHEN S (AB);SO;AUGST;A 2
CH:0522.02;lane2;negative;47.3409081;7.83342934;BELCHEN S (AB);SO;AUGST;A 2
CH:0570.04;lane2;negative;47.3942299;8.41757393;URDORF N (AB) - ZH1302;ZH;VERZW A1/A1C;A 3
CH:0570.05;lane1;negative;47.394207;8.41760826;URDORF N (AB) - ZH1302;ZH;VERZW A1/A1C;A 3
CH:0570.06;emergencyLane;negative;47.3941879;8.41765404;URDORF N (AB) - ZH1302;ZH;VERZW A1/A1C;A 3
CH:0570.07;lane1;;47.3937645;8.41720581;URDORF N (AB) - ZH1302;ZH;VERZW A1/A1C;A 3
CH:0571.01;lane1;negative;47.3340721;8.45892811;ISLISBERG, ISLISBERGTUNNEL N (AB) - ZH2101;ZH;VERZW ZUERICH WEST;A 4
CH:0571.02;lane2;negative;47.3340607;8.45898628;ISLISBERG, ISLISBERGTUNNEL N (AB) - ZH2101;ZH;VERZW ZUERICH WEST;A 4
CH:0054.01;lane1;positive;47.319725;8.53432751;ADLISWIL (AB);ZH;SARGANS             ;A 3
CH:0054.02;lane2;positive;47.3197403;8.53437233;ADLISWIL (AB);ZH;SARGANS             ;A 3
CH:0572.01;lane1;negative;47.3193512;8.44543743;ISLISBERGTUNNEL MITTE (AB) - ZH2102;ZH;VERZW ZUERICH WEST;A 4
CH:0572.02;lane2;negative;47.3192863;8.44557953;ISLISBERGTUNNEL MITTE (AB) - ZH2102;ZH;VERZW ZUERICH WEST;A 4
CH:0068.01;lane1;positive;46.2538948;6.13966513;COLOVREX-LAC (AR);GE;LAUSANNE            ;A 1
CH:0068.02;lane2;positive;46.2538719;6.13961315;COLOVREX-LAC (AR);GE;LAUSANNE            ;A 1
CH:0573.01;lane1;negative;47.2966499;8.4285183;ISLISBERG, ISLISBERGTUNNEL S (AB) - ZH2103;ZH;VERZW. ZUERICH WEST;A 4
CH:0573.02;lane2;negative;47.2966309;8.42858791;ISLISBERG, ISLISBERGTUNNEL S (AB) - ZH2103;ZH;VERZW. ZUERICH WEST;A 4
CH:0068.03;lane1;positive;46.2537117;6.13915873;COLOVREX-LAC (AR);GE;LAUSANNE            ;A 1
CH:0075.01;lane1;positive;46.904213;7.70726013;BOWIL, BORI;BE;LANGNAU             ;H 10
CH:0573.03;lane2;positive;47.2965469;8.42879868;ISLISBERG, ISLISBERGTUNNEL S (AB) - ZH2103;ZH;LUZERN;A 4
CH:0573.04;lane1;positive;47.2965279;8.4288559;ISLISBERG, ISLISBERGTUNNEL S (AB) - ZH2103;ZH;LUZERN;A 4
CH:0574.03;lane1;;47.2698898;8.43921185;ANSCHLUSS AFFOLTERN A.A 2 (AB) - ZH2104;ZH;VERZW. ZUERICH WEST;A 4
CH:0574.04;lane1;;47.2726746;8.43796539;ANSCHLUSS AFFOLTERN A.A 2 (AB) - ZH2104;ZH;VERZW. ZUERICH WEST;A 4
CH:0575.01;lane1;negative;47.2725296;8.43762875;ANSCHLUSS AFFOLTERN  A.A1(AB) - ZH2105;ZH;NOT USED;A 4
CH:0575.02;lane2;negative;47.272541;8.43767452;ANSCHLUSS AFFOLTERN  A.A1(AB) - ZH2105;ZH;NOT USED;A 4
CH:0575.03;lane1;;47.2724228;8.43729305;ANSCHLUSS AFFOLTERN  A.A1(AB) - ZH2105;ZH;NOT USED;A 4
CH:0575.04;lane1;;47.2704506;8.43822289;ANSCHLUSS AFFOLTERN  A.A1(AB) - ZH2105;ZH;NOT USED;A 4
CH:0576.01;lane1;negative;47.346962;8.46244621;UETLIBERG, UETLIBERGTUNNEL W (AB) - ZH1206;ZH;VERZW. ZUERICH WEST;A 3
CH:0576.02;lane2;negative;47.3469391;8.46248627;UETLIBERG, UETLIBERGTUNNEL W (AB) - ZH1206;ZH;VERZW. ZUERICH WEST;A 3
CH:0576.03;lane3;negative;47.3469048;8.46256161;UETLIBERG, UETLIBERGTUNNEL W (AB) - ZH1206;ZH;VERZW. ZUERICH WEST;A 3
CH:0612.01;lane1;positive;47.4707642;8.19215298;BRUGG W, UNTERFUEHRUNG - AG1533;AG;BRUGG;H 5
CH:0827.03;lane2;positive;47.1903839;9.4853363;BUCHS (AB);SG;SARGANS;A 13
CH:0827.04;lane1;positive;47.1903725;9.48538208;BUCHS (AB);SG;SARGANS;A 13
CH:0577.01;emergencyLane;negative;47.3500786;8.47027779;UETLIBERGTUNNEL MITTE (AB) - ZH1207;ZH;VERZW. ZUERICH WEST;A 3
CH:0577.02;lane1;negative;47.3500214;8.47027111;UETLIBERGTUNNEL MITTE (AB) - ZH1207;ZH;VERZW. ZUERICH WEST;A 3
CH:0577.03;lane2;negative;47.349968;8.47027016;UETLIBERGTUNNEL MITTE (AB) - ZH1207;ZH;VERZW. ZUERICH WEST;A 3
CH:0040.02;lane1;positive;46.9527626;8.27787113;ALPNACHSTAD (AB);OW;BRUENIG             ;A 8
CH:0133.01;lane1;positive;46.788559;10.2703848;SCHULS W;GR;MARTINA             ;H 27
CH:0522.03;lane3;positive;47.3409271;7.8335309;BELCHEN S (AB);SO;HAERKINGEN;A 2
CH:0578.01;emergencyLane;negative;47.3443718;8.51403332;UETLIBERGTUNNEL E (AB) - ZH1208;ZH;VERZW. ZUERICH WEST;A 3
CH:0578.02;lane1;negative;47.3443336;8.51403522;UETLIBERGTUNNEL E (AB) - ZH1208;ZH;VERZW. ZUERICH WEST;A 3
CH:0578.03;lane2;negative;47.3442993;8.51403809;UETLIBERGTUNNEL E (AB) - ZH1208;ZH;VERZW. ZUERICH WEST;A 3
CH:0522.04;lane2;positive;47.3409119;7.83357763;BELCHEN S (AB);SO;HAERKINGEN;A 2
CH:0017.02;lane2;positive;47.3878136;8.10109901;BUCHS AG (AB);AG;HUNZENSCHWIL        ;A 1R
CH:0017.01;lane1;positive;47.3877869;8.10109997;BUCHS AG (AB);AG;HUNZENSCHWIL        ;A 1R
CH:0604.03;lane2;positive;47.1491623;9.49848938;SEVELEN, RASTPLATZ  (AB);SG;SARGANS;A 13
CH:0604.04;lane1;positive;47.1491661;9.4985342;SEVELEN, RASTPLATZ  (AB);SG;SARGANS;A 13
CH:0579.03;lane2;negative;47.341053;8.52209282;DREIECK ZUERICH-SUED S (AB) - ZH1209;ZH;ZUERICH/BASEL;A 3
CH:0579.04;lane1;negative;47.3410645;8.52214336;DREIECK ZUERICH-SUED S (AB) - ZH1209;ZH;ZUERICH/BASEL;A 3
CH:0789.01;lane1;positive;47.5620995;9.12668991;WEINFELDEN;TG;BUERGLEN;H 14
CH:0122.01;lane1;positive;47.5541039;8.83946323;FRAUENFELD W, KEFIKON (AB);TG;FRAUENFELD;A 7
CH:0122.02;lane2;positive;47.5541344;8.83945942;FRAUENFELD W, KEFIKON (AB);TG;FRAUENFELD;A 7
CH:0068.04;lane2;positive;46.253685;6.13912153;COLOVREX-LAC (AR);GE;LAUSANNE            ;A 1
CH:0580.05;lane4;negative;47.3468895;8.52007008;DREIECK ZUERICH-SUED N (AB) - ZH1210;ZH;ZUERICH;A 3
CH:0580.06;lane3;negative;47.3468666;8.52011585;DREIECK ZUERICH-SUED N (AB) - ZH1210;ZH;ZUERICH;A 3
CH:0580.07;lane2;negative;47.346817;8.52021027;DREIECK ZUERICH-SUED N (AB) - ZH1210;ZH;ZUERICH;A 3
CH:0580.08;lane1;negative;47.3467979;8.52025032;DREIECK ZUERICH-SUED N (AB) - ZH1210;ZH;ZUERICH;A 3
CH:0243.01;lane1;positive;47.4463577;9.41972733;ST. GALLEN E, BERGBACHVIADUKT (AB);SG;GOLDACH;A 1
CH:0243.02;lane2;positive;47.4463692;9.41968155;ST. GALLEN E, BERGBACHVIADUKT (AB);SG;GOLDACH;A 1
CH:0043.04;lane2;negative;46.5297241;6.5412612;PREVERENGES (AR);VD;MORGES              ;A 1
CH:0581.04;lane3;negative;47.3349533;8.52428246;WOLLISHOFEN, ENTLISBERG (AB ) - ZH1213;ZH;ZUERICH;A 3
CH:0581.05;lane2;negative;47.3349648;8.52433491;WOLLISHOFEN, ENTLISBERG (AB ) - ZH1213;ZH;ZUERICH;A 3
CH:0581.06;lane1;negative;47.3349762;8.5243988;WOLLISHOFEN, ENTLISBERG (AB ) - ZH1213;ZH;ZUERICH;A 3
CH:0582.01;lane1;negative;46.6357307;8.59560966;ANDERMATT, OBERALPSTRASSE - UR9004;UR;GOESCHENEN;H 19
CH:0302.03;lane2;positive;47.484272;9.44199085;ARBON, A1/ZUBRINGER SG;SG;MEGGENHUS;A 23
CH:0586.01;lane1;;47.3934135;8.41641235;URDORF N 2 (AB) - ZH1303;ZH;VERZ A1/A3;A 3
CH:0586.02;lane2;;47.3934822;8.4164629;URDORF N 2 (AB) - ZH1303;ZH;VERZ A1/A3;A 3
CH:0586.03;lane1;;47.3937645;8.41720486;URDORF N 2 (AB) - ZH1303;ZH;VERZ A1/A3;A 3
CH:0586.04;lane1;;47.3950958;8.41862869;URDORF N 2 (AB) - ZH1303;ZH;VERZ A1/A3;A 3
CH:0587.01;lane1;;47.6557617;9.15958977;KREUZLINGEN, HAUPTZOLLAMT;TG;FRAUENFELD / KREUZLINGEN;A 7
CH:0302.04;lane1;positive;47.4842873;9.44203472;ARBON, A1/ZUBRINGER SG;SG;MEGGENHUS;A 23
CH:0522.05;lane1;positive;47.3409004;7.83362675;BELCHEN S (AB);SO;HAERKINGEN;A 2
CH:0587.04;lane2;negative;47.6559639;9.1594305;KREUZLINGEN, HAUPTZOLLAMT;TG;FRAUENFELD / KREUZLINGEN;A 7
CH:0587.05;lane1;negative;47.6559677;9.15938663;KREUZLINGEN, HAUPTZOLLAMT;TG;FRAUENFELD / KREUZLINGEN;A 7
CH:0587.06;lane1;;47.6565666;9.15966511;KREUZLINGEN, HAUPTZOLLAMT;TG;FRAUENFELD / KREUZLINGEN;A 7
CH:0588.01;lane1;negative;47.2185059;8.962286;SCHMERIKON (AB);SG;RAPPERSWIL;A 15
CH:0588.02;lane2;negative;47.2185059;8.96234417;SCHMERIKON (AB);SG;RAPPERSWIL;A 15
CH:0528.01;lane1;negative;46.7300987;8.62681007;GURTNELLEN (AB);UR;ERSTFELD;A 2
CH:0776.01;lane1;positive;47.3614693;9.29438972;WALDSTATT;AR;HERISAU;H 8
CH:0043.05;lane1;negative;46.5297508;6.54123783;PREVERENGES (AR);VD;MORGES              ;A 1
CH:0043.06;emergencyLane;negative;46.5297775;6.5412178;PREVERENGES (AR);VD;MORGES              ;A 1
CH:0295.01;lane1;positive;47.5185242;8.01322079;OESCHGEN (AB);AG;BIRRFELD;A 3
CH:0590.01;emergencyLane;negative;47.3472786;8.42831039;ANSCHLUSS BIRMENSDORF 2 (AB) - ZH1108;ZH;URDORF;A 3
CH:0590.02;lane1;negative;47.3472595;8.42826748;ANSCHLUSS BIRMENSDORF 2 (AB) - ZH1108;ZH;URDORF;A 3
CH:0590.03;lane2;negative;47.3472481;8.42823315;ANSCHLUSS BIRMENSDORF 2 (AB) - ZH1108;ZH;URDORF;A 3
CH:0591.01;lane1;negative;46.8808594;8.64363289;ALTDORF, SCHMIEDGASSE - UR6018;UR;FLUEELEN;H 2
CH:0295.02;lane2;positive;47.5185471;8.01325512;OESCHGEN (AB);AG;BIRRFELD;A 3
CH:0528.02;lane2;negative;46.7300797;8.62683964;GURTNELLEN (AB);UR;ERSTFELD;A 2
CH:0528.03;lane2;positive;46.7300415;8.62689304;GURTNELLEN (AB);UR;GOESCHENEN;A 2
CH:0119.02;lane1;positive;46.6612091;7.55763435;ERLENBACH I.S.;BE;ZWEISIMMEN          ;H 11
CH:0631.02;lane1;positive;46.8249512;9.54016495;MALIX N  - GR213;GR;TIEFENCASTEL;H 3A
CH:0598.01;lane1;negative;47.4708557;9.44267654;MEGGENHUS, VERZWEIGUNG (AB);SG;STEINELOO;A 23
CH:0598.02;lane2;negative;47.4708519;9.44273186;MEGGENHUS, VERZWEIGUNG (AB);SG;STEINELOO;A 23
CH:0598.03;lane1;negative;47.47089;9.44279003;MEGGENHUS, VERZWEIGUNG (AB);SG;STEINELOO;A 23
CH:0598.04;lane2;negative;47.4708939;9.44283009;MEGGENHUS, VERZWEIGUNG (AB);SG;STEINELOO;A 23
CH:0603.01;lane1;positive;47.1146736;9.33354473;WALENSTADT, TSCHERLACH (AB);SG;SARGANS;A 3
CH:0603.02;lane2;positive;47.1147003;9.33356476;WALENSTADT, TSCHERLACH (AB);SG;SARGANS;A 3
CH:0598.07;lane1;;47.4713364;9.44326878;MEGGENHUS, VERZWEIGUNG (AB);SG;STEINELOO;A 23
CH:0528.04;lane1;positive;46.7300224;8.62692451;GURTNELLEN (AB);UR;GOESCHENEN;A 2
CH:0529.01;lane1;;46.6899452;8.59494591;WASSEN (AB);UR;ERSTFELD;A 2
CH:0599.03;lane2;negative;47.4732513;9.58764362;BURIET, RUDERBACH (AB);SG;WINTERTHUR;A1
CH:0599.04;lane1;negative;47.473259;9.58767796;BURIET, RUDERBACH (AB);SG;WINTERTHUR;A1
CH:0600.01;emergencyLane;negative;47.4353065;9.64214993;AU, LEHNENVIADUKT (AB);SG;ST. MARGRETHEN;A 13
CH:0600.02;lane1;negative;47.4353142;9.64218616;AU, LEHNENVIADUKT (AB);SG;ST. MARGRETHEN;A 13
CH:0600.03;lane2;negative;47.4353027;9.6422472;AU, LEHNENVIADUKT (AB);SG;ST. MARGRETHEN;A 13
CH:0529.02;lane1;negative;46.6899414;8.59498787;WASSEN (AB);UR;ERSTFELD;A 2
CH:0364.01;lane1;positive;47.0379486;7.73884487;SUMISWALD, GAMMENTHAL;BE;HUTTWIL;H 23
CH:0024.03;lane2;negative;46.4440231;6.29301405;ROLLE (AR);VD;GENEVE;A 1
CH:0024.04;lane1;negative;46.4440536;6.29299116;ROLLE (AR);VD;GENEVE;A 1
CH:0329.01;lane1;positive;46.9425468;7.15356207;MURTEN, LOEWENBERG (AB);FR;KERZERS;A 1
CH:0329.02;lane2;positive;46.9425697;7.15352964;MURTEN, LOEWENBERG (AB);FR;KERZERS;A 1
CH:0206.03;lane2;negative;46.749424;6.61032391;YVERDON, EPENDES (AR);VD;ORBE                ;A 1
CH:0206.04;lane1;negative;46.7494545;6.61030579;YVERDON, EPENDES (AR);VD;ORBE                ;A 1
CH:0249.03;lane2;negative;46.3172493;6.14564848;COPPET W (AR);VD;GENEVE;A 1
CH:0249.04;lane1;negative;46.3172607;6.14560366;COPPET W (AR);VD;GENEVE;A 1
CH:0235.01;lane1;positive;47.1614876;7.29626036;PIETERLEN W (AB);BE;SOLOTHURN;A 5
CH:0235.02;lane2;positive;47.1615181;7.29624462;PIETERLEN W (AB);BE;SOLOTHURN;A 5
CH:0603.03;lane2;negative;47.1144333;9.33468151;WALENSTADT, TSCHERLACH (AB);SG;ZUERICH;A 3
CH:0603.04;lane1;negative;47.1144638;9.33470917;WALENSTADT, TSCHERLACH (AB);SG;ZUERICH;A 3
CH:0604.01;lane1;negative;47.1491318;9.49832058;SEVELEN, RASTPLATZ  (AB);SG;ST.MARGRETHEN;A 13
CH:0604.02;lane2;negative;47.1491432;9.49837017;SEVELEN, RASTPLATZ  (AB);SG;ST.MARGRETHEN;A 13
CH:0529.03;lane2;negative;46.6899376;8.59502411;WASSEN (AB);UR;ERSTFELD;A 2
CH:0529.04;lane2;positive;46.6899338;8.59509659;WASSEN (AB);UR;GOESCHENEN;A 2
CH:0605.01;lane1;;47.4084778;9.30775166;ST.GALLEN, ANSCHL. BREITFELD;SG;A1 ST.MARGRETHEN / WINTERTHUR;A1
CH:0605.02;lane1;;47.4084473;9.307827;ST.GALLEN, ANSCHL. BREITFELD;SG;A1 ST.MARGRETHEN / WINTERTHUR;A1
CH:0605.03;lane2;;47.408432;9.30785656;ST.GALLEN, ANSCHL. BREITFELD;SG;A1 ST.MARGRETHEN / WINTERTHUR;A1
CH:0605.04;lane2;;47.4083748;9.30787277;ST.GALLEN, ANSCHL. BREITFELD;SG;A1 ST.MARGRETHEN / WINTERTHUR;A1
CH:0605.05;lane1;negative;47.4092445;9.30901337;ST.GALLEN, ANSCHL. BREITFELD;SG;A1 ST.MARGRETHEN / WINTERTHUR;A1
CH:0067.01;lane1;positive;46.3392487;8.02162743;NATERS, BITSCH;VS;FIESCH              ;H 19
CH:0605.07;lane2;;47.4082298;9.30806923;ST.GALLEN, ANSCHL. BREITFELD;SG;A1 ST.MARGRETHEN / WINTERTHUR;A1
CH:0605.08;lane1;;47.4082146;9.30810928;ST.GALLEN, ANSCHL. BREITFELD;SG;A1 ST.MARGRETHEN / WINTERTHUR;A1
CH:0217.01;lane1;positive;47.4712486;9.00621414;MUENCHWILEN E (AB);TG;WIL;A 1
CH:0217.02;lane2;positive;47.471283;9.00621223;MUENCHWILEN E (AB);TG;WIL;A 1
CH:0607.03;lane2;negative;47.2851601;8.55674458;THALWIL ( AB) - ZH104;ZH;ZUERICH;A 3
CH:0607.04;lane1;negative;47.285183;8.55678558;THALWIL ( AB) - ZH104;ZH;ZUERICH;A 3
CH:0336.02;lane1;positive;47.3215561;7.9656868;WALTERSWIL (AB) - AG1413;AG;ZUERICH;A 1
CH:0608.02;lane1;negative;46.3768501;7.08000755;COL DES MOSSES;VD;AIGLE;H 11
CH:0610.04;lane1;positive;46.8570709;9.50725365;CHUR, OBERE AU (AB) - GR253;GR;BELLINZONA;A 13
CH:0609.02;lane1;negative;47.3790932;8.21835804;HENDSCHIKEN;AG;SINS;H 25
CH:0610.01;lane1;negative;46.8570824;9.50706577;CHUR, OBERE AU (AB) - GR253;GR;SARGANS;A 13
CH:0610.02;lane2;negative;46.8570786;9.50711346;CHUR, OBERE AU (AB) - GR253;GR;SARGANS;A 13
CH:0610.03;lane2;positive;46.8570709;9.50721455;CHUR, OBERE AU (AB) - GR253;GR;BELLINZONA;A 13
CH:0687.02;lane1;positive;46.875927;8.64935398;ALTDORF, GOTTHARDSTRASSE - UR6014;UR;SCHATTDORF;H 2
CH:0611.01;lane1;negative;46.78339;9.41539478;ROTHENBRUNNEN, TUNNEL ISLA BELLA (AB) - GR305;GR;CHUR;A 13
CH:0336.01;lane2;positive;47.3215866;7.96567059;WALTERSWIL (AB) - AG1413;AG;ZUERICH;A 1
CH:0529.05;lane1;positive;46.68993;8.59514046;WASSEN (AB);UR;GOESCHENEN;A 2
CH:0612.02;lane1;negative;47.4708023;8.19210625;BRUGG W, UNTERFUEHRUNG - AG1533;AG;AARAU;H 5
CH:0593.01;lane1;negative;47.208252;8.01473045;UFFIKON (AB);LU;OFTRINGEN;A 2
CH:0509.01;lane1;positive;46.4682274;6.34413862;ROLLE N (AR);VD;LAUSANNE;A 1
CH:0509.02;lane2;positive;46.4682579;6.34412432;ROLLE N (AR);VD;LAUSANNE;A 1
CH:0593.02;lane2;negative;47.2082825;8.01473045;UFFIKON (AB);LU;OFTRINGEN;A 2
CH:0593.03;lane2;positive;47.2083511;8.0147295;UFFIKON (AB);LU;LUZERN;A 2
CH:0593.04;lane1;positive;47.2083893;8.01471519;UFFIKON (AB);LU;LUZERN;A 2
CH:0613.01;lane1;;46.9723969;8.44115734;ANSCHLUSS BUOCHS RI LUZERN (AB);NW;LUZERN;A 2
CH:0613.02;lane1;positive;46.9722252;8.44118786;ANSCHLUSS BUOCHS RI LUZERN (AB);NW;ALTDORF;A 2
CH:0613.03;lane2;positive;46.972187;8.44114304;ANSCHLUSS BUOCHS RI LUZERN (AB);NW;ALTDORF;A 2
CH:0613.04;lane1;;46.9725075;8.4400692;ANSCHLUSS BUOCHS RI LUZERN (AB);NW;LUZERN;A 2
CH:0614.01;lane1;;46.9719582;8.44011688;ANSCHLUSS BUOCHS RI ALTDORF (AB);NW;LUZERN;A 2
CH:0614.02;lane1;negative;46.9721336;8.44056416;ANSCHLUSS BUOCHS RI ALTDORF (AB);NW;LUZERN;A 2
CH:0614.03;lane2;negative;46.972168;8.4405756;ANSCHLUSS BUOCHS RI ALTDORF (AB);NW;LUZERN;A 2
CH:0082.04;lane1;negative;47.4270782;9.21714973;GOSSAU (AB);SG;WINTERTHUR          ;A 1
CH:0614.04;lane1;;46.9718666;8.44089794;ANSCHLUSS BUOCHS RI ALTDORF (AB);NW;LUZERN;A 2
CH:0615.01;lane1;;46.9669456;8.35313797;ANSCHLUSS STANS NORD RI ALTDORF (AB);NW;LUZERN;A 2
CH:0617.01;lane1;negative;46.6295509;7.04499578;CONT.BULLE;FR; A1 ANSCHLUSS BULLE;H 189
CH:0615.02;lane1;negative;46.9669609;8.35348797;ANSCHLUSS STANS NORD RI ALTDORF (AB);NW;LUZERN;A 2
CH:0618.01;lane1;;47.2014389;8.46184444;BLEGI N (AB);ZG;ZUERICH;A 4
CH:0618.02;lane1;negative;47.2013283;8.46221066;BLEGI N (AB);ZG;ZUERICH;A 4
CH:0618.03;lane2;negative;47.2012939;8.46224499;BLEGI N (AB);ZG;ZUERICH;A 4
CH:0769.02;lane1;positive;47.7224503;8.66835976;HERBLINGEN;SH;SCHAFFHAUSEN;A 4
CH:0615.03;lane2;negative;46.9669991;8.35350227;ANSCHLUSS STANS NORD RI ALTDORF (AB);NW;LUZERN;A 2
CH:0618.06;lane1;;47.201046;8.46253586;BLEGI N (AB);ZG;ZUERICH;A 4
CH:0619.01;lane1;negative;47.1987953;8.45815659;BLEGI S (AB);ZG;AFFOLTERN A.A / Zug;A 4
CH:0619.02;lane2;negative;47.1987762;8.45821381;BLEGI S (AB);ZG;AFFOLTERN A.A / Zug;A 4
CH:0615.04;lane1;;46.9667473;8.35429192;ANSCHLUSS STANS NORD RI ALTDORF (AB);NW;LUZERN;A 2
CH:0359.02;lane1;positive;47.1235237;6.88633108;LA CIBOURG;BE;LA CHAUX-DE-FONDS;H 18
CH:0619.05;lane1;;47.1988564;8.45952606;BLEGI S (AB);ZG;AFFOLTERN A.A / Zug;A 4
CH:0625.01;lane1;negative;47.1896591;8.49851513;STEINHAUSEN E (AB);ZG;SIHLBRUGG;A 14
CH:0625.02;lane2;negative;47.189621;8.49853706;STEINHAUSEN E (AB);ZG;SIHLBRUGG;A 14
CH:0392.02;lane1;positive;46.4181671;9.72607708;PLAUN DA  LEJ;GR;CHIAVENNA;H 3B
CH:0082.03;lane2;negative;47.4270439;9.2171402;GOSSAU (AB);SG;WINTERTHUR          ;A 1
CH:0618.04;lane2;positive;47.2012482;8.46230793;BLEGI N (AB);ZG;VERZW. BLEGI / ZUG;A 4
CH:0627.02;lane1;negative;46.5185661;8.5612278;FONTANA, VALLE BEDRETTO - TI0917;TI;NUFENENPASS;H 413
CH:0323.03;lane2;negative;46.9035263;7.08940029;MURTEN (AB);FR;PAYERNE;A 1
CH:0628.02;lane1;negative;46.0913734;7.05489206;MARTIGNY-CROIX W, FORCLAZ - VS00134021;VS;FORCLAZ;H 203
CH:0618.05;lane1;positive;47.2012253;8.46234894;BLEGI N (AB);ZG;VERZW. BLEGI / ZUG;A 4
CH:0630.02;lane1;negative;46.8397369;9.58749485;CALFREISEN - GR211;GR;CHUR;H 566
CH:0631.01;lane1;negative;46.8249626;9.54013824;MALIX N  - GR213;GR;CHUR;H 3A
CH:0079.01;lane1;positive;47.1616669;7.66607189;SEEBERG N;BE;HERZOGENBUCHSEE     ;H 1
CH:0323.04;lane1;negative;46.9035759;7.08943319;MURTEN (AB);FR;PAYERNE;A 1
CH:0632.02;lane1;negative;46.8404083;9.86387062;DAVOS N, LARET - GR0237;GR;LANDQUART;H 28
CH:0162.02;lane2;positive;46.9612694;7.25293493;MUEHLEBERG, SAANEVIAD. (AB);BE;BERN;A 1
CH:0633.02;lane1;negative;46.7019081;9.72563553;WIESEN E - GR0239;GR;TIEFENCASTEL;H 417
CH:0634.01;lane1;negative;46.4142914;10.0373182;BERNINA, BARACON - GR0248;GR;SAMEDAN;H 29
CH:0616.01;lane1;;46.9667549;8.3574543;ANSCHLUSS STANS NORD RI LUZERN (AB);NW;LUZERN;A 2
CH:0635.01;lane1;negative;46.6814423;8.81194496;TAVETSCH, CRESTAS-TUNNEL -  GR0306;GR;REICHENAU;H 19
CH:0616.02;lane1;positive;46.9666977;8.35662842;ANSCHLUSS STANS NORD RI LUZERN (AB);NW;ALTDORF;A 2
CH:0616.03;lane2;positive;46.9666672;8.35663223;ANSCHLUSS STANS NORD RI LUZERN (AB);NW;ALTDORF;A 2
CH:0636.02;lane1;negative;46.711235;10.0852623;ZERNEZ N, PRASCHITSCH - GR336;GR;SILVAPLANA;H 27
CH:0162.01;lane1;positive;46.9612427;7.25292158;MUEHLEBERG, SAANEVIAD. (AB);BE;BERN;A 1
CH:0234.01;lane1;positive;46.7599792;6.68550444;YVERDON, TUN. DE POMY (AR);VD;PAYERNE;A 1
CH:0234.02;lane2;positive;46.7599983;6.6854744;YVERDON, TUN. DE POMY (AR);VD;PAYERNE;A 1
CH:0222.01;lane1;positive;46.8401833;6.92643881;PAYERNE N (AR);FR;AVENCHES;A 1
CH:0222.02;lane2;positive;46.8402061;6.92639828;PAYERNE N (AR);FR;AVENCHES;A 1
CH:0066.01;lane1;;47.4054146;8.45942307;SCHLIEREN (AB);ZH;BERN                ;A 1
CH:0093.06;lane1;;47.5178413;8.69487572;UMF. WINTERTHUR (AB);ZH;WUELFLINGEN;A 1
CH:0097.01;lane1;;47.4566727;8.30726719;BADEN, BAREGGTUNNEL (AB);AG;BERN                ;A 1
CH:0280.05;lane1;;47.3910027;8.14183521;SCHAFISHEIM (AB) -  AG1410;AG;BERN;A 1
CH:0281.01;lane1;;47.5231285;8.71366215;OHRINGEN ANSCHLUSS 1 (AB);ZH;ZUERICH;A 1
CH:0647.01;lane1;;46.7802315;7.09046793;ANSCHLUSS MATRAN S;FR;VEVEY;A 12
CH:0281.02;lane1;;47.5229225;8.71492577;OHRINGEN ANSCHLUSS 1 (AB);ZH;ZUERICH;A 1
CH:0285.01;lane1;;46.9559059;7.41815138;BERN, FORSTHAUS (AB);BE;VERWZ. A1/A12;A 1
CH:0647.04;lane1;;46.7803345;7.08991385;ANSCHLUSS MATRAN S;FR;VEVEY;A 12
CH:0648.01;lane1;;46.7840042;7.09072304;ANSCHLUSS MATRAN N;FR;VEVEY;A 12
CH:0648.02;lane2;negative;46.7836113;7.0902729;ANSCHLUSS MATRAN N;FR;VEVEY;A 12
CH:0648.03;lane1;negative;46.7836266;7.09024382;ANSCHLUSS MATRAN N;FR;VEVEY;A 12
CH:0648.04;lane1;;46.7842941;7.09042263;ANSCHLUSS MATRAN N;FR;VEVEY;A 12
CH:0247.01;lane1;positive;46.8446007;6.68677855;ONNENS VD (AR);VD;NEUCHATEL;A 5
CH:0247.02;lane2;positive;46.8446198;6.68674755;ONNENS VD (AR);VD;NEUCHATEL;A 5
CH:0649.03;lane2;negative;46.6697273;7.07512856;SORENS (AR);FR;VEVEY;A 12
CH:0649.04;lane1;negative;46.6697273;7.07508135;SORENS (AR);FR;VEVEY;A 12
CH:0609.01;lane1;positive;47.3791122;8.21839237;HENDSCHIKEN;AG;LENZBURG;H 25
CH:0656.02;lane1;negative;46.8772736;8.70813084;SPIRINGEN - UR6301;UR;ALTDORF;H 17
CH:0044.02;lane1;positive;46.4645805;9.18584728;SAN BERNARDINO (TUNNEL);GR;BELLINZONA          ;A 13
CH:0347.02;lane1;positive;47.5413513;7.76305485;RHEINFELDEN (AB) - AG1426;AG;Verzw. A3/A1;A 3
CH:0658.03;lane2;negative;46.2190247;7.33906555;CONTHEY (AR);VS;MARTIGNY;A 9
CH:0658.04;lane1;negative;46.2190475;7.33904123;CONTHEY (AR);VS;MARTIGNY;A 9
CH:0668.01;lane1;negative;46.2469864;6.93685389;MONTHEY - VS164002;VS;MONTHEY;H 201
CH:0347.03;lane2;positive;47.5413818;7.7630434;RHEINFELDEN (AB) - AG1426;AG;Verzw. A3/A1;A 3
CH:0163.03;lane2;positive;47.028389;7.46908903;MUENCHENBUCHSEE N (AB);BE;SCHOENBUEHL;A 6
CH:0163.04;lane1;positive;47.0284195;7.4691124;MUENCHENBUCHSEE N (AB);BE;SCHOENBUEHL;A 6
CH:0671.03;lane2;negative;46.8792305;6.75979805;VAUMARCUS (AR);NE;YVERDON;A 5
CH:0671.04;lane1;negative;46.8792343;6.75975084;VAUMARCUS (AR);NE;YVERDON;A 5
CH:0022.03;lane2;positive;47.3674164;9.62208176;KRIESSERN (AB);SG;SARGANS;A 13
CH:0022.04;lane1;positive;47.367382;9.62212467;KRIESSERN (AB);SG;SARGANS;A 13
CH:0672.03;lane2;negative;46.9119568;6.79868174;GORGIER (AR);NE;YVERDON;A 5
CH:0672.04;lane1;negative;46.9119606;6.7986536;GORGIER (AR);NE;YVERDON;A 5
CH:0207.03;lane2;positive;46.7876854;7.59939194;HEIMBERG (AB);BE;THUN                ;A 6
CH:0627.01;lane1;positive;46.518528;8.5612545;FONTANA, VALLE BEDRETTO - TI0917;TI;AIROLO;H 413
CH:0673.03;lane2;negative;46.9287758;6.81970024;BEVAIX (AR);NE;YVERDON;A 5
CH:0673.04;lane1;negative;46.9288025;6.81963158;BEVAIX (AR);NE;YVERDON;A 5
CH:0207.04;lane1;positive;46.7877045;7.5994401;HEIMBERG (AB);BE;THUN                ;A 6
CH:0290.01;lane1;;47.310585;7.90067577;OFTRINGEN / ROTHRIST (AB) - AG1412;AG;BERN;A 1
CH:0674.03;lane2;negative;46.9466858;6.83692265;BOUDRY (AR);NE;YVERDON;A 5
CH:0674.04;lane1;negative;46.9467125;6.83689976;BOUDRY (AR);NE;YVERDON;A 5
CH:0334.01;lane1;;47.5234451;8.71895599;OHRINGEN ANSCHLUSS 2 (AB);ZH;ZUERICH;A 1
CH:0501.02;lane1;positive;46.9688301;7.12306452;SUGIEZ, LE PEAGE N;FR;MURTEN / BERN;H 10
CH:0675.03;lane2;negative;46.9835472;6.90982485;NEUCHATEL-OUEST TUNNEL (AR);NE;YVERDON;A 5
CH:0675.04;lane1;negative;46.9835625;6.90976572;NEUCHATEL-OUEST TUNNEL (AR);NE;YVERDON;A 5
CH:0260.01;lane1;positive;46.5931778;8.46073341;FURKAPASS, TIEFENBACH;UR;REALP;H 19
CH:0757.02;lane1;positive;46.3310661;7.75699615;MITTALTUNNEL;VS;GAMPEL;H 509
CH:0676.03;lane2;negative;47.0045586;6.96369791;HAUTERIVE (AR);NE;YVERDON;A 5
CH:0676.04;lane1;negative;47.0046158;6.96367025;HAUTERIVE (AR);NE;YVERDON;A 5
CH:0677.01;lane1;negative;47.0082283;6.90151787;VALANGIN;NE;LA CHAUX-DE-FONDS;A 20
CH:0677.02;lane2;negative;47.0082169;6.90154314;VALANGIN;NE;LA CHAUX-DE-FONDS;A 20
CH:0582.02;lane1;positive;46.635746;8.59565735;ANDERMATT, OBERALPSTRASSE - UR9004;UR;ANDERMATT;H 19
CH:0228.03;lane2;positive;46.9269905;9.56203651;ZIZERS (AB);GR;CHUR;A 13
CH:0616.04;lane1;;46.9668541;8.35636234;ANSCHLUSS STANS NORD RI LUZERN (AB);NW;LUZERN;A 2
CH:0678.01;lane1;;47.0834274;8.27382278;ANSCHL. EMMEN NORD;LU;VERZW. A1/A2;A 2
CH:0678.02;lane1;negative;47.0836525;8.27282619;ANSCHL. EMMEN NORD;LU;VERZW. A1/A2;A 2
CH:0228.04;lane1;positive;46.9269943;9.5620985;ZIZERS (AB);GR;CHUR;A 13
CH:0370.01;lane1;positive;46.4750671;6.81361389;CHEXBRES E (AR);VD;VEVEY;A 9
CH:0370.02;lane2;positive;46.4751015;6.81361294;CHEXBRES E (AR);VD;VEVEY;A 9
CH:0678.03;lane2;negative;47.0836792;8.27282715;ANSCHL. EMMEN NORD;LU;VERZW. A1/A2;A 2
CH:0678.04;lane3;positive;47.083744;8.27288723;ANSCHL. EMMEN NORD;LU;LUZERN;A 2
CH:0361.02;lane1;positive;47.0750465;7.58648014;KIRCHBERG S;BE;KIRCHBERG;H 23
CH:0685.02;lane1;negative;46.8748207;8.65288448;ALTDORF, KLAUSENSTRASSE - UR6017;UR;ALTDORF;H 17
CH:0334.02;lane1;;47.5232773;8.71492577;OHRINGEN ANSCHLUSS 2 (AB);ZH;ZUERICH;A 1
CH:0335.01;lane1;;47.3049507;7.92487717;WIGGERTAL (AB) - AG1411;AG;BERN;A 1
CH:0687.01;lane1;negative;46.8758965;8.64929867;ALTDORF, GOTTHARDSTRASSE - UR6014;UR;ALTDORF;H 2
CH:0099.01;lane1;positive;46.6145096;9.99200916;UMF. S-CHANF;GR;ZERNEZ              ;H 27
CH:0691.01;lane1;negative;47.0704346;7.28665829;LYSS;BE;BIEL;A 6
CH:0691.02;lane2;negative;47.0704269;7.28670216;LYSS;BE;BIEL;A 6
CH:0171.02;lane1;positive;47.0832558;8.63850212;SATTEL N;SZ;VERZW. SATTEL       ;H 8
CH:0030.02;lane1;positive;47.3893204;7.37092924;SOYHIERES;JU;DELEMONT            ;H 18
CH:0678.05;lane2;positive;47.0837784;8.27289104;ANSCHL. EMMEN NORD;LU;LUZERN;A 2
CH:0692.02;lane1;negative;47.0075607;9.07840347;GLARUS S, MITLOEDI;GL;LINTHAL;H 17
CH:0678.06;lane1;positive;47.0838165;8.27288818;ANSCHL. EMMEN NORD;LU;LUZERN;A 2
CH:0693.02;lane1;negative;47.1074562;9.06400871;NAEFELS N;GL;GLARUS;H 17
CH:0694.01;lane1;negative;47.1190987;8.3746233;ROOT (AB);LU;VERZW. A4/A14;A 14
CH:0694.02;lane2;negative;47.1190681;8.3746233;ROOT (AB);LU;VERZW. A4/A14;A 14
CH:0125.02;lane1;positive;47.5368652;8.2453413;WUERENLINGEN;AG;BRUGG;H 5
CH:0096.03;lane2;positive;46.8374443;9.45605183;DOMAT/EMS (AB);GR;REICHENAU           ;A 13
CH:0678.07;lane1;;47.0838737;8.27362919;ANSCHL. EMMEN NORD;LU;VERZW. A1/A2;A 2
CH:0678.08;lane2;;47.0839005;8.27365398;ANSCHL. EMMEN NORD;LU;VERZW. A1/A2;A 2
CH:0695.01;lane1;;47.0898399;8.25034332;ANSCHL. ROTHENBURG;LU;VERZW. A1/A2;A 2
CH:0695.02;lane1;negative;47.0898781;8.25038242;ANSCHL. ROTHENBURG;LU;VERZW. A1/A2;A 2
CH:0096.04;lane1;positive;46.8374062;9.45606327;DOMAT/EMS (AB);GR;REICHENAU           ;A 13
CH:0317.05;lane2;positive;47.6460724;8.6505785;BENKEN ANSCHLUSS (AB);ZH;ZUERICH;A 4
CH:0695.03;lane2;negative;47.0898972;8.25042629;ANSCHL. ROTHENBURG;LU;VERZW. A1/A2;A 2
CH:0695.04;lane1;;47.0904121;8.2492609;ANSCHL. ROTHENBURG;LU;VERZW. A1/A2;A 2
CH:0317.06;lane1;positive;47.6460915;8.65061665;BENKEN ANSCHLUSS (AB);ZH;ZUERICH;A 4
CH:0696.02;lane1;negative;47.210247;7.73704958;BUETZBERG;BE;KIRCHBERG;H 1
CH:0107.01;lane1;positive;46.8758278;7.2757535;WUENNEWIL (AB);FR;FLAMATT             ;A 12
CH:0708.02;lane1;negative;46.9156265;9.76006603;KUEBLIS;GR;LANDQUART;A 28
CH:0720.01;lane1;negative;47.0130806;8.62529564;SCHWYZ (AB);SZ;LUZERN;A 4
CH:0720.02;lane2;negative;47.0130692;8.62533569;SCHWYZ (AB);SZ;LUZERN;A 4
CH:0107.02;lane2;positive;46.8758545;7.27573681;WUENNEWIL (AB);FR;FLAMATT             ;A 12
CH:0534.01;lane1;positive;46.5629425;6.57751226;LAUSANNE BLECHERETTE (AR);VD;VEVEY;A 9
CH:0721.01;lane1;;46.2037086;7.01202011;CCTL - ST MAURICE WEST;VS;AUSFAHRT VON LAUSANNE;A 9
CH:0721.02;lane1;;46.2053566;7.0112524;CCTL - ST MAURICE WEST;VS;AUSFAHRT VON LAUSANNE;A 9
CH:0722.01;lane1;;46.2019615;7.01529169;CCTL ST MAURICE OST;VS;AUSFAHRT VON MARTIGNY;A 9
CH:0722.02;lane1;;46.2035675;7.01384211;CCTL ST MAURICE OST;VS;AUSFAHRT VON MARTIGNY;A 9
CH:0727.01;lane1;;47.1538887;8.4338131;VERZW. RUETIHOF (AB);ZG;VERZW. A4/A14;A 4
CH:0727.02;lane1;negative;47.1539307;8.43396187;VERZW. RUETIHOF (AB);ZG;VERZW. A4/A14;A 4
CH:0727.03;lane2;negative;47.1539421;8.43400478;VERZW. RUETIHOF (AB);ZG;VERZW. A4/A14;A 4
CH:0534.02;lane2;positive;46.5629654;6.577528;LAUSANNE BLECHERETTE (AR);VD;VEVEY;A 9
CH:0534.03;lane3;positive;46.5629959;6.57754183;LAUSANNE BLECHERETTE (AR);VD;VEVEY;A 9
CH:0727.06;lane1;;47.1540756;8.43414116;VERZW. RUETIHOF (AB);ZG;VERZW. A4/A14;A 4
CH:0727.07;lane1;;47.1541367;8.43448257;VERZW. RUETIHOF (AB);ZG;VERZW. A4/A14;A 4
CH:0729.01;lane1;negative;46.0278511;8.92664623;GALLERIA VEDEGGIO-CASSARATE;TI;A2/VEZIA;H 399
CH:0335.06;lane1;;47.3051414;7.92476082;WIGGERTAL (AB) - AG1411;AG;BERN;A 1
CH:0339.07;lane1;;47.4567032;8.27403831;BADEN-WEST (AB) - AG1573;AG;Bern;A 1
CH:0172.01;lane1;positive;46.3182564;6.97586966;AIGLE, PONT GRANDE EAU;VD;LE SEPEY            ;H 11
CH:0339.08;lane1;;47.4560204;8.27211666;BADEN-WEST (AB) - AG1573;AG;Bern;A 1
CH:0340.02;lane1;;47.4581795;8.28518867;BADEN-WEST (AB) - AG1441;AG;Bern;A 1
CH:0342.07;lane1;;47.4226532;8.39096737;DIETIKON (AB) - AG1400;AG;Bern;A 1
CH:0342.08;lane1;;47.4229126;8.38880539;DIETIKON (AB) - AG1400;AG;Bern;A 1
CH:0343.01;lane1;;47.449501;8.34282303;WETTINGEN OST ANSCHLUSS - AG1562;AG;A1;A 1
CH:0343.02;lane2;;47.4495201;8.34278297;WETTINGEN OST ANSCHLUSS - AG1562;AG;A1;A 1
CH:0343.03;lane1;;47.449543;8.34273148;WETTINGEN OST ANSCHLUSS - AG1562;AG;A1;A 1
CH:0343.04;lane1;;47.4496498;8.34263802;WETTINGEN OST ANSCHLUSS - AG1562;AG;A1;A 1
CH:0366.01;lane1;;47.4528122;8.31499767;NEUENHOF ANSCHLUSS - AG1571;AG;Bern  (Ein-/Ausfahrten);A 1
CH:0748.01;lane1;negative;46.6034775;7.37407827;WEISSENBACH;BE;SPIEZ;H 11
CH:0635.02;lane1;positive;46.6814079;8.81194496;TAVETSCH, CRESTAS-TUNNEL -  GR0306;GR;ANDERMATT;H 19
CH:0757.01;lane1;negative;46.3310661;7.75693083;MITTALTUNNEL;VS;KANDERSTEG;H 509
CH:0250.01;lane1;positive;46.3121071;6.94677973;AIGLE E (AR);VD;SION;A 9
CH:0250.02;lane2;positive;46.3121223;6.94681978;AIGLE E (AR);VD;SION;A 9
CH:0366.02;lane2;;47.4528389;8.31497574;NEUENHOF ANSCHLUSS - AG1571;AG;Bern  (Ein-/Ausfahrten);A 1
CH:0759.03;lane2;negative;47.37397;8.69842052;NAENIKON;ZH;BRUETTISELLEN;A 15
CH:0759.04;lane1;negative;47.3739967;8.69844246;NAENIKON;ZH;BRUETTISELLEN;A 15
CH:0366.03;lane1;;47.4530602;8.31507492;NEUENHOF ANSCHLUSS - AG1571;AG;Bern  (Ein-/Ausfahrten);A 1
CH:0760.02;lane1;negative;47.3458595;8.74354553;USTER O;ZH;BRUETTISELLEN;A 15
CH:0760.03;lane1;negative;47.3458595;8.74358654;USTER O;ZH;BRUETTISELLEN;A 15
CH:0636.01;lane1;positive;46.7112427;10.0853071;ZERNEZ N, PRASCHITSCH - GR336;GR;MARTINA;H 27
CH:0761.02;lane1;negative;47.3101807;8.81030655;HINWIL N;ZH;BRUETTISELLEN;H 340
CH:0763.01;lane1;negative;47.2812271;8.82382679;HINWIL S;ZH;BRUETTISELLEN;A 15
CH:0763.02;lane2;negative;47.2812424;8.82386589;HINWIL S;ZH;BRUETTISELLEN;A 15
CH:0363.02;lane1;positive;47.2471352;7.75765181;AARWANGEN, SCHUERHOF;BE;LANGENTHAL;H 244
CH:0366.04;lane1;;47.454071;8.31667423;NEUENHOF ANSCHLUSS - AG1571;AG;Bern  (Ein-/Ausfahrten);A 1
CH:0764.01;lane1;negative;47.2163391;8.61096287;HIRZEL;ZH;WAEDENSWIL;H 338
CH:0366.05;lane1;;47.4537849;8.31626129;NEUENHOF ANSCHLUSS - AG1571;AG;Bern  (Ein-/Ausfahrten);A 1
CH:0035.04;lane2;positive;47.0388451;9.46286964;TRUEBBACH S (AB);SG;VERZW. A3 / A13;A 13
CH:0765.02;lane1;negative;47.3979912;9.29666805;ST.GALLEN, WINKELN ALTER ZOLL - SG51;SG;HERISAU;H 8
CH:0766.01;lane1;negative;47.2396011;8.86434269;JONA;SG;RUETI;A 15
CH:0035.05;lane1;positive;47.0386581;9.46302986;TRUEBBACH S (AB);SG;VERZW. A3 / A13;A 13
CH:0769.01;lane1;negative;47.7224503;8.66835976;HERBLINGEN;SH;DEUTSCHLAND;A 4
CH:0376.03;lane2;positive;47.6169014;8.68459129;TRUELLIKON ANSCHLUSS S (AB);ZH;ZUERICH;A 4
CH:0771.01;lane1;negative;47.4513588;7.59656906;TUNNEL EGGFLUE;BL;BASEL;A 18
CH:0376.02;lane1;positive;47.6169167;8.68463898;TRUELLIKON ANSCHLUSS S (AB);ZH;ZUERICH;A 4
CH:0320.03;lane2;positive;46.8843765;9.53649235;CHUR NORD (AB);GR;CHUR;A 13
CH:0773.02;lane1;negative;47.5128136;7.72267151;FUELLINSDORF;BL;AUGST;A 22
CH:0320.04;lane1;positive;46.8843575;9.53653812;CHUR NORD (AB);GR;CHUR;A 13
CH:0314.01;lane1;positive;47.1811714;8.98999691;REICHENBURG (AB);SG;SARGANS;A 3
CH:0775.03;lane2;negative;47.4745216;7.75900364;LAUSEN;BL;AUGST;A 22
CH:0775.04;lane1;negative;47.4745483;7.7590313;LAUSEN;BL;AUGST;A 22
CH:0314.02;lane2;positive;47.1812019;8.99001789;REICHENBURG (AB);SG;SARGANS;A 3
CH:0776.02;lane1;negative;47.3614426;9.29439259;WALDSTATT;AR;APPENZELL;H 8
CH:0398.02;lane1;positive;46.4866676;7.20253801;ROUGEMONT W;VD;CHATEAU D'OEX;H 11
CH:0261.02;lane1;positive;46.641922;8.61381245;OBERALPPASS W;UR;ANDERMATT;H 19
CH:0785.03;lane2;negative;47.5823441;9.01882362;ESCHIKOFEN;TG;FRAUENFELD;A 23
CH:0785.04;lane1;negative;47.5823631;9.0188427;ESCHIKOFEN;TG;FRAUENFELD;A 23
CH:0574.01;lane1;positive;47.2726097;8.43779373;ANSCHLUSS AFFOLTERN A.A 2 (AB) - ZH2104;ZH;LUZERN;A 4
CH:0789.02;lane1;negative;47.5621223;9.12673855;WEINFELDEN;TG;ESCHIKOFEN;H 14
CH:0797.01;lane1;negative;47.4739418;7.0010767;NEU-BOIS, TUNNEL N (AR);JU;0;A 16
CH:0797.02;lane2;negative;47.4739418;7.00112772;NEU-BOIS, TUNNEL N (AR);JU;0;A 16
CH:0574.02;lane2;positive;47.2725945;8.43775463;ANSCHLUSS AFFOLTERN A.A 2 (AB) - ZH2104;ZH;LUZERN;A 4
CH:0258.02;lane1;positive;46.4699326;9.71708584;JULIER, LA VEDUTA;GR;ST. MORITZ;H 3
CH:0014.02;lane1;positive;46.4646988;9.79495239;JULIER, LA VEDUTA;GR;ST. MORITZ          ;H 3
CH:0078.01;lane1;positive;46.7794991;6.92047358;PAYERNE S;VD;BERN                ;H 1
CH:0799.03;lane2;negative;46.9788132;6.8905592;SERRIERES, TUNNEL (AR);NE;YVERDON;A 5
CH:0799.04;lane1;negative;46.9788399;6.89054728;SERRIERES, TUNNEL (AR);NE;YVERDON;A 5
CH:0801.01;lane2;negative;47.0134315;7.00916529;MARIN EST (AB);NE;NEUCHATEL;A 5
CH:0801.02;lane1;negative;47.0134659;7.00916719;MARIN EST (AB);NE;NEUCHATEL;A 5
CH:0801.03;lane1;;47.0135841;7.00646591;MARIN EST (AB);NE;NEUCHATEL;A 5
CH:0801.04;lane1;;47.0136909;7.00982666;MARIN EST (AB);NE;NEUCHATEL;A 5
CH:0275.01;lane1;positive;47.5808029;8.9275856;FRAUENFELD OST  (AB);TG;KREUZLINGEN;A 7
CH:0275.02;lane2;positive;47.5808258;8.92754745;FRAUENFELD OST  (AB);TG;KREUZLINGEN;A 7
CH:0802.03;lane1;;47.0132446;7.00858164;MARIN OUEST (AB);NE;NEUCHATEL;A 5
CH:0802.04;lane1;;47.0132675;7.00431967;MARIN OUEST (AB);NE;NEUCHATEL;A 5
CH:0802.05;lane2;;47.0132256;7.00431871;MARIN OUEST (AB);NE;NEUCHATEL;A 5
CH:0813.01;lane1;;47.3998146;8.54857635;MILCHBUCK;ZH;ZUERICH;A 1L
CH:0813.02;lane2;;47.399826;8.54852962;MILCHBUCK;ZH;ZUERICH;A 1L
CH:0326.02;lane2;positive;46.8891258;7.34097195;FLAMATT E (AB);FR;BERN;A 12
CH:0813.04;lane1;;47.3998528;8.54810047;MILCHBUCK;ZH;ZUERICH;A 1L
CH:0813.05;lane1;negative;47.3998871;8.54804134;MILCHBUCK;ZH;ZUERICH;A 1L
CH:0827.01;lane1;negative;47.1904144;9.48517418;BUCHS (AB);SG;ST.MARGRETHEN;A 13
CH:0827.02;lane2;negative;47.1903992;9.48523808;BUCHS (AB);SG;ST.MARGRETHEN;A 13
CH:0326.01;lane1;positive;46.8890991;7.34098482;FLAMATT E (AB);FR;BERN;A 12
CH:0232.01;lane1;positive;46.1482811;7.15343475;SAXON W (AR);VS;SION;A 9
CH:0828.01;lane1;negative;47.0809441;9.50096798;TRUEBBACH N (AB);SG;ST.MARGRETHEN;A 13
CH:0828.02;lane2;negative;47.0809212;9.50100517;TRUEBBACH N (AB);SG;ST.MARGRETHEN;A 13
CH:0232.02;lane2;positive;46.1483078;7.15339613;SAXON W (AR);VS;SION;A 9
CH:0367.01;lane1;;47.457756;8.28125477;BADEN WEST ANSCHL. - AG1572;AG;Bern;A 1
CH:0367.02;lane1;;47.4579048;8.28282261;BADEN WEST ANSCHL. - AG1572;AG;Bern;A 1
CH:0828.03;lane2;positive;47.0808754;9.50107288;TRUEBBACH N (AB);SG;SARGANS;A 13
CH:0829.03;lane2;negative;47.1486206;9.0393486;BILTEN (AB);GL;ZUERICH;A 3
CH:0829.04;lane1;negative;47.1486397;9.03940105;BILTEN (AB);GL;ZUERICH;A 3
CH:0828.04;lane1;positive;47.0808449;9.50111485;TRUEBBACH N (AB);SG;SARGANS;A 13
CH:0264.01;lane1;positive;46.8710976;8.78112698;KLAUSENPASS W;UR;GLARUS;H 17
CH:0830.03;lane2;negative;47.1287003;9.08473015;NIEDERURNEN (AB);GL;ZUERICH;A 3
CH:0830.04;lane1;negative;47.128727;9.08473492;NIEDERURNEN (AB);GL;ZUERICH;A 3
CH:0633.01;lane1;positive;46.7018738;9.72562218;WIESEN E - GR0239;GR;DAVOS;H 417
CH:0695.05;lane2;positive;47.0898209;8.25064754;ANSCHL. ROTHENBURG;LU;LUZERN;A 2
CH:0833.03;lane2;negative;47.1495247;7.28852129;BUETTENBERGTUNNEL;BE;NEUCHATEL;A 5
CH:0833.04;lane1;negative;47.1495209;7.2884469;BUETTENBERGTUNNEL;BE;NEUCHATEL;A 5
CH:0695.06;lane1;positive;47.0898399;8.25069141;ANSCHL. ROTHENBURG;LU;LUZERN;A 2
CH:0310.04;lane1;positive;47.2611198;9.52779293;SENNWALD (AB);SG;SARGANS;A 13
CH:0834.03;lane2;negative;47.1256371;7.26356411;LAENGHOLZTUNNEL;BE;NEUCHATEL;A 5
CH:0834.04;lane1;negative;47.125679;7.2634573;LAENGHOLZTUNNEL;BE;NEUCHATEL;A 5
CH:0515.01;lane1;;47.5306053;8.77463531;ANSCHLUSS OBERWINTERTHUR 2 (AB);ZH;ZUERICH;A 1
CH:0515.02;lane1;;47.5309715;8.77733803;ANSCHLUSS OBERWINTERTHUR 2 (AB);ZH;ZUERICH;A 1
CH:0516.05;lane1;;47.5307274;8.77410126;ANSCHLUSS OBERWINTERTHUR 1 (AB);ZH;ZUERICH;A 1
CH:0516.06;lane1;;47.5301895;8.77196503;ANSCHLUSS OBERWINTERTHUR 1 (AB);ZH;ZUERICH;A 1
CH:0543.04;lane1;;47.4300041;8.36458874;SPREITENBACH AUSFAHRT (AB) - AG1445;AG;0;A 1
CH:0544.04;lane1;;47.4270782;8.37399292;SPREITENBACH EINFAHRT (AB) - AG1444;AG;BERN;A 1
CH:0640.01;lane1;;47.5303383;8.81423473;ANSCHLUSS ATTIKON (AB));ZH;ZUERICH;A 1
CH:0640.06;lane1;;47.5306587;8.81434822;ANSCHLUSS ATTIKON (AB));ZH;ZUERICH;A 1
CH:0310.03;lane2;positive;47.2611275;9.52774429;SENNWALD (AB);SG;SARGANS;A 13
CH:0354.02;lane1;positive;46.5188446;7.31046629;SAANENMOESER;BE;SAANEN;H 11
CH:0216.02;lane2;positive;47.1935463;8.89491272;WANGEN SZ (AB);SZ;WEESEN;A 3
CH:0216.01;lane1;positive;47.1935234;8.89488411;WANGEN SZ (AB);SZ;WEESEN;A 3
CH:0607.02;lane2;positive;47.2851143;8.55665398;THALWIL ( AB) - ZH104;ZH;CHUR;A 3
CH:0844.06;lane1;negative;47.6923866;8.62188339;BAHNTAL GALGENBUCKTUNNEL;SH;KLETTGAU;A 4
CH:0844.07;lane2;negative;47.6923943;8.62183285;BAHNTAL GALGENBUCKTUNNEL;SH;KLETTGAU;A 4
CH:0844.08;lane3;negative;47.6910133;8.62184238;BAHNTAL GALGENBUCKTUNNEL;SH;KLETTGAU;A 4
CH:0847.01;lane1;negative;47.6913223;8.60866356;ENGI GALGENBUCKTUNNEL;SH;KLETTGAU;H 13
CH:0607.01;lane1;positive;47.285099;8.55661392;THALWIL ( AB) - ZH104;ZH;CHUR;A 3
CH:0849.01;lane1;;47.6938057;8.62423706;FAESENSTAUB SUED;SH;DEUTSCHLAND;A 4
CH:0849.02;lane1;negative;47.6932373;8.62518597;FAESENSTAUB SUED;SH;DEUTSCHLAND;A 4
CH:0849.03;lane1;;47.693737;8.62427902;FAESENSTAUB SUED;SH;DEUTSCHLAND;A 4
CH:0324.01;lane1;positive;46.5485382;6.91524935;CHATEL-ST-DENIS N (AR);FR;FRIBOURG;A 12
CH:0849.05;lane1;;47.6932373;8.62528419;FAESENSTAUB SUED;SH;DEUTSCHLAND;A 4
CH:0850.01;lane1;negative;47.6912613;8.62614918;CHOLFIRST NORD;ZH;DEUTSCHLAND;A 4
CH:0850.02;lane2;negative;47.6912766;8.62618637;CHOLFIRST NORD;ZH;DEUTSCHLAND;A 4
CH:0324.02;lane2;positive;46.5485382;6.91519976;CHATEL-ST-DENIS N (AR);FR;FRIBOURG;A 12
CH:0850.04;lane1;;47.6917839;8.62686825;CHOLFIRST NORD;ZH;DEUTSCHLAND;A 4
CH:0743.01;lane1;;46.5610657;6.56108999;CRISSIER (AR) RI NORD;VD;0;A 1
CH:0743.02;lane2;;46.5610619;6.56104469;CRISSIER (AR) RI NORD;VD;0;A 1
CH:0349.01;lane1;positive;47.5461922;7.82534313;RHEINFELDEN (AB) - AG1420;AG;VERZW. A3/A1;A 3
CH:0851.04;lane4;negative;46.1137428;7.09022427;ECHANGEUR GD.ST.BERNARD OUEST (AR);VS;LAUSANNE;A 9
CH:0851.05;lane3;negative;46.1137733;7.09021521;ECHANGEUR GD.ST.BERNARD OUEST (AR);VS;LAUSANNE;A 9
CH:0851.06;lane2;negative;46.1138611;7.09019899;ECHANGEUR GD.ST.BERNARD OUEST (AR);VS;LAUSANNE;A 9
CH:0851.07;lane1;negative;46.1139374;7.09016895;ECHANGEUR GD.ST.BERNARD OUEST (AR);VS;LAUSANNE;A 9
CH:0349.02;lane2;positive;47.5462227;7.82533741;RHEINFELDEN (AB) - AG1420;AG;VERZW. A3/A1;A 3
CH:0695.07;lane1;;47.0890656;8.25213623;ANSCHL. ROTHENBURG;LU;VERZW. A1/A2;A 2
CH:0695.08;lane1;;47.0898743;8.2507391;ANSCHL. ROTHENBURG;LU;VERZW. A1/A2;A 2
CH:0852.04;lane3;negative;46.1152916;7.09855127;ECHANGEUR GD.ST.BERNARD EST (AR);VS;LAUSANNE;A 9
CH:0852.05;lane2;negative;46.1153183;7.09853125;ECHANGEUR GD.ST.BERNARD EST (AR);VS;LAUSANNE;A 9
CH:0852.06;lane1;negative;46.1153603;7.09849644;ECHANGEUR GD.ST.BERNARD EST (AR);VS;LAUSANNE;A 9
CH:0853.01;lane1;negative;47.1575661;7.27069616;BIENNE NORD (AB);BE;DELEMONT;A 16
CH:0853.02;lane2;negative;47.157608;7.27068615;BIENNE NORD (AB);BE;DELEMONT;A 16
CH:0744.01;lane2;;46.5612488;6.56021357;CRISSIER (AR) RI SUED;VD;GENEVE;A 1
CH:0744.02;lane1;;46.5612602;6.5602603;CRISSIER (AR) RI SUED;VD;GENEVE;A 1
CH:0857.01;lane1;negative;46.7486763;7.60226011;THUN, ALLMENDTUNNEL S (AB);BE;0;A 6
CH:0857.02;lane1;negative;46.7486839;7.60231972;THUN, ALLMENDTUNNEL S (AB);BE;0;A 6
CH:0215.01;lane1;positive;47.5944366;9.0068264;MUELLHEIM (AB);TG;KREUZLINGEN;A 7
CH:0215.02;lane2;positive;47.5944595;9.00679207;MUELLHEIM (AB);TG;KREUZLINGEN;A 7
